{"version": 0.6, "generator": "Overpass API 0.7.62.8 e802775f", "osm3s": {"timestamp_osm_base": "2025-12-04T23:52:29Z", "copyright": "The data included in this document is from www.openstreetmap.org. The data is made available under ODbL."}, "elements": [{"type": "node", "id": 94918615, "lat": 48.9339031, "lon": 2.2091188, "tags": {"name": "Bl\u00e9 Garni", "shop": "bakery"}}, {"type": "node", "id": 181290552, "lat": 48.8949393, "lon": 2.2239739, "tags": {"check_date": "2023-10-24", "name": "P\u00e2tisserie Viennoiserie", "shop": "bakery"}}, {"type": "node", "id": 181290563, "lat": 48.8954414, "lon": 2.2233804, "tags": {"check_date:opening_hours": "2023-02-15", "name": "Boulangerie MD du parc", "opening_hours": "Mo-Fr 06:30-19:30", "ref:FR:SIRET": "51430332000014", "shop": "bakery", "wheelchair": "yes"}}, {"type": "node", "id": 523275918, "lat": 48.8902576, "lon": 2.1949991, "tags": {"contact:email": "romaric.maitreboulanger@orange.fr", "contact:fax": "+33 1 47 21 06 44", "contact:phone": "+33 1 47 21 06 44", "indoor_seating": "no", "name": "Romaric", "note:fr": "Ma\u00eetre Boulanger", "opening_hours": "Mo-Su 06:30-20:30; We off", "outdoor_seating": "no", "ref:FR:SIRET": "50214274800024", "shop": "bakery", "source": "survey", "takeaway": "only"}}, {"type": "node", "id": 569952800, "lat": 48.8963651, "lon": 2.2347486, "tags": {"addr:postcode": "92400", "addr:street": "Rue des \u00c9tudiants", "name": "D'Ici et d'Ailleurs", "ref:FR:SIRET": "94829114100018", "shop": "bakery"}}, {"type": "node", "id": 581704877, "lat": 48.8881197, "lon": 2.1854669, "tags": {"shop": "bakery"}}, {"type": "node", "id": 627619020, "lat": 48.8916957, "lon": 2.1909645, "tags": {"check_date": "2025-07-04", "contact:phone": "+33 1 47 21 16 31", "name": "Le Petit Palais", "note:fr": "Le petit Palais depuis mars 2015", "opening_hours": "Mo-Fr 07:30-14:00,16:00-20:00; Su 08:30-14:00", "payment:cash": "yes", "payment:credit_cards": "yes", "payment:debit_cards": "yes", "ref:FR:SIRET": "80898273000018", "shop": "bakery", "source": "survey", "wheelchair": "yes"}}, {"type": "node", "id": 628372498, "lat": 48.896153, "lon": 2.1970688, "tags": {"shop": "bakery"}}, {"type": "node", "id": 633789477, "lat": 48.8970846, "lon": 2.1958581, "tags": {"name": "Le Fournil de la Seine", "shop": "bakery", "source": "survey 2014"}}, {"type": "node", "id": 634521311, "lat": 48.8945929, "lon": 2.1927476, "tags": {"opening_hours": "Mo-Fr 06:30-22:00; Sa-Su 07:00-22:00", "shop": "bakery", "wheelchair": "no"}}, {"type": "node", "id": 635138778, "lat": 48.8888511, "lon": 2.239157}, {"type": "node", "id": 648533238, "lat": 48.8948369, "lon": 2.1959446, "tags": {"check_date": "2025-10-14", "description:fr": "Fut l'Artisant Boulanger Patissier Chocolatier Thierry H\u00e9ron", "name": "Ma\u00eetre Pain", "old_name": "Thierry H\u00e9ron", "organic": "yes", "ref:FR:SIRET": "41038979500031", "shop": "bakery", "source": "survey", "wheelchair": "yes"}}, {"type": "node", "id": 650700642, "lat": 48.8935706, "lon": 2.1957399}, {"type": "node", "id": 650700644, "lat": 48.8935524, "lon": 2.1956563}, {"type": "node", "id": 650700646, "lat": 48.8935691, "lon": 2.1956589}, {"type": "node", "id": 671799087, "lat": 48.9147238, "lon": 2.2703854, "tags": {"contact:housenumber": "39 bis", "contact:street": "Rue du G\u00e9n\u00e9ral Leclerc", "name": "Aux D\u00e9lices de la Gare", "opening_hours": "Mo,We-Fr 06:30-20:30; Sa,Su 07:00-20:30", "shop": "bakery"}}, {"type": "node", "id": 671800567, "lat": 48.91579, "lon": 2.2715973, "tags": {"name": "Maison des Gourmandises", "shop": "bakery"}}, {"type": "node", "id": 692401207, "lat": 48.888864, "lon": 2.1949307, "tags": {"contact:email": "boulangerie.rohken@gmail.com", "contact:phone": "+33 1 46 69 09 05", "name": "R\u00f6hken", "opening_hours": "Tu-Sa 07:30-20:30; Su 07:30-18:30", "shop": "bakery", "source": "survey"}}, {"type": "node", "id": 706373133, "lat": 48.9237364, "lon": 2.2796827, "tags": {"shop": "bakery"}}, {"type": "node", "id": 708830353, "lat": 48.8895053, "lon": 2.1823056, "tags": {"check_date": "2022-08-20", "indoor_seating": "no", "name": "P\u00e2tisserie", "outdoor_seating": "no", "payment:credit_cards": "yes", "payment:debit_cards": "yes", "payment:mastercard": "yes", "payment:visa": "yes", "shop": "bakery", "source": "survey", "takeaway": "only", "wheelchair": "yes"}}, {"type": "node", "id": 721680959, "lat": 48.890132, "lon": 2.1968767, "tags": {"indoor_seating": "no", "name": "Chez Christophe", "opening_hours": "Tu-Sa 06:30-20:00; Su 07:00-14:00", "outdoor_seating": "no", "phone": "+33141370459", "ref:FR:SIRET": "87824439100024", "shop": "bakery", "source": "survey", "takeaway": "only", "wheelchair": "no"}}, {"type": "node", "id": 744698738, "lat": 48.9468672, "lon": 2.2566593, "tags": {"contact:housenumber": "37", "contact:street": "Boulevard Karl Marx", "name": "Le Moulin d'Argent", "ref:FR:SIRET": "48057881400018", "shop": "bakery", "source": "survey"}}, {"type": "node", "id": 793850920, "lat": 48.8942844, "lon": 2.2766447, "tags": {"amenity": "fast_food", "cuisine": "sandwich", "name": "Croqu'Pain", "shop": "bakery", "source": "survey"}}, {"type": "node", "id": 813268509, "lat": 48.9233568, "lon": 2.2536468, "tags": {"name": "Bl\u00e9ry", "opening_hours": "Mo-Fr 07:00-20:00; Sa 08:00-19:30", "shop": "bakery", "source": "survey"}}, {"type": "node", "id": 814114615, "lat": 48.9238384, "lon": 2.2579734, "tags": {"indoor_seating": "no", "name": "Les Saveurs de Colombes", "opening_hours": "Mo-Sa 07:00-20:00; We off; Su 07:00-14:00", "outdoor_seating": "yes", "ref:FR:SIRET": "78922004300010", "shop": "bakery", "source": "survey;local knowledge"}}, {"type": "node", "id": 814114754, "lat": 48.9238336, "lon": 2.2592243}, {"type": "node", "id": 814114937, "lat": 48.9238184, "lon": 2.2591048}, {"type": "node", "id": 821156856, "lat": 48.8909298, "lon": 2.2354405}, {"type": "node", "id": 821157030, "lat": 48.8906946, "lon": 2.2352605}, {"type": "node", "id": 821632316, "lat": 48.9238854, "lon": 2.2561877, "tags": {"contact:city": "Colombes", "contact:housenumber": "30", "contact:postcode": "92700", "contact:street": "Rue Saint-Denis", "name": "Bon Temps Roul\u00e9", "payment:cash": "yes", "payment:credit_cards": "yes", "payment:mastercard": "yes", "payment:visa": "yes", "ref:FR:SIRET": "45314559100013", "shop": "bakery", "source": "survey;local knowledge"}}, {"type": "node", "id": 827665899, "lat": 48.9194593, "lon": 2.2804459, "tags": {"addr:city": "Asni\u00e8res-sur-Seine", "addr:housenumber": "180", "addr:postcode": "92600", "addr:street": "Avenue d'Argenteuil", "check_date": "2025-07-24", "indoor_seating": "yes", "name": "L'Atelier des D\u00e9lices", "opening_hours": "Tu-Su 07:00-20:00", "outdoor_seating": "yes", "ref:FR:SIRET": "51381363400013", "shop": "bakery", "wheelchair": "no"}}, {"type": "node", "id": 839306929, "lat": 48.9486407, "lon": 2.2370578}, {"type": "node", "id": 839418751, "lat": 48.9485572, "lon": 2.2370313}, {"type": "node", "id": 839427263, "lat": 48.9485685, "lon": 2.2370885}, {"type": "node", "id": 839439860, "lat": 48.9450431, "lon": 2.250458, "tags": {"name": "Alves", "shop": "bakery", "source": "survey"}}, {"type": "node", "id": 839540365, "lat": 48.948546, "lon": 2.2369741}, {"type": "node", "id": 839540592, "lat": 48.9486182, "lon": 2.2369416}, {"type": "node", "id": 887163325, "lat": 48.8797701, "lon": 2.2188005, "tags": {"indoor_seating": "yes", "name": "Le Grand Fournil de Nanterre", "outdoor_seating": "no", "ref:FR:SIRET": "92155574400017", "shop": "bakery", "source": "survey"}}, {"type": "node", "id": 887167605, "lat": 48.8827495, "lon": 2.2234184, "tags": {"name": "Au Palais Gourmand", "opening_hours": "Mo-Fr 06:00-21:00, Sa 07:00-21:00", "ref:FR:SIRET": "75260838000016", "shop": "bakery", "toilets:wheelchair": "no", "wheelchair": "no"}}, {"type": "node", "id": 888528447, "lat": 48.9346359, "lon": 2.2028929}, {"type": "node", "id": 888534657, "lat": 48.9348083, "lon": 2.2029322}, {"type": "node", "id": 888535258, "lat": 48.9347302, "lon": 2.2027804}, {"type": "node", "id": 888537486, "lat": 48.934725, "lon": 2.2030635}, {"type": "node", "id": 888540125, "lat": 48.9348052, "lon": 2.202967}, {"type": "node", "id": 899019420, "lat": 48.9231737, "lon": 2.2065844}, {"type": "node", "id": 899023766, "lat": 48.9231341, "lon": 2.2064725}, {"type": "node", "id": 899024497, "lat": 48.92307, "lon": 2.2065251}, {"type": "node", "id": 899030219, "lat": 48.9231096, "lon": 2.206637}, {"type": "node", "id": 901762795, "lat": 48.8961491, "lon": 2.2563368, "tags": {"name": "Au Paradis du Pain", "shop": "bakery"}}, {"type": "node", "id": 914192718, "lat": 48.9221456, "lon": 2.2374073}, {"type": "node", "id": 914193362, "lat": 48.9222207, "lon": 2.2373616}, {"type": "node", "id": 914193531, "lat": 48.9221595, "lon": 2.2373181}, {"type": "node", "id": 914194161, "lat": 48.9222246, "lon": 2.2372888}, {"type": "node", "id": 914194340, "lat": 48.9221417, "lon": 2.2373261}, {"type": "node", "id": 930988224, "lat": 48.9125911, "lon": 2.2618843}, {"type": "node", "id": 931023980, "lat": 48.9125177, "lon": 2.2617369}, {"type": "node", "id": 931055467, "lat": 48.9124759, "lon": 2.2618613}, {"type": "node", "id": 931085428, "lat": 48.9126024, "lon": 2.2617557}, {"type": "node", "id": 931124347, "lat": 48.912486, "lon": 2.261784}, {"type": "node", "id": 933570079, "lat": 48.8831372, "lon": 2.2043573, "tags": {"shop": "bakery"}}, {"type": "node", "id": 945056259, "lat": 48.9240833, "lon": 2.2524244, "tags": {"name": "Beuna\u00eeche", "shop": "bakery", "source": "survey", "toilets:wheelchair": "no"}}, {"type": "node", "id": 947307323, "lat": 48.8832502, "lon": 2.2596129, "tags": {"check_date": "2025-07-15", "name": "Maison Guillaume", "ref:FR:SIRET": "38844798900012", "shop": "bakery", "source": "survey;local knowledge;streetlevel imagery", "wheelchair": "limited"}}, {"type": "node", "id": 959829435, "lat": 48.8902301, "lon": 2.2519042}, {"type": "node", "id": 959831636, "lat": 48.8902438, "lon": 2.2519142}, {"type": "node", "id": 959850066, "lat": 48.8905872, "lon": 2.2451509}, {"type": "node", "id": 960856638, "lat": 48.899734, "lon": 2.2457707}, {"type": "node", "id": 960857508, "lat": 48.8997412, "lon": 2.2457279}, {"type": "node", "id": 987112242, "lat": 48.8808185, "lon": 2.2739919, "tags": {"name": "Fauvent", "shop": "bakery", "source": "survey"}}, {"type": "node", "id": 988277474, "lat": 48.8820892, "lon": 2.2699888, "tags": {"brand": "Paul", "brand:wikidata": "Q3370417", "name": "Paul", "shop": "bakery", "source": "survey"}}, {"type": "node", "id": 989431381, "lat": 48.895015, "lon": 2.2659078, "tags": {"name": "Boulangerie", "shop": "bakery", "source": "survey"}}, {"type": "node", "id": 990506296, "lat": 48.9044004, "lon": 2.2557284, "tags": {"name": "Les Bichons", "ref:FR:SIRET": "89524334300012", "shop": "bakery", "source": "survey", "toilets:wheelchair": "no", "wheelchair": "yes"}}, {"type": "node", "id": 990506316, "lat": 48.89737, "lon": 2.2566253, "tags": {"addr:city": "Courbevoie", "addr:housenumber": "10", "addr:postcode": "92400", "addr:street": "Rue de Colombes", "check_date": "2023-05-15", "name": "L'Instant Gourmand", "payment:cash": "yes", "payment:credit_cards": "yes", "phone": "+33 1 43 33 31 15", "ref:FR:SIRET": "89946614800017", "shop": "bakery", "source": "survey", "wheelchair": "no"}}, {"type": "node", "id": 994119180, "lat": 48.8994026, "lon": 2.2616138, "tags": {"name": "Huet", "opening_hours": "Mo-Fr 06:00-20:00; Su 07:30-13:30", "shop": "bakery", "source": "survey"}}, {"type": "node", "id": 1119108137, "lat": 48.8830805, "lon": 2.237447, "tags": {"name": "Boulangerie Banette", "opening_hours": "Su-Fr 07:00-20:00", "shop": "bakery", "wheelchair": "no"}}, {"type": "node", "id": 1137858681, "lat": 48.8818968, "lon": 2.2392413, "tags": {"addr:city": "Puteaux", "addr:housenumber": "107", "addr:postcode": "92800", "addr:street": "Rue Jean Jaur\u00e8s", "indoor_seating": "no", "name": "Boulangerie Niel", "opening_hours": "Mo-Sa 07:00-20:30; Su 07:00-20:00", "outdoor_seating": "no", "phone": "+33 9 86 39 67 23", "shop": "bakery", "takeaway": "only"}}, {"type": "node", "id": 1137858688, "lat": 48.8807061, "lon": 2.2378345, "tags": {"indoor_seating": "no", "name": "Chez Meunier", "opening_hours": "We-Mo 06:00-20:00", "outdoor_seating": "no", "shop": "bakery", "takeaway": "only", "wheelchair": "no"}}, {"type": "node", "id": 1200425682, "lat": 48.909521, "lon": 2.247342, "tags": {"name": "Goudenhooft", "opening_hours": "Mo,We-Sa 07:15-13:30, Su 07:30-13:30, Mo,We-Fr 15:30-20:00, Sa 16:00-20:00", "shop": "bakery"}}, {"type": "node", "id": 1210679097, "lat": 48.907726, "lon": 2.261236, "tags": {"addr:city": "Bois-Colombes", "addr:housenumber": "25", "addr:postcode": "92270", "addr:street": "Rue Hispano Suiza", "check_date": "2025-09-18", "name": "Maison Gahfif", "phone": "+33 1 47 85 82 31", "shop": "bakery", "source": "survey", "wheelchair": "yes"}}, {"type": "node", "id": 1221139453, "lat": 48.9026839, "lon": 2.2752403, "tags": {"name": "Rendez-vous des Gourmets", "ref:FR:SIRET": "75053353100018", "shop": "bakery"}}, {"type": "node", "id": 1221153776, "lat": 48.8969107, "lon": 2.2552205, "tags": {"name": "S\u00e9vrine et Fabrice", "ref:FR:SIRET": "81395969900014", "shop": "bakery", "source:name": "survey", "wheelchair": "no"}}, {"type": "node", "id": 1249136372, "lat": 48.908154, "lon": 2.150463, "tags": {"addr:housenumber": "22", "addr:street": "Rue du G\u00e9n\u00e9ral Leclerc", "check_date": "2025-05-31", "name": "Au Pompadour", "opening_hours": "Fr-Tu 06:30-20:00", "ref:FR:SIRET": "91101252400011", "shop": "bakery"}}, {"type": "node", "id": 1279198439, "lat": 48.9180827, "lon": 2.2527776, "tags": {"name": "Le Pain Dor\u00e9", "ref:FR:SIRET": "78982202000010", "shop": "bakery", "source": "survey 2018"}}, {"type": "node", "id": 1280732243, "lat": 48.9587105, "lon": 2.2575786, "tags": {"name": "L'\u00c9pi Dor\u00e9", "ref:FR:SIRET": "53960772100013", "shop": "bakery", "source": "survey"}}, {"type": "node", "id": 1282084761, "lat": 48.8866822, "lon": 2.2603764, "tags": {"name": "Le Lys d'Or", "shop": "bakery", "source": "survey"}}, {"type": "node", "id": 1283334154, "lat": 48.9497395, "lon": 2.2534556, "tags": {"name": "Aram", "opening_hours": "Mo-Su 06:00-23:00", "shop": "bakery", "source": "survey"}}, {"type": "node", "id": 1288280572, "lat": 48.8851368, "lon": 2.2581959, "tags": {"check_date:opening_hours": "2022-08-27", "name": "Maison Bakour", "opening_hours:signed": "no", "shop": "bakery", "source": "survey"}}, {"type": "node", "id": 1321640201, "lat": 48.896456, "lon": 2.152934}, {"type": "node", "id": 1321640237, "lat": 48.896384, "lon": 2.153064}, {"type": "node", "id": 1321641009, "lat": 48.896406, "lon": 2.152909}, {"type": "node", "id": 1321641022, "lat": 48.896377, "lon": 2.152922}, {"type": "node", "id": 1321641038, "lat": 48.896334, "lon": 2.153001}, {"type": "node", "id": 1321641040, "lat": 48.89634, "lon": 2.153008}, {"type": "node", "id": 1398627518, "lat": 48.8777428, "lon": 2.1823227, "tags": {"name": "JC. Lambert", "shop": "bakery"}}, {"type": "node", "id": 1409649757, "lat": 48.9100127, "lon": 2.2741047, "tags": {"opening_hours": "Mo-Tu, Th-Sa 08:00-14:30, 16:00-19:45; Su 08:00-13:00", "phone": "+33 1 47 93 36 80", "shop": "bakery"}}, {"type": "node", "id": 1411497674, "lat": 48.9089241, "lon": 2.2161929, "tags": {"name": "Nouri l'\u00c9pi d'Or", "ref:FR:SIRET": "43527114300016", "shop": "bakery"}}, {"type": "node", "id": 1411501541, "lat": 48.892985, "lon": 2.2077282, "tags": {"name": "\u00d4 128", "note:fr": "Boulangerie, Patisserie, Confiserie, Traiteur", "shop": "bakery"}}, {"type": "node", "id": 1423517462, "lat": 48.8801547, "lon": 2.2221176, "tags": {"check_date:opening_hours": "2024-02-03", "contact:phone": "+33 1 41 44 07 94", "name": "La Boulangerie Magic", "opening_hours:signed": "no", "shop": "bakery"}}, {"type": "node", "id": 1426905469, "lat": 48.9474147, "lon": 2.2560679, "tags": {"name": "Le Pain d'Or", "ref:FR:SIRET": "51535875200019", "shop": "bakery"}}, {"type": "node", "id": 1446167185, "lat": 48.909699, "lon": 2.1789547}, {"type": "node", "id": 1446167319, "lat": 48.9097307, "lon": 2.1790349}, {"type": "node", "id": 1446167409, "lat": 48.9097633, "lon": 2.1790051}, {"type": "node", "id": 1446167419, "lat": 48.9097682, "lon": 2.1790177}, {"type": "node", "id": 1446167644, "lat": 48.9098342, "lon": 2.1788313}, {"type": "node", "id": 1446167670, "lat": 48.9098435, "lon": 2.1788548}, {"type": "node", "id": 1446167737, "lat": 48.9098551, "lon": 2.178937}, {"type": "node", "id": 1446167786, "lat": 48.9098623, "lon": 2.1789291}, {"type": "node", "id": 1446167840, "lat": 48.9098709, "lon": 2.1789194}, {"type": "node", "id": 1446167862, "lat": 48.9098751, "lon": 2.178911}, {"type": "node", "id": 1446167877, "lat": 48.9098777, "lon": 2.1789035}, {"type": "node", "id": 1446167880, "lat": 48.9098802, "lon": 2.1788961}, {"type": "node", "id": 1446167900, "lat": 48.9098837, "lon": 2.1788843}, {"type": "node", "id": 1446167904, "lat": 48.9098849, "lon": 2.1788167}, {"type": "node", "id": 1446167909, "lat": 48.909886, "lon": 2.1788736}, {"type": "node", "id": 1446167911, "lat": 48.9098865, "lon": 2.1788156}, {"type": "node", "id": 1446167930, "lat": 48.9098882, "lon": 2.1788505}, {"type": "node", "id": 1447109415, "lat": 48.929867, "lon": 2.1974207}, {"type": "node", "id": 1447109946, "lat": 48.9298954, "lon": 2.1974013}, {"type": "node", "id": 1447109971, "lat": 48.9298969, "lon": 2.1974072}, {"type": "node", "id": 1447111604, "lat": 48.9299044, "lon": 2.1975693}, {"type": "node", "id": 1447111647, "lat": 48.929907, "lon": 2.1975794}, {"type": "node", "id": 1447111656, "lat": 48.9299083, "lon": 2.1973936}, {"type": "node", "id": 1447112010, "lat": 48.9299336, "lon": 2.1975331}, {"type": "node", "id": 1447112059, "lat": 48.9299385, "lon": 2.1975562}, {"type": "node", "id": 1447112154, "lat": 48.9299477, "lon": 2.1973651}, {"type": "node", "id": 1447112781, "lat": 48.9299829, "lon": 2.1975017}, {"type": "node", "id": 1488746012, "lat": 48.8830771, "lon": 2.2773869, "tags": {"name": "Cl\u00e9rardin", "shop": "bakery"}}, {"type": "node", "id": 1494772828, "lat": 48.8831063, "lon": 2.2043786, "tags": {"shop": "bakery"}}, {"type": "node", "id": 1514722078, "lat": 48.890258, "lon": 2.1955131, "tags": {"name": "Marianne", "old_name": "A la Gerbe d'Or;La Fromentine", "opening_hours": "Tu-Su 06:30-20:30", "organic": "yes", "ref:FR:SIRET": "94900682900012", "shop": "bakery", "source": "survey;knowledge"}}, {"type": "node", "id": 1515730604, "lat": 48.9099384, "lon": 2.2726762, "tags": {"addr:city": "Asni\u00e8res-sur-Seine", "addr:housenumber": "50", "addr:postcode": "92600", "addr:street": "Rue Chanzy", "name": "Boulangerie de Chanzy", "opening_hours": "Tu-Su 07:00-20:30", "phone": "+33 1 47 24 12 28", "ref:FR:SIRET": "53932753600014", "shop": "bakery"}}, {"type": "node", "id": 1528974920, "lat": 48.898501, "lon": 2.2423262, "tags": {"name": "Maison Tlili", "ref:FR:SIRET": "89535467800016", "shop": "bakery"}}, {"type": "node", "id": 1531951160, "lat": 48.8987123, "lon": 2.2464995, "tags": {"check_date:opening_hours": "2024-10-20", "name": "Trouart", "opening_hours": "Sa-We 06:15-20:30", "shop": "bakery", "source": "Microsoft Bing satellite", "source:name": "survey", "source:shop": "survey", "wheelchair": "no"}}, {"type": "node", "id": 1675144880, "lat": 48.9122944, "lon": 2.2563374, "tags": {"check_date": "2024-05-03", "check_date:opening_hours": "2023-06-14", "internet_access": "no", "name": "Mathieu & Shu", "opening_hours": "Mo,Tu,Th-Sa 07:00-20:00; Su 07:00-19:00", "payment:cash": "yes", "payment:mastercard": "yes", "payment:visa": "yes", "shop": "bakery", "wheelchair": "yes"}}, {"type": "node", "id": 1675146736, "lat": 48.9131908, "lon": 2.2580225, "tags": {"name": "Boulangerie Niel", "opening_hours": "We-Fr 07:00-14:00,15:00-20:00; Sa 07:00-14:00,15:30-20:00; Su 07:00-13:30", "shop": "bakery"}}, {"type": "node", "id": 1705747867, "lat": 48.9145646, "lon": 2.2573533, "tags": {"name": "Le Fournil des Vall\u00e9es", "shop": "bakery", "wheelchair": "no"}}, {"type": "node", "id": 1705751234, "lat": 48.9142121, "lon": 2.2577017, "tags": {"name": "Moulins de Ch\u00e9risy", "opening_hours": "Mo-Sa 06:30-21:00", "shop": "bakery", "wheelchair": "no"}}, {"type": "node", "id": 1728920092, "lat": 48.8974923, "lon": 2.2476082, "tags": {"addr:housenumber": "81", "entrance": "yes", "name": "Boulangerie Binard", "shop": "bakery"}}, {"type": "node", "id": 1728936580, "lat": 48.8971518, "lon": 2.2478824, "tags": {"entrance": "yes", "name": "Bakour", "shop": "bakery", "wheelchair": "no"}}, {"type": "node", "id": 1755235293, "lat": 48.9079721, "lon": 2.1500444, "tags": {"check_date": "2025-05-31", "name": "Maison Nolita", "opening_hours": "We-Fr 06:30-19:30; Sa 07:00-19:30; Su 07:00-14:00,15:30-19:00", "shop": "bakery"}}, {"type": "node", "id": 1771950926, "lat": 48.8868306, "lon": 2.2019202, "tags": {"name": "Le Fournil Clemenceau", "opening_hours": "Mo-Su 06:00-21:00", "shop": "bakery", "source": "survey", "wheelchair": "yes"}}, {"type": "node", "id": 1780805687, "lat": 48.9249458, "lon": 2.1877624, "tags": {"addr:postcode": "78800", "name": "Pause Douceur", "ref:FR:SIRET": "51449388100023", "shop": "bakery"}}, {"type": "node", "id": 1780812715, "lat": 48.925245, "lon": 2.1888243, "tags": {"addr:housenumber": "19", "addr:street": "Rue Gabriel P\u00e9ri", "name": "Boulangerie", "opening_hours": "We-Sa 07:00-13:30, 15:30-20:00; Su 07:30-13:30, 15:30-19:00", "shop": "bakery"}}, {"type": "node", "id": 1780837229, "lat": 48.9221877, "lon": 2.1880019, "tags": {"addr:city": "Houilles", "addr:postcode": "78800", "addr:street": "Rue Marcel Sembat", "name": "La Pince Gourmande", "opening_hours": "Mo-Fr 07:00-20:00; Sa 07:00-14:00", "shop": "bakery"}}, {"type": "node", "id": 1780845590, "lat": 48.9210816, "lon": 2.1845222, "tags": {"name": "Boulangerie de la Gare", "ref:FR:SIRET": "53449582500018", "shop": "bakery"}}, {"type": "node", "id": 1786087594, "lat": 48.8822253, "lon": 2.2402815, "tags": {"addr:housenumber": "37", "addr:postcode": "92800", "addr:street": "Rue Godefroy", "name": "L'Atelier des Pains", "opening_hours": "Mo-Sa 07:00-20:00; Su off; 2024 Aug 11-25 off \"rouvre le 26\"", "phone": "+33 1 47 75 34 66", "shop": "bakery"}}, {"type": "node", "id": 1821434576, "lat": 48.9075502, "lon": 2.2401096, "tags": {"check_date:opening_hours": "2021-11-20", "name": "Boulanger Patissier", "opening_hours": "Mo-Fr 06:00-20:00", "shop": "bakery", "source": "Microsoft Bing orbital imagery", "wheelchair": "limited"}}, {"type": "node", "id": 1827904103, "lat": 48.8864163, "lon": 2.1705412, "tags": {"check_date": "2025-08-22", "name": "Maison Leyrat", "shop": "bakery"}}, {"type": "node", "id": 1847438464, "lat": 48.8938518, "lon": 2.2577694, "tags": {"addr:city": "Courbevoie", "addr:postcode": "92400", "addr:street": "Rue Sainte-Marie", "name": "La Favorite", "shop": "bakery"}}, {"type": "node", "id": 1850641788, "lat": 48.8918906, "lon": 2.2542934, "tags": {"name": "Boulangerie", "shop": "bakery"}}, {"type": "node", "id": 1851328418, "lat": 48.9279916, "lon": 2.1938814, "tags": {"indoor_seating": "no", "name": "Les Saveurs d'Houilles", "outdoor_seating": "yes", "shop": "bakery"}}, {"type": "node", "id": 1910191055, "lat": 48.9218485, "lon": 2.1985293, "tags": {"addr:city": "Houilles", "addr:housenumber": "89/95", "addr:postcode": "78800", "addr:street": "Boulevard Jean Jaur\u00e8s", "brand": "Boulangerie Louise", "brand:website": "https://www.boulangerielouise.com", "brand:wikidata": "Q127591514", "name": "Boulangerie Louise", "opening_hours": "Mo-Sa 07:30-20:00", "phone": "+33 1 39 57 93 64", "shop": "bakery", "wheelchair": "yes"}}, {"type": "node", "id": 1936029157, "lat": 48.9313967, "lon": 2.2755364, "tags": {"name": "Boulangerie Aya", "opening_hours": "Mo-Sa 06:30-21:00", "shop": "bakery"}}, {"type": "node", "id": 1948028816, "lat": 48.8964811, "lon": 2.2405227, "tags": {"contact:phone": "+33 1 47 68 12 49", "name": "Le Pain Boulanger", "opening_hours": "Tu-Su 06:30-20:30", "pastry": "yes", "shop": "bakery"}}, {"type": "node", "id": 1973686902, "lat": 48.8990727, "lon": 2.250735, "tags": {"name": "L'Ambroisie", "shop": "bakery"}}, {"type": "node", "id": 1990887587, "lat": 48.9031822, "lon": 2.2565546, "tags": {"addr:city": "Courbevoie", "addr:housenumber": "132", "addr:postcode": "92400", "addr:street": "Avenue de la R\u00e9publique", "name": "Boulangerie Santos Maria", "opening_hours": "Mo-Fr 07:30-19:30", "shop": "bakery"}}, {"type": "node", "id": 1990903673, "lat": 48.9017204, "lon": 2.2517068, "tags": {"addr:city": "Courbevoie", "addr:housenumber": "77", "addr:postcode": "92400", "addr:street": "Avenue de la R\u00e9publique", "name": "Aux D\u00e9lices de la R\u00e9publique", "opening_hours": "Tu-Sa 07:00-14:30,16:00-20:30; Su 07:00-14:30; Mo off", "phone": "+33 1 43 33 69 25", "ref:FR:SIRET": "49253116500016", "shop": "bakery"}}, {"type": "node", "id": 2051839938, "lat": 48.9469078, "lon": 2.2324581, "tags": {"name": "La Gerbe d'Or", "shop": "bakery", "wheelchair": "limited"}}, {"type": "node", "id": 2153351994, "lat": 48.8797545, "lon": 2.2332154, "tags": {"addr:city": "Suresnes", "addr:housenumber": "23", "addr:postcode": "92150", "addr:street": "Rue des Bas Rogers", "alt_name": "Boulangerie Service Des Bas Rogers", "indoor_seating": "no", "name": "B.S.B.R.", "outdoor_seating": "no", "shop": "bakery", "takeaway": "only"}}, {"type": "node", "id": 2153352822, "lat": 48.8815031, "lon": 2.2350496, "tags": {"name": "Le fournil de Puteaux", "shop": "bakery", "wheelchair": "no"}}, {"type": "node", "id": 2161550347, "lat": 48.8792942, "lon": 2.2402364, "tags": {"indoor_seating": "no", "outdoor_seating": "no", "shop": "bakery", "takeaway": "only"}}, {"type": "node", "id": 2178785514, "lat": 48.8831238, "lon": 2.2401433, "tags": {"addr:housenumber": "6", "addr:postcode": "92800", "addr:street": "Rue Marius Jacotot", "check_date": "2023-11-05", "name": "Le Fournil de la Mairie", "phone": "+33 1 47 73 50 41", "shop": "bakery"}}, {"type": "node", "id": 2279513646, "lat": 48.9578159, "lon": 2.1967443, "tags": {"addr:city": "Cormeilles-en-Parisis", "addr:housenumber": "4", "addr:postcode": "95240", "addr:street": "Avenue des Fr\u00e8res Lumi\u00e8re", "name": "Aux saveurs du parisis", "opening_hours": "Mo,We-Sa 06:30-19:00; Su 07:00-19:00", "shop": "bakery"}}, {"type": "node", "id": 2288245708, "lat": 48.8802352, "lon": 2.2772682, "tags": {"name": "Boulangerie de Sablonville", "shop": "bakery", "wheelchair": "no"}}, {"type": "node", "id": 2294562595, "lat": 48.9099072, "lon": 2.2395754, "tags": {"shop": "bakery"}}, {"type": "node", "id": 2309264006, "lat": 48.9286571, "lon": 2.1455129}, {"type": "node", "id": 2309264007, "lat": 48.9286701, "lon": 2.1452547}, {"type": "node", "id": 2309264013, "lat": 48.9287102, "lon": 2.1455883}, {"type": "node", "id": 2309264018, "lat": 48.9287167, "lon": 2.1454303}, {"type": "node", "id": 2309264026, "lat": 48.9287366, "lon": 2.1453487}, {"type": "node", "id": 2309264028, "lat": 48.9287482, "lon": 2.1451956}, {"type": "node", "id": 2309264038, "lat": 48.928772, "lon": 2.1454011}, {"type": "node", "id": 2309264051, "lat": 48.9288073, "lon": 2.1454496}, {"type": "node", "id": 2309264060, "lat": 48.9288311, "lon": 2.1453142}, {"type": "node", "id": 2421484477, "lat": 48.8894774, "lon": 2.1582541, "tags": {"description": "Boulangerie P\u00e2tisserie Roulleaux", "name": "Roulleaux", "opening_hours": "Tu-Sa 07:00-14:00,15:30-20:00; Su 08:00-19:00", "phone": "+33 1 30 71 36 14", "ref:FR:SIRET": "30679486800035", "shop": "bakery"}}, {"type": "node", "id": 2571772673, "lat": 48.890572, "lon": 2.1525235, "tags": {"addr:housenumber": "83", "addr:street": "Avenue du Mar\u00e9chal Foch", "check_date": "2025-08-10", "name": "Au Pain d'Antan", "opening_hours": "Mo,Tu,Th-Sa 07:30-20:00; Su 07:30-19:00", "shop": "bakery"}}, {"type": "node", "id": 2578687444, "lat": 48.8856327, "lon": 2.1545574, "tags": {"addr:housenumber": "40", "addr:street": "Place Maurice Berteaux", "alt_name": "Boulangerie Bo\u00e9", "check_date": "2025-07-22", "contact:city": "Chatou", "contact:housenumber": "40", "contact:postcode": "78400", "contact:street": "Place Maurice Berteaux", "name": "Pause gourmande", "opening_hours": "We-Su 06:30-20:30", "phone": "+33 961212890", "ref:FR:SIRET": "93148887800014", "shop": "bakery", "website": "https://www.pagesjaunes.fr/pros/03190029", "wheelchair": "no"}}, {"type": "node", "id": 2590044917, "lat": 48.9038393, "lon": 2.2697167, "tags": {"name": "La Tradition de Courbevoie", "ref:FR:SIRET": "80177514900017", "shop": "bakery"}}, {"type": "node", "id": 2590046362, "lat": 48.9040826, "lon": 2.2693036, "tags": {"addr:housenumber": "45", "addr:street": "Avenue Pasteur", "check_date": "2024-04-14", "name": "Maison Da Silva", "phone": "+33 1 49 05 43 21", "shop": "bakery", "wheelchair": "yes"}}, {"type": "node", "id": 2617789804, "lat": 48.9313453, "lon": 2.1563659, "tags": {"addr:city": "Sartrouville", "addr:housenumber": "2", "addr:postcode": "78500", "addr:street": "Rue Franklin", "name": "M. et Mme Ball", "phone": "+33 1 39 13 16 45", "shop": "bakery"}}, {"type": "node", "id": 2658347402, "lat": 48.9240608, "lon": 2.2194675, "tags": {"shop": "bakery"}}, {"type": "node", "id": 2661278425, "lat": 48.9063428, "lon": 2.2477196, "tags": {"addr:city": "La Garenne-Colombes", "addr:housenumber": "6", "addr:postcode": "92250", "addr:street": "Rond-Point du Souvenir Fran\u00e7ais", "name": "Les D\u00e9lices de la Garenne", "opening_hours": "Mo,Tu,Th,Fr,Sa 07:00-20:00; Su 07:00-19:00; We Off", "phone": "+33 1 47 80 39 15", "shop": "bakery"}}, {"type": "node", "id": 2689331980, "lat": 48.8797395, "lon": 2.2071709, "tags": {"check_date": "2023-09-20", "name": "Shaimi", "opening_hours": "Tu-Su 07:30-19:00", "ref:FR:SIRET": "89516389700013", "shop": "bakery"}}, {"type": "node", "id": 2709391105, "lat": 48.8820446, "lon": 2.2305044, "tags": {"addr:city": "Puteaux", "addr:housenumber": "29", "addr:postcode": "92800", "addr:street": "Rue Cartault", "check_date": "2025-09-13", "name": "Aday", "phone": "+33 1 40 90 09 49", "shop": "bakery"}}, {"type": "node", "id": 2710089009, "lat": 48.9019685, "lon": 2.1560797, "tags": {"addr:floor": "0", "addr:housenumber": "10", "addr:street": "Avenue Guy de Maupassant", "check_date": "2025-05-14", "level": "0", "name": "Levannier", "opening_hours": "Mo off; Tu-Sa 07:00-20:00; Su 07:30-19:00", "payment:cash": "yes", "payment:credit_cards": "yes", "phone": "+33 1 39 52 59 88", "ref:FR:SIRET": "41212912400019", "shop": "bakery", "source": "local knowledge", "website": "https://maison-levannier.fr/"}}, {"type": "node", "id": 2710089011, "lat": 48.9004954, "lon": 2.157276, "tags": {"name": "La Belle Epoque", "shop": "bakery", "source": "local knowledge"}}, {"type": "node", "id": 2742558212, "lat": 48.8799843, "lon": 2.180382, "tags": {"indoor_seating": "yes", "name": "La Jos\u00e9phine", "opening_hours": "Mo-Fr 07:00-20:00", "outdoor_seating": "no", "shop": "bakery"}}, {"type": "node", "id": 2758475435, "lat": 48.8868134, "lon": 2.1801816, "tags": {"addr:city": "Rueil-Malmaison", "addr:housenumber": "70", "addr:postcode": "92500", "addr:street": "Rue d'Estienne d'Orves", "name": "Boulangerie de la Place", "shop": "bakery", "source": "cadastre-dgi-fr source : Direction G\u00e9n\u00e9rale des Imp\u00f4ts - Cadastre. Mise \u00e0 jour : 2014"}}, {"type": "node", "id": 2813296267, "lat": 48.8922242, "lon": 2.2368756}, {"type": "node", "id": 2818180631, "lat": 48.879705, "lon": 2.2360245, "tags": {"name": "Tamasini", "opening_hours": "Mo-Su 07:00-20:00", "shop": "bakery"}}, {"type": "node", "id": 2820561366, "lat": 48.9004359, "lon": 2.1474173, "tags": {"addr:floor": "0", "addr:housenumber": "4", "addr:street": "Place du Docteur Roux", "check_date": "2025-10-15", "level": "0", "name": "L\u2019Atelier de Marguerite", "opening_hours": "Mo-Sa 07:00-19:00; Su off", "payment:cash": "yes", "payment:debit_cards": "yes", "phone": "+33 1 39 76 00 62", "shop": "bakery", "wheelchair": "yes"}}, {"type": "node", "id": 2852971901, "lat": 48.906136, "lon": 2.268405, "tags": {"name": "La B\u00e9connaise", "shop": "bakery"}}, {"type": "node", "id": 2887320938, "lat": 48.9139325, "lon": 2.2736043, "tags": {"name": "Boulangerie P\u00e2tisserie", "opening_hours": "Mo-Fr 06:30-20:30; Sa 07:00-20:00", "shop": "bakery"}}, {"type": "node", "id": 2902796601, "lat": 48.904436, "lon": 2.268592, "tags": {"addr:city": "Courbevoie", "addr:housenumber": "10", "addr:postcode": "92400", "addr:street": "Avenue de la Libert\u00e9", "check_date": "2024-09-10", "craft": "bakery", "kids_area": "no", "kids_area:fee": "no", "kids_area:indoor": "no", "kids_area:outdoor": "no", "kids_area:supervised": "no", "level": "1", "name": "Fabrice Capezzone", "opening_hours": "Fr-Tu 06:30-20:00", "pastry": "yes", "payment:credit_cards": "yes", "payment:debit_cards": "yes", "phone": "+33 1 43 33 02 54", "ref:FR:SIRET": "44391729900028", "shop": "bakery", "wheelchair": "limited"}}, {"type": "node", "id": 2958486139, "lat": 48.8881701, "lon": 2.2231874, "tags": {"name": "Maison Bayat", "note:fr": "cybercaf\u00e9, copie, cabine tel\u00e9phone", "shop": "bakery", "source": "survey 2014", "wheelchair": "yes"}}, {"type": "node", "id": 2970284166, "lat": 48.9197755, "lon": 2.1796777, "tags": {"name": "Au R\u00e9veil Matin", "ref:FR:SIRET": "85265808700014", "shop": "bakery", "wheelchair": "no"}}, {"type": "node", "id": 3046539864, "lat": 48.8975233, "lon": 2.2210536, "tags": {"check_date": "2023-10-31", "indoor_seating": "yes", "name": "L'Atelier des Pains", "opening_hours": "Mo-Fr 07:00-19:00", "outdoor_seating": "no", "shop": "bakery", "source": "survey 2014", "wheelchair": "yes"}}, {"type": "node", "id": 3075351977, "lat": 48.9023039, "lon": 2.2429377, "tags": {"name": "Poire Amandine", "opening_hours": "Tu-Sa 07:00-20:00, Su 07:00-13:30", "shop": "bakery", "wheelchair": "no"}}, {"type": "node", "id": 3129416580, "lat": 48.8970236, "lon": 2.2080628, "tags": {"name": "La Renomm\u00e9e", "shop": "bakery", "source": "survey 2014"}}, {"type": "node", "id": 3149091189, "lat": 48.8838252, "lon": 2.2441326, "tags": {"addr:city": "Puteaux", "addr:housenumber": "66", "addr:postcode": "92800", "addr:street": "Rue Jean Jaur\u00e8s", "name": "La Gourmandise", "opening_hours": "Su-Fr 06:30-21:00", "shop": "bakery"}}, {"type": "node", "id": 3175606036, "lat": 48.8887694, "lon": 2.2318376, "tags": {"name": "L'Or", "opening_hours": "Mo-Sa 07:00-20:00", "shop": "bakery", "wheelchair": "yes"}}, {"type": "node", "id": 3220765198, "lat": 48.886015, "lon": 2.2614058, "tags": {"check_date": "2023-05-26", "indoor_seating": "no", "name": "Albert", "opening_hours": "Mo-Sa 07:00-20:00", "outdoor_seating": "no", "shop": "bakery", "source": "survey", "takeaway": "only", "wheelchair": "limited"}}, {"type": "node", "id": 3220765200, "lat": 48.8867732, "lon": 2.2621278, "tags": {"name": "Lepareur", "opening_hours": "Mo 07:00-20:00; We-Su 07:00-20:00", "shop": "bakery", "source": "survey", "wheelchair": "limited"}}, {"type": "node", "id": 3221951369, "lat": 48.8830847, "lon": 2.2741893, "tags": {"addr:housenumber": "85", "check_date": "2025-09-13", "check_date:opening_hours": "2024-06-28", "name": "Chez Meunier", "opening_hours": "Mo-Su 07:00-20:00", "ref:FR:SIRET": "84191592900027", "shop": "bakery", "source": "cadastre-dgi-fr source : Direction G\u00e9n\u00e9rale des Finances Publiques - Cadastre. Mise \u00e0 jour : 2014"}}, {"type": "node", "id": 3223858247, "lat": 48.8814448, "lon": 2.2349673, "tags": {"shop": "bakery"}}, {"type": "node", "id": 3254629116, "lat": 48.9277964, "lon": 2.2107824, "tags": {"name": "Aux tr\u00e9sors des saveurs", "opening_hours": "Mo,Tu,Th-Sa 07:00-20:30; Su 07:00-13:30; We off", "shop": "bakery", "source": "survey"}}, {"type": "node", "id": 3307524702, "lat": 48.9027202, "lon": 2.2686534, "tags": {"addr:city": "Courbevoie", "addr:housenumber": "36", "addr:postcode": "92400", "addr:street": "Rue Edith Cavell", "check_date:opening_hours": "2025-06-18", "name": "Boulangerie P\u00e2tisserie", "opening_hours": "Mo-Fr 07:00-20:00; Sa 07:00-13:30", "operator": "J\u00e9rome Lebehot", "shop": "bakery"}}, {"type": "node", "id": 3368669965, "lat": 48.9425581, "lon": 2.2475884, "tags": {"check_date:opening_hours": "2024-05-25", "name": "Boulangerie P\u00e2tisserie la Perle", "opening_hours:signed": "no", "shop": "bakery"}}, {"type": "node", "id": 3368669968, "lat": 48.940182, "lon": 2.2455956, "tags": {"name": "La Baguette de la Basilique", "ref:FR:SIRET": "51232947500010", "shop": "bakery"}}, {"type": "node", "id": 3462833750, "lat": 48.9522624, "lon": 2.2784049, "tags": {"shop": "bakery", "source": "survey"}}, {"type": "node", "id": 3504674821, "lat": 48.9317386, "lon": 2.2665278, "tags": {"name": "Artisan Boulanger P\u00e2tissier", "shop": "bakery", "source": "survey"}}, {"type": "node", "id": 3610674930, "lat": 48.9372488, "lon": 2.1558665, "tags": {"addr:city": "Sartrouville", "addr:housenumber": "22", "addr:postcode": "78500", "addr:street": "Avenue de la R\u00e9publique", "name": "Do R\u00e9 Mi", "opening_hours": "Mo-Tu 06:30-20:00, Fr-Sa 06:30-20:00, Su 06:30-19:30", "phone": "+33 1 39 13 10 69", "shop": "bakery"}}, {"type": "node", "id": 3613604430, "lat": 48.9047054, "lon": 2.2685749, "tags": {"addr:city": "Courbevoie", "addr:housenumber": "11", "addr:postcode": "92400", "addr:street": "Avenue de la Libert\u00e9", "name": "La B\u00e9condine", "opening_hours": "We-Fr 06:30-20:00; Sa,Su 07:00-20:00", "pastry": "yes", "shop": "bakery", "wheelchair": "no"}}, {"type": "node", "id": 3636275179, "lat": 48.9304609, "lon": 2.1852495, "tags": {"shop": "bakery", "source": "survey"}}, {"type": "node", "id": 3643120028, "lat": 48.886334, "lon": 2.2325763, "tags": {"shop": "bakery"}}, {"type": "node", "id": 3663230084, "lat": 48.8875024, "lon": 2.1697472, "tags": {"check_date": "2025-08-18", "indoor_seating": "no", "name": "Maison Deprez", "outdoor_seating": "no", "shop": "bakery", "takeaway": "only"}}, {"type": "node", "id": 3665610146, "lat": 48.924116, "lon": 2.2454798, "tags": {"shop": "bakery", "source": "survey"}}, {"type": "node", "id": 3676399740, "lat": 48.9405517, "lon": 2.1601289, "tags": {"opening_hours": "Tu-Sa 07:30-18:30", "shop": "bakery", "survey:date": "2024-10-11"}}, {"type": "node", "id": 3676404911, "lat": 48.9383731, "lon": 2.1572455, "tags": {"addr:city": "Sartrouville", "addr:floor": "0", "addr:housenumber": "86", "addr:postcode": "78500", "addr:street": "Avenue Jean Jaur\u00e8s", "check_date": "2025-05-24", "craft": "bakery", "level": "0", "name": "Boulangerie de la Gare", "ref:FR:SIRET": "88522428700023", "shop": "bakery"}}, {"type": "node", "id": 3676404915, "lat": 48.9406869, "lon": 2.1657746, "tags": {"addr:city": "Sartrouville", "addr:housenumber": "84", "addr:postcode": "78500", "addr:street": "Avenue Maurice Berteaux", "name": "A Portuguesa", "opening_hours": "Tu-Sa 07:00-20:00; Su 08:00-20:00", "ref:FR:SIRET": "75262779400015", "shop": "bakery"}}, {"type": "node", "id": 3742777467, "lat": 48.8849768, "lon": 2.1908492, "tags": {"brand": "Festival des Pains", "brand:wikidata": "Q3070334", "name": "Festival des Pains", "shop": "bakery", "source": "survey 2015"}}, {"type": "node", "id": 3749229989, "lat": 48.9393586, "lon": 2.1584731, "tags": {"check_date:opening_hours": "2022-08-21", "name": "La Vaudoire", "opening_hours": "Tu-Fr 06:30-20:00; Sa 07:00-20:00; Su 07:00-13:30", "ref:FR:SIRET": "88252771600014", "shop": "bakery"}}, {"type": "node", "id": 3767383561, "lat": 48.9231168, "lon": 2.2549284, "tags": {"name": "P\u00e2tisserie de l'H\u00f4tel de Ville", "shop": "bakery"}}, {"type": "node", "id": 4011868600, "lat": 48.8907089, "lon": 2.2352714}, {"type": "node", "id": 4013477219, "lat": 48.8908211, "lon": 2.2355705}, {"type": "node", "id": 4013506719, "lat": 48.8907089, "lon": 2.2354857}, {"type": "node", "id": 4013530828, "lat": 48.890834, "lon": 2.2355152}, {"type": "node", "id": 4013561094, "lat": 48.8906676, "lon": 2.2353424}, {"type": "node", "id": 4013561096, "lat": 48.8907742, "lon": 2.2354695}, {"type": "node", "id": 4013561855, "lat": 48.8906919, "lon": 2.2354727}, {"type": "node", "id": 4013561858, "lat": 48.8907214, "lon": 2.2353836}, {"type": "node", "id": 4179316980, "lat": 48.9238704, "lon": 2.2592082}, {"type": "node", "id": 4179344789, "lat": 48.9238884, "lon": 2.259126}, {"type": "node", "id": 4179344794, "lat": 48.9239015, "lon": 2.2591957}, {"type": "node", "id": 4230210930, "lat": 48.8851606, "lon": 2.2236066, "tags": {"changing_table": "no", "check_date": "2025-08-15", "indoor_seating": "yes", "name": "Le Fournil Clemenceau", "opening_hours": "Mo-Su 06:30-20:00", "organic": "no", "outdoor_seating": "yes", "pastry": "yes", "shop": "bakery", "wheelchair": "yes"}}, {"type": "node", "id": 4252835016, "lat": 48.9350006, "lon": 2.1677407, "tags": {"addr:city": "Sartrouville", "addr:housenumber": "58", "addr:postcode": "78500", "addr:street": "Avenue de la Convention", "name": "Graine De Bl\u00e9", "opening_hours": "Tu off", "phone": "+33 1 39 57 97 87", "ref:FR:SIRET": "80853253500016", "shop": "bakery"}}, {"type": "node", "id": 4336094098, "lat": 48.9194812, "lon": 2.1850248, "tags": {"addr:street": "Place Andr\u00e9 Malraux", "name": "L'Ovilloise", "ref:FR:SIRET": "84375433400012", "shop": "bakery"}}, {"type": "node", "id": 4336154699, "lat": 48.9186231, "lon": 2.1870937, "tags": {"addr:street": "Avenue Jean-Jacques Rousseau", "name": "Artisan Boulanger", "opening_hours": "Tu-Su 07:00-13:00,15:30-20:00", "shop": "bakery", "wheelchair": "yes"}}, {"type": "node", "id": 4339579502, "lat": 48.9220173, "lon": 2.1875631, "tags": {"addr:city": "Houilles", "addr:postcode": "78800", "addr:street": "Avenue Charles de Gaulle", "name": "Au Coin de la Rue", "opening_hours": "Mo-Fr 07:00-18:30; Sa 07:00-18:00", "ref:FR:SIRET": "75320073200018", "shop": "bakery"}}, {"type": "node", "id": 4340697490, "lat": 48.9271513, "lon": 2.2150628, "tags": {"name": "La Gr\u00e2ce de Dieu", "shop": "bakery", "wheelchair": "limited"}}, {"type": "node", "id": 4340702490, "lat": 48.9231794, "lon": 2.2170732, "tags": {"addr:city": "Bezons", "addr:housenumber": "3", "addr:postcode": "95870", "addr:street": "Rue Julius et Ethel Rosenberg", "brand": "La Mie C\u00e2line", "brand:wikidata": "Q3210704", "name": "La Mie C\u00e2line", "opening_hours": "Mo-Sa 06:00-21:00; Su 07:00-20:00", "operator": "JENELYNNE", "phone": "+33 1 34 10 35 24", "shop": "bakery", "wheelchair": "yes"}}, {"type": "node", "id": 4340704995, "lat": 48.9246483, "lon": 2.2091496, "tags": {"addr:housenumber": "144", "name": "Boulangerie Guerida", "shop": "bakery"}}, {"type": "node", "id": 4340827219, "lat": 48.9431837, "lon": 2.1879987, "tags": {"addr:city": "Sartrouville", "addr:housenumber": "168", "addr:postcode": "78500", "addr:street": "Avenue du G\u00e9n\u00e9ral de Gaulle", "name": "La Romanville", "shop": "bakery", "website": "https://www.laromainville.fr/magasin/25-sartrouville"}}, {"type": "node", "id": 4341202904, "lat": 48.8990995, "lon": 2.2666602, "tags": {"name": "Le Pain Boulanger", "shop": "bakery"}}, {"type": "node", "id": 4343157692, "lat": 48.9070877, "lon": 2.2435786, "tags": {"name": "La Ronde des Pains", "shop": "bakery"}}, {"type": "node", "id": 4344785928, "lat": 48.8935566, "lon": 2.1956189}, {"type": "node", "id": 4348826838, "lat": 48.9134411, "lon": 2.2732633, "tags": {"name": "Marques Asni\u00e8res", "opening_hours": "Mo-Fr 06:30-20:30; Sa,Su 07:00-20:30", "shop": "bakery"}}, {"type": "node", "id": 4351422253, "lat": 48.9041638, "lon": 2.2342128, "tags": {"name": "Boulangerie SK", "shop": "bakery"}}, {"type": "node", "id": 4406990915, "lat": 48.9112572, "lon": 2.2223047, "tags": {"addr:housenumber": "416", "contact:phone": "+33 1 57 68 35 61", "name": "Boulangerie Traiteur", "opening_hours": "Tu-Su 06:00-20:45", "shop": "bakery", "source": "survey 2016", "wheelchair": "yes"}}, {"type": "node", "id": 4406990921, "lat": 48.9111191, "lon": 2.2208259, "tags": {"name": "Festival des Pains", "shop": "bakery", "source": "survey 2016"}}, {"type": "node", "id": 4406990928, "lat": 48.9193861, "lon": 2.2212384, "tags": {"amenity": "fast_food", "brand": "La Croissanterie", "brand:wikidata": "Q3207961", "cuisine": "sandwich", "name": "La Croissanterie", "shop": "bakery", "takeaway": "yes"}}, {"type": "node", "id": 4427485989, "lat": 48.8908404, "lon": 2.2809906, "tags": {"addr:housenumber": "79", "check_date": "2025-04-17", "check_date:opening_hours": "2025-04-17", "name": "La Maillardise", "opening_hours": "Mo-Fr 07:00-20:00", "operator": "La Maillardise", "shop": "bakery", "wheelchair": "yes"}}, {"type": "node", "id": 4472648920, "lat": 48.8825963, "lon": 2.2392559, "tags": {"name": "Bakery Bio", "phone": "+33 9 87 39 79 47", "shop": "bakery", "source": "cadastre 2016", "source:name": "survey"}}, {"type": "node", "id": 4581985694, "lat": 48.9307187, "lon": 2.2115875, "tags": {"name:signed": "no", "shop": "bakery"}}, {"type": "node", "id": 4974875064, "lat": 48.8974196, "lon": 2.1639034, "tags": {"check_date": "2025-11-08", "contact:email": "lemoulindechatou@gmail.com", "contact:facebook": "https://facebook.com/Le-Moulin-de-Chatou-845367402228142/", "contact:phone": "+33 1 39 13 24 16", "name": "Le Fournil de Chatou", "opening_hours": "07:00-20:00", "ref:FR:SIRET": "49261886300012", "shop": "bakery", "source": "survey", "source:siret": "INSEE - 2023-01"}}, {"type": "node", "id": 5126270361, "lat": 48.9140877, "lon": 2.2455166, "tags": {"name:signed": "no", "shop": "bakery"}}, {"type": "node", "id": 5189591037, "lat": 48.9239622, "lon": 2.2452198, "tags": {"shop": "bakery"}}, {"type": "node", "id": 5268212079, "lat": 48.8894962, "lon": 2.2309066, "tags": {"addr:city": "Puteaux", "addr:housenumber": "16", "addr:postcode": "92800", "addr:street": "Rue Marcelin Berthelot", "name": "Boulangerie Gazon", "opening_hours": "Mo-Su 07:00-12:00,15:00-20:00; We off", "phone": "+33 1 70 21 27 69", "shop": "bakery"}}, {"type": "node", "id": 5268212086, "lat": 48.8881537, "lon": 2.2270398, "tags": {"name": "Poire de Pains", "shop": "bakery", "wheelchair": "limited"}}, {"type": "node", "id": 5268212095, "lat": 48.8881096, "lon": 2.2243925, "tags": {"name": "Maison du pain", "ref:FR:SIRET": "48159708600018", "shop": "bakery", "wheelchair": "limited"}}, {"type": "node", "id": 5285770758, "lat": 48.8935487, "lon": 2.2768845, "tags": {"brand": "Eric Kayser", "brand:wikidata": "Q99231745", "name": "Eric Kayser", "opening_hours": "Mo-Fr 07:00-20:15; Sa 07:00-20:00", "pastry": "yes", "shop": "bakery", "wheelchair": "limited"}}, {"type": "node", "id": 5294644342, "lat": 48.9152069, "lon": 2.2285543, "tags": {"indoor_seating": "no", "name": "Les Pyramides", "outdoor_seating": "no", "ref:FR:SIRET": "79367976200013", "shop": "bakery", "takeaway": "only", "wheelchair": "yes"}}, {"type": "node", "id": 5333702128, "lat": 48.912827, "lon": 2.2357191, "tags": {"check_date": "2024-12-27", "contact:phone": "+33 1 42 42 29 99", "name": "Boulangerie P\u00e2tisserie", "opening_hours": "Mo-Su 07:00-21:00; We off", "shop": "bakery"}}, {"type": "node", "id": 5351775740, "lat": 48.9130291, "lon": 2.2260539, "tags": {"name": "Les Fr\u00e8res Gasmi", "shop": "bakery"}}, {"type": "node", "id": 5460204431, "lat": 48.8997841, "lon": 2.1993261, "tags": {"check_date:opening_hours": "2022-10-30", "name": "Artisan Boulanger Patissier", "opening_hours": "Tu-Su 06:30-20:30", "shop": "bakery", "wheelchair": "yes"}}, {"type": "node", "id": 5506488926, "lat": 48.8866268, "lon": 2.1712033, "tags": {"check_date": "2025-08-22", "name": "Roulleaux", "opening_hours": "Tu-Fr 6:30-20:30;Sa 7:00-20:30;Su7:00-19:30", "shop": "bakery"}}, {"type": "node", "id": 5510822653, "lat": 48.8879542, "lon": 2.2470905, "tags": {"name": "Panam", "shop": "bakery"}}, {"type": "node", "id": 5516183061, "lat": 48.8856957, "lon": 2.2426913, "tags": {"addr:city": "Puteaux", "addr:housenumber": "85", "addr:postcode": "92800", "addr:street": "Rue de la R\u00e9publique", "check_date": "2025-11-27", "indoor_seating": "yes", "name": "Les Fournils d'Antan", "outdoor_seating": "no", "phone": "+33 1 40 90 62 87", "shop": "bakery", "wheelchair": "no"}}, {"type": "node", "id": 5516298636, "lat": 48.8862209, "lon": 2.2455144, "tags": {"addr:city": "Puteaux", "addr:housenumber": "23", "addr:postcode": "92800", "addr:street": "Rue Paul Lafargue", "name": "Les Fromentiers", "opening_hours": "Mo-Sa 07:00-20:00", "shop": "bakery"}}, {"type": "node", "id": 5516372494, "lat": 48.8840864, "lon": 2.2451671, "tags": {"name": "La Rose de Puteaux", "shop": "bakery"}}, {"type": "node", "id": 5569041155, "lat": 48.9054096, "lon": 2.266012, "tags": {"addr:housenumber": "3", "addr:street": "Place Costes et Bellonte", "check_date": "2024-09-27", "internet_access": "no", "level": "0", "name": "La Maison RAM NESS", "opening_hours": "Mo-Sa 06:00-20:30", "outdoor_seating": "yes", "payment:cash": "yes", "payment:mastercard": "yes", "payment:visa": "yes", "shop": "bakery", "wheelchair": "yes"}}, {"type": "node", "id": 5594270265, "lat": 48.9149036, "lon": 2.2527271, "tags": {"indoor_seating": "yes", "name": "Le Moulin \u00e0 Pains", "opening_hours": "Tu-Su 07:00-21:00", "outdoor_seating": "no", "ref:FR:SIRET": "82056101700014", "shop": "bakery", "source": "survey 2018"}}, {"type": "node", "id": 5685605229, "lat": 48.9545399, "lon": 2.254954, "tags": {"name": "Boulangerie du Moulin", "phone": "+33 9 80 61 57 08", "ref:FR:SIRET": "53284839700016", "shop": "bakery"}}, {"type": "node", "id": 5760137121, "lat": 48.9175297, "lon": 2.2252829, "tags": {"addr:housenumber": "202", "addr:postcode": "92700", "addr:street": "Boulevard Charles de Gaulle", "name": "Pain d'Or", "shop": "bakery"}}, {"type": "node", "id": 5816656945, "lat": 48.9294471, "lon": 2.2140925, "tags": {"shop": "bakery"}}, {"type": "node", "id": 5841374613, "lat": 48.9073292, "lon": 2.1488432, "tags": {"addr:housenumber": "6", "addr:street": "Rue F\u00e9lix Philippe", "name": "La Fabrique \u00e0 Pain", "opening_hours": "Mo-Su 06:30-22:30", "ref:FR:SIRET": "91505277300024", "shop": "bakery"}}, {"type": "node", "id": 5879604962, "lat": 48.9307009, "lon": 2.2078308, "tags": {"indoor_seating": "no", "name": "Au Fournil", "outdoor_seating": "no", "shop": "bakery", "takeaway": "only"}}, {"type": "node", "id": 5924164885, "lat": 48.9433624, "lon": 2.2283269, "tags": {"shop": "bakery"}}, {"type": "node", "id": 5968913584, "lat": 48.900717, "lon": 2.152478, "tags": {"addr:housenumber": "96", "addr:street": "Route de Maisons", "check_date": "2025-09-11", "name": "Les Douceurs de Chatou", "phone": "+33 1 30 71 52 98", "ref:FR:SIRET": "80365118100015", "shop": "bakery"}}, {"type": "node", "id": 6016149723, "lat": 48.8906945, "lon": 2.2354747}, {"type": "node", "id": 6016149724, "lat": 48.8907568, "lon": 2.2355224}, {"type": "node", "id": 6016149725, "lat": 48.8907613, "lon": 2.2355088}, {"type": "node", "id": 6016149726, "lat": 48.8908778, "lon": 2.2355977}, {"type": "node", "id": 6016149727, "lat": 48.8908741, "lon": 2.2356097}, {"type": "node", "id": 6016230923, "lat": 48.890817, "lon": 2.2355674}, {"type": "node", "id": 6021650890, "lat": 48.888807, "lon": 2.2391249}, {"type": "node", "id": 6021650891, "lat": 48.8888452, "lon": 2.2390033}, {"type": "node", "id": 6021650892, "lat": 48.8888253, "lon": 2.2389889}, {"type": "node", "id": 6021650893, "lat": 48.8887982, "lon": 2.2389692}, {"type": "node", "id": 6021650894, "lat": 48.8887802, "lon": 2.2389561}, {"type": "node", "id": 6021650900, "lat": 48.8888341, "lon": 2.2388851}, {"type": "node", "id": 6021650901, "lat": 48.8888457, "lon": 2.2388936}, {"type": "node", "id": 6021650902, "lat": 48.8888264, "lon": 2.2388795}, {"type": "node", "id": 6021650905, "lat": 48.8888535, "lon": 2.2388992}, {"type": "node", "id": 6021660713, "lat": 48.8888483, "lon": 2.239166}, {"type": "node", "id": 6021660714, "lat": 48.8888041, "lon": 2.239134}, {"type": "node", "id": 6021791357, "lat": 48.8889173, "lon": 2.2389455}, {"type": "node", "id": 6021791358, "lat": 48.8888083, "lon": 2.2388664}, {"type": "node", "id": 6029733405, "lat": 48.9538651, "lon": 2.2196779, "tags": {"shop": "bakery"}}, {"type": "node", "id": 6045016402, "lat": 48.9139446, "lon": 2.2280735, "tags": {"indoor_seating": "yes", "name": "Le pavillon gourmet", "outdoor_seating": "no", "shop": "bakery"}}, {"type": "node", "id": 6047409243, "lat": 48.9308754, "lon": 2.2114357, "tags": {"name": "Majestic Cake Design", "shop": "bakery"}}, {"type": "node", "id": 6205282247, "lat": 48.8804602, "lon": 2.2716677, "tags": {"check_date": "2024-03-31", "name": "C\u00f4t\u00e9 Neuilly", "ref:FR:SIRET": "49849388100029", "shop": "bakery"}}, {"type": "node", "id": 6219037838, "lat": 48.9267949, "lon": 2.2736337, "tags": {"addr:city": "Asni\u00e8res-sur-Seine", "addr:postcode": "92600", "addr:street": "Avenue de la Redoute", "shop": "bakery"}}, {"type": "node", "id": 6484443940, "lat": 48.8829886, "lon": 2.1887603, "tags": {"name": "Boulangerie Pierre & Honor\u00e9", "opening_hours": "Mo-Fr 06:30-20:00; Sa-Su 07:00-20:00", "shop": "bakery"}}, {"type": "node", "id": 6499916908, "lat": 48.8778896, "lon": 2.1968995, "tags": {"addr:city": "Rueil-Malmaison", "addr:housenumber": "103", "addr:postcode": "92500", "addr:street": "Rue Danton", "indoor_seating": "no", "name": "Les d\u00e9lices de Rueil", "opening_hours": "Mo,Tu,Th,Fr 06:30-13:30, Mo,Tu,Th-Sa 15:00-20:00, Su 15:00-19:00, Sa,Su 07:00-13:30", "outdoor_seating": "no", "payment:credit_cards": "yes", "payment:debit_cards": "yes", "phone": "+33 1 47 51 28 80", "shop": "bakery", "takeaway": "only", "wheelchair": "no"}}, {"type": "node", "id": 6788158791, "lat": 48.8905347, "lon": 2.2451127}, {"type": "node", "id": 6788158792, "lat": 48.8904922, "lon": 2.2452475}, {"type": "node", "id": 6788158818, "lat": 48.8905934, "lon": 2.2451552}, {"type": "node", "id": 6788234029, "lat": 48.8904477, "lon": 2.245215}, {"type": "node", "id": 6788234030, "lat": 48.8904902, "lon": 2.2450802}, {"type": "node", "id": 6788234032, "lat": 48.8905691, "lon": 2.2452327}, {"type": "node", "id": 6788234033, "lat": 48.8905106, "lon": 2.2451896}, {"type": "node", "id": 7098629339, "lat": 48.8852903, "lon": 2.2343257, "tags": {"check_date": "2025-01-01", "name": "Le Four et la Pelle", "opening_hours": "Tu-Su 07:00-20:00", "shop": "bakery"}}, {"type": "node", "id": 7155960182, "lat": 48.9474428, "lon": 2.1466061, "tags": {"addr:street": "Avenue de Longueil", "name": "La P\u00e2tisserie de Longueil", "shop": "bakery", "source": "survey"}}, {"type": "node", "id": 7380221705, "lat": 48.8889014, "lon": 2.169283, "tags": {"addr:city": "Rueil-Malmaison", "addr:housenumber": "14", "addr:postcode": "92500", "addr:street": "Rue Jacques Daguerre", "name": "La D\u00e9licieuse", "shop": "bakery"}}, {"type": "node", "id": 7397307192, "lat": 48.946632, "lon": 2.1686264, "tags": {"shop": "bakery"}}, {"type": "node", "id": 7416934365, "lat": 48.9311881, "lon": 2.259108, "tags": {"name": "Fournil du Stade", "shop": "bakery"}}, {"type": "node", "id": 7447416574, "lat": 48.9479246, "lon": 2.2054209, "tags": {"addr:city": "Sartrouville", "addr:country": "FR", "addr:postcode": "78500", "mapillary": "839971810287138", "shop": "bakery"}}, {"type": "node", "id": 7470551578, "lat": 48.9362286, "lon": 2.2382907, "tags": {"addr:city": "Argenteuil", "addr:housenumber": "126 bis", "addr:postcode": "95100", "addr:street": "Rue Henri Barbusse", "mapillary": "469876260787228", "name": "Boulangerie Pont Neuf", "phone": "+33 1 39 47 71 24", "ref:FR:SIRET": "50273566500015", "shop": "bakery"}}, {"type": "node", "id": 7474617732, "lat": 48.9148433, "lon": 2.2750087, "tags": {"addr:city": "Asni\u00e8res-sur-Seine", "addr:postcode": "92600", "addr:street": "Rue des Bourguignons", "name": "La Talmeli\u00e8re", "shop": "bakery"}}, {"type": "node", "id": 7474617733, "lat": 48.9205582, "lon": 2.2708731, "tags": {"addr:city": "Bois-colombes", "addr:postcode": "92270", "addr:street": "Rue Charles Chefson", "name": "Boulangerie", "shop": "bakery"}}, {"type": "node", "id": 7599771886, "lat": 48.9459974, "lon": 2.2243407, "tags": {"name": "Bab", "shop": "bakery"}}, {"type": "node", "id": 7600264689, "lat": 48.9348414, "lon": 2.2307095, "tags": {"shop": "bakery"}}, {"type": "node", "id": 7950399967, "lat": 48.8903859, "lon": 2.2520183}, {"type": "node", "id": 7950399978, "lat": 48.8903581, "lon": 2.252106}, {"type": "node", "id": 7950399979, "lat": 48.8902024, "lon": 2.2519919}, {"type": "node", "id": 7994868374, "lat": 48.8970989, "lon": 2.2398266, "tags": {"check_date:opening_hours": "2024-03-18", "name": "Boulangerie Faubourg de l'Arche", "opening_hours": "Mo-Fr 06:00-20:30", "ref:FR:SIRET": "81243911500021", "shop": "bakery", "wheelchair": "yes"}}, {"type": "node", "id": 8073933584, "lat": 48.927129, "lon": 2.2732789, "tags": {"addr:city": "Asni\u00e8res-sur-Seine", "addr:postcode": "92600", "addr:street": "Avenue d'Argenteuil", "name": "Boulangerie", "opening_hours": "Tu-Su 06:30-20:30", "shop": "bakery"}}, {"type": "node", "id": 8100948258, "lat": 48.9497677, "lon": 2.2577751, "tags": {"addr:housenumber": "1", "addr:street": "Rue Gambetta", "shop": "bakery"}}, {"type": "node", "id": 8101041519, "lat": 48.9508683, "lon": 2.2638664, "tags": {"addr:housenumber": "55", "addr:street": "Avenue de Stalingrad", "shop": "bakery"}}, {"type": "node", "id": 8132064880, "lat": 48.9647162, "lon": 2.2573668, "tags": {"brand": "Boulangerie Louise", "brand:website": "https://www.boulangerielouise.com", "brand:wikidata": "Q127591514", "name": "Boulangerie Louise", "opening_hours": "Mo-Sa 07:30-20:00", "shop": "bakery", "source": "survey"}}, {"type": "node", "id": 8176503465, "lat": 48.9439124, "lon": 2.1655511, "tags": {"name": "Pain, amour & passion", "shop": "bakery"}}, {"type": "node", "id": 8298349427, "lat": 48.8960616, "lon": 2.2540535}, {"type": "node", "id": 8298349428, "lat": 48.8960715, "lon": 2.2541609}, {"type": "node", "id": 8298349492, "lat": 48.8960555, "lon": 2.2541644}, {"type": "node", "id": 8298349509, "lat": 48.8960456, "lon": 2.2540569}, {"type": "node", "id": 8339428575, "lat": 48.9603934, "lon": 2.2378975, "tags": {"name": "Aux Gourmandises des C\u00f4teaux", "ref:FR:SIRET": "85180493000028", "shop": "bakery"}}, {"type": "node", "id": 8393699895, "lat": 48.9095959, "lon": 2.2418822, "tags": {"addr:city": "La Garenne-Colombes", "addr:housenumber": "2", "addr:postcode": "92250", "addr:street": "Avenue Joffre", "name": "Les Gourmandises de la Garenne", "shop": "bakery"}}, {"type": "node", "id": 8572872752, "lat": 48.9237197, "lon": 2.2586193, "tags": {"addr:city": "Colombes", "addr:housenumber": "2", "addr:postcode": "92700", "addr:street": "Rue des Tilleuls", "name": "Maison Saunier", "opening_hours": "Mo-Fr 06:30-20:00; Sa 07:00-20:00; Su 07:00-13:30", "operator": "MAISON SAUNIER COLOMBES", "ref:FR:SIRET": "88008664000013", "shop": "bakery", "wheelchair": "yes"}}, {"type": "node", "id": 8592051200, "lat": 48.9238094, "lon": 2.2603744, "tags": {"addr:city": "Colombes", "addr:housenumber": "2", "addr:postcode": "92700", "addr:street": "Avenue de l'Agent Sarre", "name": "Le Grain d'Or", "shop": "bakery"}}, {"type": "node", "id": 8889978182, "lat": 48.9202715, "lon": 2.2289009, "tags": {"shop": "bakery"}}, {"type": "node", "id": 8919979202, "lat": 48.9547085, "lon": 2.2750506, "tags": {"brand": "Marie Blach\u00e8re", "brand:wikidata": "Q62082410", "brand:wikipedia": "fr:Marie Blach\u00e8re", "name": "Marie Blach\u00e8re", "opening_hours": "Mo-Sa 07:00-20:00", "shop": "bakery"}}, {"type": "node", "id": 9304993593, "lat": 48.9238511, "lon": 2.2592167, "tags": {"door": "hinged", "level": "0"}}, {"type": "node", "id": 9304993594, "lat": 48.9238261, "lon": 2.2591655, "tags": {"addr:housenumber": "2", "door": "sliding", "entrance": "yes", "level": "0"}}, {"type": "node", "id": 9329102844, "lat": 48.8990921, "lon": 2.2346067, "tags": {"addr:city": "Courbevoie", "addr:housenumber": "25", "addr:postcode": "92400", "addr:street": "Avenue Puvis de Chavannes", "name": "Papatissier", "opening_hours": "Tu-Sa 07:00-19:30", "phone": "+33 9 73 63 13 21", "ref:FR:SIRET": "80053371300023", "shop": "bakery"}}, {"type": "node", "id": 9394391903, "lat": 48.9665834, "lon": 2.2080633, "tags": {"addr:city": "Cormeilles-en-Parisis", "addr:housenumber": "91", "addr:postcode": "95240", "addr:street": "Route d'Argenteuil", "name": "Espace Delices", "phone": "+33 1 77 02 44 74", "shop": "bakery"}}, {"type": "node", "id": 9434276206, "lat": 48.9375014, "lon": 2.1564692, "tags": {"addr:housenumber": "3", "addr:postcode": "78500", "addr:street": "Avenue de la R\u00e9publique", "check_date": "2025-03-22", "name": "Les D\u00e9lices de la Gare", "pastry_shop": "yes", "ref:FR:SIRET": "85067039900011", "shop": "bakery"}}, {"type": "node", "id": 9449730205, "lat": 48.8846626, "lon": 2.2286649, "tags": {"addr:city": "Puteaux", "addr:housenumber": "196", "addr:postcode": "92800", "addr:street": "Rue de la R\u00e9publique", "check_date": "2025-08-12", "indoor_seating": "no", "name": "St\u00e9phane Moa", "opening_hours": "Mo-Sa 07:30-19:30", "outdoor_seating": "no", "payment:credit_cards": "yes", "payment:debit_cards": "yes", "phone": "+33 9 73 88 20 50", "shop": "bakery", "takeaway": "only", "wheelchair": "yes"}}, {"type": "node", "id": 9456079743, "lat": 48.8922005, "lon": 2.2368703}, {"type": "node", "id": 9469285592, "lat": 48.8922413, "lon": 2.2368232, "tags": {"access": "no", "door": "hinged", "indoor": "door", "level": "-2"}}, {"type": "node", "id": 9469285593, "lat": 48.8922148, "lon": 2.2368811}, {"type": "node", "id": 9469285594, "lat": 48.8922467, "lon": 2.2368065}, {"type": "node", "id": 9469285595, "lat": 48.8922263, "lon": 2.2367912}, {"type": "node", "id": 9469568550, "lat": 48.8868075, "lon": 2.2095375, "tags": {"addr:city": "Nanterre", "addr:housenumber": "1", "addr:postcode": "92000", "addr:street": "Rue Diderot", "contact:phone": "+33 1 57 84 49 93", "name": "Pierre & Honor\u00e9", "opening_hours": "Mo-Su 06:30-20:30", "payment:american_express": "yes", "payment:apple_pay": "yes", "payment:cards": "yes", "payment:cash": "yes", "payment:coins": "yes", "payment:contactless": "yes", "payment:credit_cards": "yes", "payment:debit_cards": "yes", "payment:google_pay": "yes", "payment:maestro": "yes", "payment:mastercard": "yes", "payment:mastercard_contactless": "yes", "payment:prepaid_ticket": "yes", "payment:telephone_cards": "yes", "payment:visa": "yes", "payment:visa_debit": "yes", "payment:visa_electron": "yes", "shop": "bakery"}}, {"type": "node", "id": 9469590564, "lat": 48.9003167, "lon": 2.2147056, "tags": {"indoor_seating": "yes", "name": "Baguette \u00c9clair", "opening_hours": "Mo-Su 06:30-20:00", "organic": "only", "outdoor_seating": "no", "ref:FR:SIRET": "88926197000012", "shop": "bakery", "source": "INSEE - 2022-01", "wheelchair": "limited"}}, {"type": "node", "id": 9494858099, "lat": 48.8943917, "lon": 2.2308649, "tags": {"name": "Baker's Avenue", "ref:FR:SIRET": "83254204700010", "shop": "bakery", "wheelchair": "yes"}}, {"type": "node", "id": 9873896574, "lat": 48.9414252, "lon": 2.1844949, "tags": {"shop": "bakery"}}, {"type": "node", "id": 9904364984, "lat": 48.8977583, "lon": 2.1935256, "tags": {"contact:city": "Nanterre", "contact:housenumber": "39", "contact:postcode": "92000", "contact:street": "Boulevard du G\u00e9n\u00e9ral Leclerc", "name": "Maison Saunier", "shop": "bakery", "source": "local knowledge", "survey:date": "2023-09-09"}}, {"type": "node", "id": 9988877556, "lat": 48.9336541, "lon": 2.255792, "tags": {"name": "L'Arc Sportif", "opening_hours": "Mo-Su 07:00-21:00", "ref:FR:SIRET": "91886549400010", "shop": "bakery", "source": "survey 2022"}}, {"type": "node", "id": 10239195130, "lat": 48.8935995, "lon": 2.1957411, "tags": {"entrance": "yes", "source": "survey;knowledge"}}, {"type": "node", "id": 10239195131, "lat": 48.893611, "lon": 2.1956184}, {"type": "node", "id": 10239195132, "lat": 48.8936125, "lon": 2.1957416}, {"type": "node", "id": 10253354584, "lat": 48.9047763, "lon": 2.2607706, "tags": {"addr:city": "Courbevoie", "addr:housenumber": "40", "addr:postcode": "92400", "addr:street": "Rue du Moulin des Bruy\u00e8res", "check_date": "2024-09-10", "name": "Le Moulin d'Ange", "opening_hours": "Mo-Fr 06:00-20:00; Sa 06:00-14:00", "ref:FR:SIRET": "90171897300026", "shop": "bakery"}}, {"type": "node", "id": 10570425227, "lat": 48.9013677, "lon": 2.2433694, "tags": {"name": "Mr Louis Bakery", "shop": "bakery"}}, {"type": "node", "id": 10837830310, "lat": 48.886878, "lon": 2.2697665, "tags": {"addr:city": "Neuilly-sur-Seine", "addr:housenumber": "29", "addr:postcode": "92200", "addr:street": "Rue de Ch\u00e9zy", "check_date:opening_hours": "2024-11-04", "name": "Maison Baillon", "opening_hours": "Mo-Fr 07:00-20:00; Sa 07:00-18:30; Su off", "ref:FR:SIRET": "58203180300015", "shop": "bakery"}}, {"type": "node", "id": 11001980231, "lat": 48.9261832, "lon": 2.2474547, "tags": {"name": "Artisan Boulanger P\u00e2tissier", "shop": "bakery"}}, {"type": "node", "id": 11021416925, "lat": 48.9196207, "lon": 2.1858086, "tags": {"name": "Nouvelle boulangerie", "opening_hours": "Mo-Sa 06:00-20:00", "shop": "bakery"}}, {"type": "node", "id": 11035806649, "lat": 48.9260188, "lon": 2.2419256, "tags": {"name": "La Colombine", "shop": "bakery"}}, {"type": "node", "id": 11035815609, "lat": 48.9261437, "lon": 2.2436334, "tags": {"name": "Maison Assakali", "shop": "bakery"}}, {"type": "node", "id": 11048051683, "lat": 48.8928746, "lon": 2.2532315, "tags": {"name": "Le fournil gourmand", "shop": "bakery"}}, {"type": "node", "id": 11091651007, "lat": 48.9482199, "lon": 2.1471646, "tags": {"bakehouse": "yes", "chocolate": "yes", "craft": "bakery", "name": "Boulangerie du Parc", "note": "Sp\u00e9cialit\u00e9 baguette : RETRODOR.", "opening_hours": "Mo-Fr 06:30-19:30; We off; Sa 07:00-19:30; Su 07:00-19:00", "pastry": "yes", "phone": "+33 1 39 62 00 89", "produced_on_site": "yes", "shop": "bakery", "wheelchair": "yes"}}, {"type": "node", "id": 11128442939, "lat": 48.9642821, "lon": 2.1914276, "tags": {"name": "La Cormeillaise", "opening_hours": "Tu-Su 07:00-20:00", "shop": "bakery"}}, {"type": "node", "id": 11140365931, "lat": 48.9264508, "lon": 2.2470532, "tags": {"name": "Boulangerie P\u00e2tisserie", "shop": "bakery"}}, {"type": "node", "id": 11243169138, "lat": 48.8928059, "lon": 2.1727148, "tags": {"addr:city": "Rueil-Malmaison", "addr:housenumber": "10ter", "addr:postcode": "92500", "addr:street": "Rue Henri Sainte-Claire Deville", "indoor_seating": "yes", "name": "Grain d'Or", "opening_hours": "Mo-Fr 06:30-20:00, Sa 07:00-20:00", "outdoor_seating": "yes", "payment:credit_cards": "yes", "payment:debit_cards": "yes", "shop": "bakery", "wheelchair": "yes"}}, {"type": "node", "id": 11343131802, "lat": 48.8778971, "lon": 2.1790387, "tags": {"name": "Perlin Tatin", "shop": "bakery"}}, {"type": "node", "id": 11349897895, "lat": 48.9002444, "lon": 2.2135363, "tags": {"addr:city": "Nanterre", "addr:postcode": "92000", "addr:street": "Esplanade Patrice Ch\u00e9reau", "indoor_seating": "yes", "name": "Luc Kas", "opening_hours": "Mo-Fr 06:30-21:00, Sa 06:30-21:00", "outdoor_seating": "yes", "ref:FR:SIRET": "88341100100026", "shop": "bakery"}}, {"type": "node", "id": 11452011300, "lat": 48.923862, "lon": 2.2076077, "tags": {"indoor_seating": "yes", "name": "Boulangerie Maison Gahfif", "outdoor_seating": "no", "pastry_shop": "yes", "shop": "bakery", "wheelchair": "yes"}}, {"type": "node", "id": 11772047292, "lat": 48.9357747, "lon": 2.1635462, "tags": {"shop": "bakery"}}, {"type": "node", "id": 11860332540, "lat": 48.887783, "lon": 2.1850405, "tags": {"shop": "bakery"}}, {"type": "node", "id": 11862702483, "lat": 48.9188205, "lon": 2.2739527, "tags": {"name": "Maison d'Epi d'Or", "shop": "bakery"}}, {"type": "node", "id": 11909451077, "lat": 48.9294068, "lon": 2.2548881, "tags": {"name": "Maison Valmy", "shop": "bakery", "survey:date": "2024"}}, {"type": "node", "id": 12165331562, "lat": 48.906845, "lon": 2.2691998, "tags": {"addr:city": "Asni\u00e8res-sur-Seine", "addr:housenumber": "5", "addr:postcode": "92600", "addr:street": "Rue de Belfort", "name": "Encore", "opening_hours": "Me-Sa 07:00-20:00; Su 07:00-13:00", "operator": "Oph\u00e9lie Bar\u00e8s", "payment:cards": "yes", "payment:cash": "yes", "payment:contactless": "yes", "phone": "+33 184200691", "shop": "bakery"}}, {"type": "node", "id": 12170806940, "lat": 48.8997612, "lon": 2.2457077}, {"type": "node", "id": 12170806941, "lat": 48.8997814, "lon": 2.2457708}, {"type": "node", "id": 12170806942, "lat": 48.8997417, "lon": 2.2457941}, {"type": "node", "id": 12190683135, "lat": 48.8802608, "lon": 2.2360048, "tags": {"name": "Marnay", "opening_hours": "Mo-Sa 07:00-20:00; Su 08:00-18:00", "shop": "bakery"}}, {"type": "node", "id": 12190683136, "lat": 48.8811828, "lon": 2.2384239, "tags": {"name": "Boulangerie du Monoprix", "operator": "Monoprix", "shop": "bakery"}}, {"type": "node", "id": 12229588588, "lat": 48.9242727, "lon": 2.2640041, "tags": {"addr:city": "Colombes", "addr:housenumber": "60", "addr:postcode": "92700", "addr:street": "Avenue de l'Agent Sarre", "name": "Les d\u00e9lices d'or", "ref:FR:SIRET": "88138937300013", "shop": "bakery"}}, {"type": "node", "id": 12550957653, "lat": 48.9232651, "lon": 2.2510222, "tags": {"shop": "bakery"}}, {"type": "node", "id": 12617846092, "lat": 48.9549904, "lon": 2.1890227, "tags": {"name": "Marie Blach\u00e8re", "shop": "bakery"}}, {"type": "node", "id": 12757218970, "lat": 48.8957843, "lon": 2.2280559, "tags": {"name": "L'instant gourmand", "shop": "bakery"}}, {"type": "node", "id": 12851431704, "lat": 48.924679, "lon": 2.1854504, "tags": {"addr:housenumber": "3 ter", "addr:street": "Rue Marceau", "name": "\u00c9pi d'Or", "ref:FR:SIRET": "83124475100010", "shop": "bakery"}}, {"type": "node", "id": 13008709122, "lat": 48.9471903, "lon": 2.1462445, "tags": {"name": "Crin blanc", "ref:FR:SIRET": "52429006100067", "shop": "bakery"}}, {"type": "node", "id": 13009735719, "lat": 48.9029251, "lon": 2.2580764, "tags": {"check_date": "2025-07-18", "name": "La Maison du Pain", "shop": "bakery"}}, {"type": "node", "id": 13055170155, "lat": 48.9185244, "lon": 2.2810299, "tags": {"check_date": "2025-07-25", "email": "boulangerieziadayassin@gmail.com", "name": "Maison Ziada", "opening_hours": "Mo-Fr,Su 07:00-21:00; Sa off", "phone": "+33 1 40 86 09 13", "ref:FR:SIRET": "75056659800017", "shop": "bakery", "website": "https://boulangerie-ziada.metro.bar"}}, {"type": "node", "id": 13208467239, "lat": 48.8909456, "lon": 2.2365437, "tags": {"brand": "Paul", "brand:wikidata": "Q3370417", "name": "Paul", "payment:cash": "yes", "payment:coins": "yes", "ref:FR:SIRET": "40305211101154", "ref:vatin": "FR32403052111", "shop": "bakery"}}, {"type": "node", "id": 13230119787, "lat": 48.9217228, "lon": 2.2468186, "tags": {"name": "ABK", "shop": "bakery"}}, {"type": "node", "id": 13255668865, "lat": 48.9012699, "lon": 2.2153444, "tags": {"name": "Luc Kas", "shop": "bakery"}}, {"type": "node", "id": 13328867099, "lat": 48.8935558, "lon": 2.2264741, "tags": {"name": "artisan boulanger", "shop": "bakery"}}, {"type": "way", "id": 70332214, "nodes": [839418751, 839427263, 839306929, 839540592, 839540365, 839418751], "tags": {"building": "yes", "shop": "bakery", "source": "cadastre-dgi-fr source : Direction G\u00e9n\u00e9rale des Imp\u00f4ts - Cadastre. Mise \u00e0 jour : 2010"}}, {"type": "way", "id": 75244537, "nodes": [888537486, 888540125, 888534657, 888535258, 888528447, 888537486], "tags": {"building": "yes", "name": "Au Croissant d'Or", "shop": "bakery", "source": "cadastre-dgi-fr source : Direction G\u00e9n\u00e9rale des Imp\u00f4ts - Cadastre. Mise \u00e0 jour : 2010", "wheelchair": "no"}}, {"type": "way", "id": 76200109, "nodes": [899019420, 899023766, 899024497, 899030219, 899019420], "tags": {"addr:housenumber": "13", "addr:street": "Rue de Montesson", "building": "yes", "name": "La Baguette Dor\u00e9e", "shop": "bakery", "source": "cadastre-dgi-fr source : Direction G\u00e9n\u00e9rale des Imp\u00f4ts - Cadastre. Mise \u00e0 jour : 2010"}}, {"type": "way", "id": 77720888, "nodes": [914194340, 914192718, 914193362, 914194161, 914193531, 914194340], "tags": {"building": "yes", "shop": "bakery", "source": "cadastre-dgi-fr source : Direction G\u00e9n\u00e9rale des Imp\u00f4ts - Cadastre. Mise \u00e0 jour : 2010"}}, {"type": "way", "id": 79767968, "nodes": [931023980, 931124347, 931055467, 930988224, 931085428, 931023980], "tags": {"addr:city": "Bois-Colombes", "addr:housename": "Artisan Boulanger", "addr:housenumber": "116", "addr:postcode": "92270", "addr:street": "Jean Jaur\u00e8s", "building": "yes", "name": "Artisan Boulanger", "opening_hours": "Tu-Su 06:30-20:00; Mo 06:30-20:00", "operator": "ABK", "shop": "bakery", "source": "cadastre-dgi-fr source : Direction G\u00e9n\u00e9rale des Imp\u00f4ts - Cadastre. Mise \u00e0 jour : 2010", "stroller": "limited", "wheelchair": "no"}}, {"type": "way", "id": 117350312, "nodes": [1321640201, 1321641009, 1321641022, 1321641038, 1321641040, 1321640237, 1321640201], "tags": {"building": "yes", "layer": "1", "name": "Au P\u00e9ch\u00e9 Mignon", "opening_hours": "Mo-Fr 06:30-20:00", "shop": "bakery", "source": "cadastre-dgi-fr source : Direction G\u00e9n\u00e9rale des Imp\u00f4ts - Cadastre. Mise \u00e0 jour : 2011"}}, {"type": "way", "id": 131396963, "nodes": [1446167644, 1446167185, 1446167319, 1446167409, 1446167419, 1446167737, 1446167786, 1446167840, 1446167862, 1446167877, 1446167880, 1446167900, 1446167909, 1446167930, 1446167911, 1446167904, 1446167670, 1446167644], "tags": {"addr:city": "Carri\u00e8res-sur-Seine", "addr:housenumber": "58", "addr:street": "Boulevard Carnot", "building": "retail", "building:levels": "1", "check_date:opening_hours": "2023-05-14", "name": "P\u00e9resse & Fils", "opening_hours": "Tu-Fr 07:15-14:00,15:30-19:45; Sa 07:15-19:45; Su 07:15-13:30", "roof:levels": "1", "roof:shape": "gabled", "shop": "bakery", "source": "cadastre-dgi-fr source : Direction G\u00e9n\u00e9rale des Imp\u00f4ts - Cadastre. Mise \u00e0 jour : 2011", "wheelchair": "yes"}}, {"type": "way", "id": 131514106, "nodes": [1447109415, 1447111604, 1447111647, 1447112059, 1447112010, 1447112781, 1447112154, 1447111656, 1447109946, 1447109971, 1447109415], "tags": {"building": "yes", "name": "aux plaisirs sucr\u00e9s", "ref:FR:SIRET": "53759720500013", "shop": "bakery", "source": "cadastre-dgi-fr source : Direction G\u00e9n\u00e9rale des Imp\u00f4ts - Cadastre. Mise \u00e0 jour : 2011"}}, {"type": "way", "id": 221944970, "nodes": [2309264007, 2309264026, 2309264018, 2309264006, 2309264013, 2309264051, 2309264038, 2309264060, 2309264028, 2309264007], "tags": {"addr:floor": ";0", "addr:housenumber": "280", "addr:street": "Avenue Gabriel P\u00e9ri", "brand": "Brioche Dor\u00e9e", "brand:website": "https://www.briochedoree.fr", "brand:wikidata": "Q2925606", "brand:wikipedia": "fr:Brioche dor\u00e9e", "check_date": "2025-08-30", "contact:phone": "+33 1 39 15 41 32", "indoor": "room", "level": "0;0", "name": "Brioche Dor\u00e9e", "operator": "Groupe Le Duff", "payment:cash": "yes", "payment:debit_cards": "yes", "ref:FR:SIRET": "31890659101387", "room": "restaurant", "shop": "bakery", "website": "https://www.briochedoree.fr/restaurants/99-montesson-c.cial-hyper-montesson", "wheelchair": "yes"}}, {"type": "way", "id": 398615819, "nodes": [4013561094, 4013561858, 4013561855, 6016149723, 4013506719, 6016149724, 6016149725, 4013561096, 4013530828, 6016230923, 4013477219, 6016149727, 6016149726, 821156856, 4011868600, 821157030, 4013561094], "tags": {"brand": "Paul", "brand:wikidata": "Q3370417", "level": "1", "name": "Paul", "payment:cash": "yes", "payment:coins": "yes", "ref:FR:SIRET": "40305211101147", "ref:vatin": "FR32403052111", "shop": "bakery"}}, {"type": "way", "id": 417376188, "nodes": [814114754, 9304993594, 814114937, 4179344789, 4179344794, 4179316980, 9304993593, 814114754], "tags": {"brand": "Marie Blach\u00e8re", "brand:wikidata": "Q62082410", "brand:wikipedia": "fr:Marie Blach\u00e8re", "indoor": "room", "level": "0", "name": "Marie Blach\u00e8re", "operator": "Marie Blach\u00e8re", "shop": "bakery", "website": "https://www.marieblachere.com"}}, {"type": "way", "id": 639020043, "nodes": [6021650893, 6021650894, 6021791358, 6021650902, 6021650900, 6021650901, 6021650905, 6021791357, 635138778, 6021660713, 6021660714, 6021650890, 6021650891, 6021650892, 6021650893], "tags": {"addr:city": "Puteaux", "addr:country": "FR", "addr:housenumber": "66", "addr:place": "La D\u00e9fense 8", "addr:postcode": "92800", "addr:street": "Jardins Boieldieu", "amenity": "cafe", "indoor": "room", "level": "0", "name": "Karly", "room": "shop", "shop": "bakery"}}, {"type": "way", "id": 723784143, "nodes": [6788234029, 6788234030, 6788158791, 959850066, 6788158818, 6788234032, 6788234033, 6788158792, 6788234029], "tags": {"indoor": "room", "level": "0", "name": "Karly la D\u00e9fense", "ref:FR:SIRET": "73206301100025", "room": "shop", "shop": "bakery"}}, {"type": "way", "id": 852317077, "nodes": [7950399967, 7950399978, 7950399979, 959829435, 959831636, 7950399967], "tags": {"addr:city": "Courbevoie", "addr:country": "FR", "addr:district": "La D\u00e9fense 1", "addr:postcode": "92400", "addr:street": "Square des Saisons", "indoor": "room", "level": "-1", "name": "Pains Sandwichs P\u00e2tisserie", "room": "shop", "shop": "bakery"}}, {"type": "way", "id": 892852831, "nodes": [8298349492, 8298349428, 8298349427, 8298349509, 8298349492], "tags": {"indoor": "room", "level": "0", "name": "Aux d\u00e9lices de la R\u00e9publique", "shop": "bakery"}}, {"type": "way", "id": 1027093965, "nodes": [9469285595, 9469285594, 9469285592, 2813296267, 9469285593, 9456079743, 9469285595], "tags": {"indoor": "room", "level": "-2", "name": "Bonne Journ\u00e9e", "shop": "bakery"}}, {"type": "way", "id": 1119484146, "nodes": [10239195132, 10239195131, 4344785928, 650700644, 650700646, 650700642, 10239195130, 10239195132], "tags": {"addr:city": "Nanterre", "addr:housenumber": "67", "addr:postcode": "92000", "addr:street": "Rue Maurice Thorez", "alt_name": "Maison Carneiro", "contact:phone": "+33 1 47 21 15 53", "name": "La Campagnarde", "note:fr": "Boulangerie, P\u00e2tisserie", "opening_hours": "Mo-Sa 06:00-20:00", "ref:FR:SIRET": "49346896100013", "room": "yes", "shop": "bakery", "source": "survey;local knowledge", "wheelchair": "yes"}}, {"type": "way", "id": 1314952840, "nodes": [12170806940, 12170806941, 12170806942, 960856638, 960857508, 12170806940], "tags": {"addr:city": "Courbevoie", "addr:housenumber": "38", "addr:place": "Avenue Marceau", "addr:postcode": "92400", "name": "Boulangerie Da Silva", "opening_hours": "Mo-Fr 06:30-20:00; Sa,Su off", "phone": "+33 1 43 33 35 71", "shop": "bakery"}}]}