{"version": 0.6, "generator": "Overpass API 0.7.62.8 e802775f", "osm3s": {"timestamp_osm_base": "2025-12-04T23:17:11Z", "copyright": "The data included in this document is from www.openstreetmap.org. The data is made available under ODbL."}, "elements": [{"type": "node", "id": 94918615, "lat": 48.9339031, "lon": 2.2091188, "tags": {"name": "Bl\u00e9 Garni", "shop": "bakery"}}, {"type": "node", "id": 888528447, "lat": 48.9346359, "lon": 2.2028929}, {"type": "node", "id": 888534657, "lat": 48.9348083, "lon": 2.2029322}, {"type": "node", "id": 888535258, "lat": 48.9347302, "lon": 2.2027804}, {"type": "node", "id": 888537486, "lat": 48.934725, "lon": 2.2030635}, {"type": "node", "id": 888540125, "lat": 48.9348052, "lon": 2.202967}, {"type": "node", "id": 899019420, "lat": 48.9231737, "lon": 2.2065844}, {"type": "node", "id": 899023766, "lat": 48.9231341, "lon": 2.2064725}, {"type": "node", "id": 899024497, "lat": 48.92307, "lon": 2.2065251}, {"type": "node", "id": 899030219, "lat": 48.9231096, "lon": 2.206637}, {"type": "node", "id": 914192718, "lat": 48.9221456, "lon": 2.2374073}, {"type": "node", "id": 914193362, "lat": 48.9222207, "lon": 2.2373616}, {"type": "node", "id": 914193531, "lat": 48.9221595, "lon": 2.2373181}, {"type": "node", "id": 914194161, "lat": 48.9222246, "lon": 2.2372888}, {"type": "node", "id": 914194340, "lat": 48.9221417, "lon": 2.2373261}, {"type": "node", "id": 1411497674, "lat": 48.9089241, "lon": 2.2161929, "tags": {"name": "Nouri l'\u00c9pi d'Or", "ref:FR:SIRET": "43527114300016", "shop": "bakery"}}, {"type": "node", "id": 1447109415, "lat": 48.929867, "lon": 2.1974207}, {"type": "node", "id": 1447109946, "lat": 48.9298954, "lon": 2.1974013}, {"type": "node", "id": 1447109971, "lat": 48.9298969, "lon": 2.1974072}, {"type": "node", "id": 1447111604, "lat": 48.9299044, "lon": 2.1975693}, {"type": "node", "id": 1447111647, "lat": 48.929907, "lon": 2.1975794}, {"type": "node", "id": 1447111656, "lat": 48.9299083, "lon": 2.1973936}, {"type": "node", "id": 1447112010, "lat": 48.9299336, "lon": 2.1975331}, {"type": "node", "id": 1447112059, "lat": 48.9299385, "lon": 2.1975562}, {"type": "node", "id": 1447112154, "lat": 48.9299477, "lon": 2.1973651}, {"type": "node", "id": 1447112781, "lat": 48.9299829, "lon": 2.1975017}, {"type": "node", "id": 1780805687, "lat": 48.9249458, "lon": 2.1877624, "tags": {"addr:postcode": "78800", "name": "Pause Douceur", "ref:FR:SIRET": "51449388100023", "shop": "bakery"}}, {"type": "node", "id": 1780812715, "lat": 48.925245, "lon": 2.1888243, "tags": {"addr:housenumber": "19", "addr:street": "Rue Gabriel P\u00e9ri", "name": "Boulangerie", "opening_hours": "We-Sa 07:00-13:30, 15:30-20:00; Su 07:30-13:30, 15:30-19:00", "shop": "bakery"}}, {"type": "node", "id": 1780837229, "lat": 48.9221877, "lon": 2.1880019, "tags": {"addr:city": "Houilles", "addr:postcode": "78800", "addr:street": "Rue Marcel Sembat", "name": "La Pince Gourmande", "opening_hours": "Mo-Fr 07:00-20:00; Sa 07:00-14:00", "shop": "bakery"}}, {"type": "node", "id": 1851328418, "lat": 48.9279916, "lon": 2.1938814, "tags": {"indoor_seating": "no", "name": "Les Saveurs d'Houilles", "outdoor_seating": "yes", "shop": "bakery"}}, {"type": "node", "id": 1910191055, "lat": 48.9218485, "lon": 2.1985293, "tags": {"addr:city": "Houilles", "addr:housenumber": "89/95", "addr:postcode": "78800", "addr:street": "Boulevard Jean Jaur\u00e8s", "brand": "Boulangerie Louise", "brand:website": "https://www.boulangerielouise.com", "brand:wikidata": "Q127591514", "name": "Boulangerie Louise", "opening_hours": "Mo-Sa 07:30-20:00", "phone": "+33 1 39 57 93 64", "shop": "bakery", "wheelchair": "yes"}}, {"type": "node", "id": 2294562595, "lat": 48.9099072, "lon": 2.2395754, "tags": {"shop": "bakery"}}, {"type": "node", "id": 2658347402, "lat": 48.9240608, "lon": 2.2194675, "tags": {"shop": "bakery"}}, {"type": "node", "id": 3254629116, "lat": 48.9277964, "lon": 2.2107824, "tags": {"name": "Aux tr\u00e9sors des saveurs", "opening_hours": "Mo,Tu,Th-Sa 07:00-20:30; Su 07:00-13:30; We off", "shop": "bakery", "source": "survey"}}, {"type": "node", "id": 3636275179, "lat": 48.9304609, "lon": 2.1852495, "tags": {"shop": "bakery", "source": "survey"}}, {"type": "node", "id": 4336154699, "lat": 48.9186231, "lon": 2.1870937, "tags": {"addr:street": "Avenue Jean-Jacques Rousseau", "name": "Artisan Boulanger", "opening_hours": "Tu-Su 07:00-13:00,15:30-20:00", "shop": "bakery", "wheelchair": "yes"}}, {"type": "node", "id": 4339579502, "lat": 48.9220173, "lon": 2.1875631, "tags": {"addr:city": "Houilles", "addr:postcode": "78800", "addr:street": "Avenue Charles de Gaulle", "name": "Au Coin de la Rue", "opening_hours": "Mo-Fr 07:00-18:30; Sa 07:00-18:00", "ref:FR:SIRET": "75320073200018", "shop": "bakery"}}, {"type": "node", "id": 4340697490, "lat": 48.9271513, "lon": 2.2150628, "tags": {"name": "La Gr\u00e2ce de Dieu", "shop": "bakery", "wheelchair": "limited"}}, {"type": "node", "id": 4340702490, "lat": 48.9231794, "lon": 2.2170732, "tags": {"addr:city": "Bezons", "addr:housenumber": "3", "addr:postcode": "95870", "addr:street": "Rue Julius et Ethel Rosenberg", "brand": "La Mie C\u00e2line", "brand:wikidata": "Q3210704", "name": "La Mie C\u00e2line", "opening_hours": "Mo-Sa 06:00-21:00; Su 07:00-20:00", "operator": "JENELYNNE", "phone": "+33 1 34 10 35 24", "shop": "bakery", "wheelchair": "yes"}}, {"type": "node", "id": 4340704995, "lat": 48.9246483, "lon": 2.2091496, "tags": {"addr:housenumber": "144", "name": "Boulangerie Guerida", "shop": "bakery"}}, {"type": "node", "id": 4406990915, "lat": 48.9112572, "lon": 2.2223047, "tags": {"addr:housenumber": "416", "contact:phone": "+33 1 57 68 35 61", "name": "Boulangerie Traiteur", "opening_hours": "Tu-Su 06:00-20:45", "shop": "bakery", "source": "survey 2016", "wheelchair": "yes"}}, {"type": "node", "id": 4406990921, "lat": 48.9111191, "lon": 2.2208259, "tags": {"name": "Festival des Pains", "shop": "bakery", "source": "survey 2016"}}, {"type": "node", "id": 4406990928, "lat": 48.9193861, "lon": 2.2212384, "tags": {"amenity": "fast_food", "brand": "La Croissanterie", "brand:wikidata": "Q3207961", "cuisine": "sandwich", "name": "La Croissanterie", "shop": "bakery", "takeaway": "yes"}}, {"type": "node", "id": 4581985694, "lat": 48.9307187, "lon": 2.2115875, "tags": {"name:signed": "no", "shop": "bakery"}}, {"type": "node", "id": 5294644342, "lat": 48.9152069, "lon": 2.2285543, "tags": {"indoor_seating": "no", "name": "Les Pyramides", "outdoor_seating": "no", "ref:FR:SIRET": "79367976200013", "shop": "bakery", "takeaway": "only", "wheelchair": "yes"}}, {"type": "node", "id": 5333702128, "lat": 48.912827, "lon": 2.2357191, "tags": {"check_date": "2024-12-27", "contact:phone": "+33 1 42 42 29 99", "name": "Boulangerie P\u00e2tisserie", "opening_hours": "Mo-Su 07:00-21:00; We off", "shop": "bakery"}}, {"type": "node", "id": 5351775740, "lat": 48.9130291, "lon": 2.2260539, "tags": {"name": "Les Fr\u00e8res Gasmi", "shop": "bakery"}}, {"type": "node", "id": 5760137121, "lat": 48.9175297, "lon": 2.2252829, "tags": {"addr:housenumber": "202", "addr:postcode": "92700", "addr:street": "Boulevard Charles de Gaulle", "name": "Pain d'Or", "shop": "bakery"}}, {"type": "node", "id": 5816656945, "lat": 48.9294471, "lon": 2.2140925, "tags": {"shop": "bakery"}}, {"type": "node", "id": 5879604962, "lat": 48.9307009, "lon": 2.2078308, "tags": {"indoor_seating": "no", "name": "Au Fournil", "outdoor_seating": "no", "shop": "bakery", "takeaway": "only"}}, {"type": "node", "id": 6045016402, "lat": 48.9139446, "lon": 2.2280735, "tags": {"indoor_seating": "yes", "name": "Le pavillon gourmet", "outdoor_seating": "no", "shop": "bakery"}}, {"type": "node", "id": 6047409243, "lat": 48.9308754, "lon": 2.2114357, "tags": {"name": "Majestic Cake Design", "shop": "bakery"}}, {"type": "node", "id": 7470551578, "lat": 48.9362286, "lon": 2.2382907, "tags": {"addr:city": "Argenteuil", "addr:housenumber": "126 bis", "addr:postcode": "95100", "addr:street": "Rue Henri Barbusse", "mapillary": "469876260787228", "name": "Boulangerie Pont Neuf", "phone": "+33 1 39 47 71 24", "ref:FR:SIRET": "50273566500015", "shop": "bakery"}}, {"type": "node", "id": 7600264689, "lat": 48.9348414, "lon": 2.2307095, "tags": {"shop": "bakery"}}, {"type": "node", "id": 8889978182, "lat": 48.9202715, "lon": 2.2289009, "tags": {"shop": "bakery"}}, {"type": "node", "id": 11021416925, "lat": 48.9196207, "lon": 2.1858086, "tags": {"name": "Nouvelle boulangerie", "opening_hours": "Mo-Sa 06:00-20:00", "shop": "bakery"}}, {"type": "node", "id": 11452011300, "lat": 48.923862, "lon": 2.2076077, "tags": {"indoor_seating": "yes", "name": "Boulangerie Maison Gahfif", "outdoor_seating": "no", "pastry_shop": "yes", "shop": "bakery", "wheelchair": "yes"}}, {"type": "node", "id": 12851431704, "lat": 48.924679, "lon": 2.1854504, "tags": {"addr:housenumber": "3 ter", "addr:street": "Rue Marceau", "name": "\u00c9pi d'Or", "ref:FR:SIRET": "83124475100010", "shop": "bakery"}}, {"type": "way", "id": 75244537, "nodes": [888537486, 888540125, 888534657, 888535258, 888528447, 888537486], "tags": {"building": "yes", "name": "Au Croissant d'Or", "shop": "bakery", "source": "cadastre-dgi-fr source : Direction G\u00e9n\u00e9rale des Imp\u00f4ts - Cadastre. Mise \u00e0 jour : 2010", "wheelchair": "no"}}, {"type": "way", "id": 76200109, "nodes": [899019420, 899023766, 899024497, 899030219, 899019420], "tags": {"addr:housenumber": "13", "addr:street": "Rue de Montesson", "building": "yes", "name": "La Baguette Dor\u00e9e", "shop": "bakery", "source": "cadastre-dgi-fr source : Direction G\u00e9n\u00e9rale des Imp\u00f4ts - Cadastre. Mise \u00e0 jour : 2010"}}, {"type": "way", "id": 77720888, "nodes": [914194340, 914192718, 914193362, 914194161, 914193531, 914194340], "tags": {"building": "yes", "shop": "bakery", "source": "cadastre-dgi-fr source : Direction G\u00e9n\u00e9rale des Imp\u00f4ts - Cadastre. Mise \u00e0 jour : 2010"}}, {"type": "way", "id": 131514106, "nodes": [1447109415, 1447111604, 1447111647, 1447112059, 1447112010, 1447112781, 1447112154, 1447111656, 1447109946, 1447109971, 1447109415], "tags": {"building": "yes", "name": "aux plaisirs sucr\u00e9s", "ref:FR:SIRET": "53759720500013", "shop": "bakery", "source": "cadastre-dgi-fr source : Direction G\u00e9n\u00e9rale des Imp\u00f4ts - Cadastre. Mise \u00e0 jour : 2011"}}]}