{"version": 0.6, "generator": "Overpass API 0.7.62.8 e802775f", "osm3s": {"timestamp_osm_base": "2025-12-03T20:31:44Z", "copyright": "The data included in this document is from www.openstreetmap.org. The data is made available under ODbL."}, "elements": [{"type": "node", "id": 26647027, "lat": 45.7600968, "lon": 4.8557139, "tags": {"brand": "Carrefour", "brand:wikidata": "Q217599", "brand:wikipedia": "fr:Carrefour (enseigne)", "level": "2", "name": "Carrefour Lyon Part-Dieu", "opening_hours": "Mo-Fr 08:30-21:30; Sa 08:30-21:00", "ref:FR:SIRET": "45132133500437", "shop": "supermarket", "website": "https://www.carrefour.fr/magasin/lyon-part-dieu", "wheelchair": "yes"}}, {"type": "node", "id": 80236926, "lat": 45.7633263, "lon": 4.8360079, "tags": {"brand": "Monoprix", "brand:wikidata": "Q3321241", "brand:wikipedia": "en:Monoprix", "check_date:opening_hours": "2025-02-08", "name": "Monoprix", "opening_hours": "Mo-Sa 08:00-21:00; Su 09:00-13:00", "operator": "Groupe Casino", "phone": "+33 4 37 23 70 20", "ref:FR:SIRET": "55208329702578", "shop": "supermarket", "website": "https://www.monoprix.fr/225.html", "wheelchair": "yes"}}, {"type": "node", "id": 95836732, "lat": 45.7507107, "lon": 4.8557839, "tags": {"brand": "Intermarch\u00e9 Express", "brand:wikidata": "Q98278043", "check_date": "2024-06-03", "name": "Intermarch\u00e9 Express", "opening_hours": "Mo-Sa 09:00-21:00", "payment:cash": "yes", "payment:credit_cards": "yes", "payment:debit_cards": "yes", "ref:FR:SIRET": "98783514700024", "shop": "supermarket", "wheelchair": "yes"}}, {"type": "node", "id": 97075447, "lat": 45.7633935, "lon": 4.8517549, "tags": {"brand": "Monoprix", "brand:wikidata": "Q3321241", "brand:wikipedia": "en:Monoprix", "check_date:opening_hours": "2023-01-03", "name": "Monoprix", "opening_hours": "Mo-Sa 08:00-20:55; Su 08:00-13:00", "opening_hours:signed": "no", "phone": "+33 4 78 60 20 15", "ref:FR:SIRET": "55208329701687", "shop": "supermarket", "website": "https://www.monoprix.fr/840.html"}}, {"type": "node", "id": 249718449, "lat": 45.7524329, "lon": 4.8458914, "tags": {"brand": "Naturalia", "brand:wikidata": "Q3337081", "brand:wikipedia": "fr:Naturalia", "check_date:opening_hours": "2025-11-15", "name": "Naturalia", "opening_hours": "Mo-Sa 09:00-20:00; Su 09:00-12:45", "organic": "only", "phone": "+33 4 72 94 40 65", "ref:FR:SIRET": "30247464801670", "shop": "supermarket", "start_date": "2017-03-10", "website": "https://magasins.naturalia.fr/naturalia/fr/store/france/auvergne-rhone-alpes/rhone/lyon/lyon-jean-jaures/3908", "wheelchair": "yes"}}, {"type": "node", "id": 534114171, "lat": 45.761829, "lon": 4.8465007, "tags": {"brand": "U Express", "brand:wikidata": "Q2529029", "brand:wikipedia": "en:Syst\u00e8me U", "check_date:opening_hours": "2025-09-18", "contact:website": "https://www.magasins-u.com/magasin/uexpress-lyon3bonnel", "name": "U Express", "newspaper": "yes", "opening_hours": "Mo-Sa 08:30-21:00; Su 09:00-13:00", "operator": "Syst\u00e8me U", "phone": "+33 4 37 23 68 80", "ref:FR:SIRET": "48928980100024", "shop": "supermarket"}}, {"type": "node", "id": 546921135, "lat": 45.7567409, "lon": 4.8445477, "tags": {"brand": "Bahadourian", "contact:facebook": "https://www.facebook.com/bahadourian.epicerie", "name": "Bahadourian", "opening_hours": "Mo-Sa 07:30-19:30", "phone": "+33 4 78 60 32 10", "ref:FR:SIRET": "34358346400015", "shop": "supermarket", "website": "https://www.bahadourian.com/", "wikidata": "Q2879246"}}, {"type": "node", "id": 573267936, "lat": 45.742865, "lon": 4.8205741, "tags": {"brand": "Lidl", "brand:website": "http://www.lidl.fr", "brand:wikidata": "Q151954", "brand:wikipedia": "en:Lidl", "check_date:opening_hours": "2024-02-21", "name": "Lidl", "opening_hours": "Mo-Sa 08:30-20:30", "operator": "Lidl", "ref:FR:SIRET": "34326262204976", "shop": "supermarket", "source": "cadastre-dgi-fr source : Direction G\u00e9n\u00e9rale des Imp\u00f4ts - Cadastre. Mise \u00e0 jour : 2009", "wheelchair": "yes"}}, {"type": "node", "id": 639645761, "lat": 45.7489934, "lon": 4.8475414, "tags": {"branch": "Lyon Saint Louis", "brand": "U Express", "brand:wikidata": "Q2529029", "brand:wikipedia": "fr:Syst\u00e8me U", "check_date:opening_hours": "2025-11-13", "name": "U Express", "opening_hours": "Mo-Sa 08:30-21:00; Su 08:30-12:45", "operator": "Super U", "phone": "+33 4 78 69 20 19", "ref:FR:SIRET": "32208453400021", "shop": "supermarket", "website": "https://www.magasins-u.com/uexpress-lyonsaintlouis", "wheelchair": "yes"}}, {"type": "node", "id": 935446487, "lat": 45.751215, "lon": 4.839532, "tags": {"brand": "Lidl", "brand:website": "http://www.lidl.fr", "brand:wikidata": "Q151954", "brand:wikipedia": "en:Lidl", "check_date": "2024-04-04", "name": "Lidl", "opening_hours": "Mo-Fr 08:30-20:30; Sa 08:30-20:30; Su 08:30-12:15", "operator": "Lidl", "ref:FR:SIRET": "34326262214348", "shop": "supermarket", "wheelchair": "yes"}}, {"type": "node", "id": 989802370, "lat": 45.7536719, "lon": 4.8577454, "tags": {"branch": "Lyon F\u00e9lix Faure", "brand": "Auchan Supermarch\u00e9", "brand:wikidata": "Q105857776", "name": "Auchan Supermarch\u00e9", "opening_hours": "Mo-Sa 08:00-21:00; Su 08:00-12:30, 13:00-20:30", "phone": "+33 4 37 42 84 00", "ref:FR:SIRET": "41040901503661", "shop": "supermarket", "website": "https://www.auchan.fr/magasins/supermarche-lyon-felix-faure/sl-1357", "wheelchair": "yes"}}, {"type": "node", "id": 1006896769, "lat": 45.7561817, "lon": 4.8473158, "tags": {"brand": "U Express", "brand:wikidata": "Q2529029", "brand:wikipedia": "fr:Syst\u00e8me U", "check_date": "2024-06-30", "name": "U Express", "opening_hours": "Mo-Sa 08:30-20:30; Su 09:00-13:00", "operator": "Syst\u00e8me U", "phone": "+33 4 37 45 45 35", "ref:FR:SIRET": "48950012400024", "shop": "supermarket", "website": "https://www.magasins-u.com/magasin/uexpress-saxevendome", "wheelchair": "yes"}}, {"type": "node", "id": 1336704424, "lat": 45.7478543, "lon": 4.855944, "tags": {"brand": "Lidl", "brand:website": "https://www.lidl.fr/", "brand:wikidata": "Q151954", "brand:wikipedia": "fr:Lidl", "contact:housenumber": "212", "name": "Lidl", "opening_hours": "Mo-Sa 08:30-20:30", "operator": "Lidl", "ref:FR:SIRET": "34326262215154", "shop": "supermarket"}}, {"type": "node", "id": 1336704427, "lat": 45.7495304, "lon": 4.8540371, "tags": {"branch": "Lyon Guilloti\u00e8re", "brand": "Monoprix", "brand:wikidata": "Q3321241", "brand:wikipedia": "fr:Monoprix (France)", "name": "Monoprix", "opening_hours": "Mo-Sa 08:30-21:30; Su 08:30-13:00", "operator": "Groupe Casino", "phone": "+33 4 37 37 22 80", "ref:FR:SIRET": "55208329702651", "shop": "supermarket", "website": "https://www.monoprix.fr/1350.html"}}, {"type": "node", "id": 1336704722, "lat": 45.7527814, "lon": 4.8512308, "tags": {"brand": "Aldi", "brand:wikidata": "Q41171373", "brand:wikipedia": "en:Aldi", "name": "Aldi", "opening_hours": "Mo-Sa 08:30-20:00; Su 08:30-12:30", "shop": "supermarket", "wheelchair": "yes"}}, {"type": "node", "id": 1381860422, "lat": 45.7671283, "lon": 4.8495701, "tags": {"branch": "Lyon 6e", "brand": "Super U", "brand:wikidata": "Q2529029", "brand:wikipedia": "en:Syst\u00e8me U", "name": "Super U", "opening_hours": "Mo-Sa 08:30-20:00, Su 08:30-13:00", "operator": "Syst\u00e8me U", "phone": "+33478524082", "ref:FR:SIRET": "41110424300018", "shop": "supermarket", "website": "https://www.magasins-u.com/magasin/superu-lyon6eme"}}, {"type": "node", "id": 1694707158, "lat": 45.7710946, "lon": 4.8497612, "tags": {"branch": "Garibaldi - Lyon", "brand": "Auchan Supermarch\u00e9", "brand:wikidata": "Q105857776", "check_date:opening_hours": "2022-11-13", "name": "Auchan Supermarch\u00e9", "opening_hours": "Mo-Sa 08:30-20:45; Su 08:30-12:30", "phone": "+33 4 78 93 15 37", "ref:FR:SIRET": "41040901500824", "shop": "supermarket", "website": "https://www.auchan.fr/magasins/supermarche-garibaldi-lyon/sl-1159"}}, {"type": "node", "id": 1998615471, "lat": 45.7526794, "lon": 4.8464976, "tags": {"brand": "Biocoop", "brand:wikidata": "Q2904039", "brand:wikipedia": "fr:Biocoop", "bulk_purchase": "yes", "check_date": "2024-10-08", "check_date:opening_hours": "2024-10-08", "contact:city": "Lyon 7eme Arrondissement", "contact:housenumber": "15", "contact:phone": "+33 4 72 70 98 82", "contact:postcode": "69007", "contact:street": "Avenue Jean Jaur\u00e8s", "name": "Biocoop", "official_name": "Biocoop Saxe Gambetta", "opening_hours": "Mo-Sa 09:00-19:30", "opening_hours:signed": "no", "operator": "Vert la Terre", "organic": "only", "ref:FR:SIRET": "75101634600015", "shop": "supermarket", "website": "https://www.biocooplyonsaxe.fr", "wheelchair": "yes"}}, {"type": "node", "id": 2086430153, "lat": 45.7548848, "lon": 4.8427227, "tags": {"brand": "Casino", "brand:wikidata": "Q89029184", "contact:housenumber": "7", "name": "Casino", "opening_hours": "Mo-Tu 08:00-19:30; Th-Sa 08:00-19:30; Su 09:00-12:30", "phone": "+33 4 72 76 55 30", "ref:FR:SIRET": "42826802302123", "shop": "supermarket", "website": "https://www.supercasino.fr/"}}, {"type": "node", "id": 2204972014, "lat": 45.7503193, "lon": 4.8446112, "tags": {"brand": "Franprix", "brand:wikidata": "Q2420096", "brand:wikipedia": "fr:Franprix", "check_date": "2025-09-19", "check_date:opening_hours": "2025-09-19", "name": "Franprix", "opening_hours": "Mo-Sa 07:30-21:00, Su 09:00-20:00", "operator": "Jaudis", "phone": "+33 4 72 76 59 17", "ref:FR:SIRET": "45218217300032", "shop": "supermarket", "website": "https://www.franprix.fr/magasins/lyon_m5613", "wheelchair": "yes"}}, {"type": "node", "id": 2242945730, "lat": 45.7541131, "lon": 4.8417226, "tags": {"contact:housenumber": "8", "name": "Asian Bangla", "origin": "asian;indian;african;bangladesh", "shop": "supermarket"}}, {"type": "node", "id": 2284359915, "lat": 45.7551396, "lon": 4.8456316, "tags": {"name": "Biba", "opening_hours": "Mo-Th,Sa 10:00-20:00; Fr 10:00-13:00,14:00-20:00; Su 13:00-19:00", "ref:FR:SIRET": "80264220700012", "shop": "supermarket"}}, {"type": "node", "id": 2322617255, "lat": 45.752728, "lon": 4.848995, "tags": {"brand": "Intermarch\u00e9", "brand:wikidata": "Q3153200", "brand:wikipedia": "fr:Intermarch\u00e9", "check_date": "2024-06-30", "name": "Intermarch\u00e9 Express", "opening_hours": "Mo-Sa 08:30-20:30; Su 09:00-12:30", "operator": "Groupement des Mousquetaires", "ref:FR:SIRET": "79106019700013", "shop": "supermarket", "wheelchair": "yes"}}, {"type": "node", "id": 2476993859, "lat": 45.7527088, "lon": 4.8314002, "tags": {"brand": "La Vie Claire", "brand:wikidata": "Q3213589", "brand:wikipedia": "fr:La Vie Claire", "bulk_purchase": "yes", "name": "La Vie Claire", "opening_hours": "Mo-Sa 09:00-20:00; Su 09:00-12:30", "organic": "only", "phone": "+33 4 78 42 09 19", "ref:FR:SIRET": "63200001401967", "shop": "supermarket", "survey:date": "2025-05-08", "website": "https://www.lavieclaire.com/magasin-bio/lyon-charite.html", "wheelchair": "yes"}}, {"type": "node", "id": 2969297079, "lat": 45.747686, "lon": 4.8447621, "tags": {"brand": "Intermarch\u00e9", "brand:wikidata": "Q3153200", "name": "Intermarch\u00e9 Express", "opening_hours": "Mo-Sa 08:00-20:30; Su 09:00-12:30", "phone": "+33 4 72 76 53 00", "ref:FR:SIRET": "92785110500035", "shop": "supermarket", "website": "https://www.intermarche.com/magasins/11774/lyon-69007/infos-pratiques", "wheelchair": "yes"}}, {"type": "node", "id": 3066189893, "lat": 45.7601629, "lon": 4.8467851, "tags": {"brand": "Biocoop", "brand:wikidata": "Q2904039", "brand:wikipedia": "fr:Biocoop", "contact:city": "Lyon 3eme Arrondissement", "contact:housenumber": "197", "contact:phone": "+33 4 78 38 56 10", "contact:postcode": "69003", "contact:street": "Rue Vendome", "name": "Biocoop", "official_name": "Biocoop Lyon Vend\u00f4me", "opening_hours": "Mo-Sa 09:00-19:30", "organic": "only", "ref:FR:SIRET": "83442809600012", "shop": "supermarket", "website": "https://www.biocooplyonvendome.bio"}}, {"type": "node", "id": 3194037965, "lat": 45.740588, "lon": 4.8176878, "tags": {"brand": "Carrefour", "brand:wikidata": "Q217599", "brand:wikipedia": "fr:Carrefour (enseigne)", "check_date:opening_hours": "2025-10-18", "level": "0", "name": "Carrefour", "opening_hours": "Mo-Sa 08:30-21:00, Su 08:30-12:30", "phone": "+33 4 72 13 81 79", "shop": "supermarket", "website": "https://www.carrefour.fr/magasin/lyon-confluence", "wheelchair": "yes"}}, {"type": "node", "id": 3350775494, "lat": 45.7619158, "lon": 4.8571656, "tags": {"brand": "Monoprix", "brand:wikidata": "Q3321241", "brand:wikipedia": "en:Monoprix", "check_date": "2025-09-04", "level": "1", "name": "Monoprix", "opening_hours": "Mo-Sa 08:30-21:00; Su 08:30-13:00", "phone": "+33 4 37 72 40 00", "shop": "supermarket", "website": "https://www.monoprix.fr/1429.html"}}, {"type": "node", "id": 3478281199, "lat": 45.7701529, "lon": 4.8517897, "tags": {"brand": "Intermarch\u00e9", "name": "Intermarch\u00e9", "opening_hours": "Mo-Sa 08:30-20:00; Su 09:00-12:30", "ref:FR:SIRET": "89107259700026", "shop": "supermarket"}}, {"type": "node", "id": 3554375917, "lat": 45.7659056, "lon": 4.8331471, "tags": {"brand": "Super U", "brand:wikidata": "Q2529029", "brand:wikipedia": "en:Syst\u00e8me U", "check_date:opening_hours": "2025-05-24", "name": "Super U", "opening_hours": "Mo-Sa 07:00-21:00; Su 08:30-21:00", "ref:FR:SIRET": "57375061900302", "shop": "supermarket", "wheelchair": "yes"}}, {"type": "node", "id": 3814600484, "lat": 45.7756651, "lon": 4.8273632, "tags": {"brand": "U Express", "brand:wikidata": "Q2529029", "level": "0", "name": "Courses U - Point Drive", "opening_hours": "Mo-Sa 08:30-20:00; Su 09:00-13:00", "operator": "U EXPRESS", "phone": "+33 4 78 98 90 74", "shop": "supermarket", "website": "https://www.coursesu.com/lyoncroixrousse/AccueilMagasin/_mag"}}, {"type": "node", "id": 4257913491, "lat": 45.7597036, "lon": 4.8346813, "tags": {"brand": "Casino", "brand:wikidata": "Q89029184", "check_date": "2025-10-06", "name": "Casino", "opening_hours": "Mo-Sa 08:00-22:00, Su 10:00-22:00", "ref:FR:SIRET": "82370179200017", "shop": "supermarket", "wheelchair": "limited"}}, {"type": "node", "id": 4399040969, "lat": 45.767359, "lon": 4.8310335, "tags": {"branch": "des Terreaux", "brand": "Biocoop", "brand:wikidata": "Q2904039", "brand:wikipedia": "fr:Biocoop", "bulk_purchase": "yes", "check_date:opening_hours": "2025-12-03", "contact:city": "Lyon 1er Arrondissement", "contact:housenumber": "13", "contact:phone": "+33 4 72 45 88 50", "contact:postcode": "69001", "contact:street": "Rue d'Alg\u00e9rie", "name": "Biocoop", "official_name": "Biocoop Lyon Terreaux", "opening_hours": "Mo-Sa 09:00-19:30", "organic": "only", "ref:FR:SIRET": "81919848200013", "shop": "supermarket", "website": "https://www.biocooplyonterreaux.com", "wheelchair": "no"}}, {"type": "node", "id": 4432968086, "lat": 45.7629384, "lon": 4.8365056, "tags": {"brand": "Naturalia", "brand:wikidata": "Q3337081", "brand:wikipedia": "fr:Naturalia", "check_date": "2025-05-31", "check_date:opening_hours": "2025-05-31", "name": "Naturalia Lyon Grol\u00e9e", "opening_hours": "Mo-Sa 09:00-20:00", "organic": "only", "phone": "+33 4 78 38 12 55", "ref:FR:SIRET": "30247464800722", "shop": "supermarket", "website": "https://magasins.naturalia.fr/produits-bio/lyon-grolee/3867"}}, {"type": "node", "id": 4434068984, "lat": 45.7691119, "lon": 4.8498692, "tags": {"brand": "L'Eau Vive", "brand:wikidata": "Q89200423", "name": "L'Eau Vive", "opening_hours": "Mo-Sa 09:00-19:30; Su 09:00-13:00", "organic": "only", "phone": "+33 4 37 24 10 22", "ref:FR:SIRET": "95000937300115", "shop": "supermarket", "supermarket": "organic", "website": "https://www.eau-vive.com/"}}, {"type": "node", "id": 4436571189, "lat": 45.7661458, "lon": 4.8320129, "tags": {"check_date:opening_hours": "2025-05-24", "internet_access": "wlan", "name": "March\u00e9 Presqu'\u00eele", "opening_hours": "Mo-Sa 07:30-21:00; Su 09:00-21:00", "shop": "supermarket", "wheelchair": "limited"}}, {"type": "node", "id": 4514407990, "lat": 45.7749549, "lon": 4.8335813, "tags": {"branch": "du Gros Caillou", "brand": "Biocoop", "brand:wikidata": "Q2904039", "brand:wikipedia": "fr:Biocoop", "bulk_purchase": "yes", "check_date:opening_hours": "2025-05-29", "contact:city": "Lyon 4eme Arrondissement", "contact:housenumber": "1", "contact:phone": "+33 4 37 40 87 76", "contact:postcode": "69004", "contact:street": "Rue Aim\u00e9 Boussange", "name": "Biocoop", "opening_hours": "Mo-Sa 09:00-19:30", "organic": "only", "ref:FR:SIRET": "82113928400011", "shop": "supermarket", "website": "https://www.biocoopdugroscaillou.fr", "wheelchair": "yes"}}, {"type": "node", "id": 4524766589, "lat": 45.7693906, "lon": 4.8568502, "tags": {"brand": "Monoprix", "brand:wikidata": "Q3321241", "brand:wikipedia": "fr:Monoprix (France)", "check_date:opening_hours": "2025-07-29", "name": "Monoprix", "opening_hours": "Mo-Sa 07:30-22:50; Su 08:00-20:50", "phone": "+33 4 78 78 86 70", "ref:FR:SIRET": "44465668000782", "shop": "supermarket", "website": "https://www.monoprix.fr/1813.html"}}, {"type": "node", "id": 4595371090, "lat": 45.7653965, "lon": 4.8364032, "tags": {"brand": "Auchan", "brand:wikidata": "Q758603", "brand:wikipedia": "fr:Auchan", "name": "Auchan", "opening_hours": "Mo-Sa 07:30-21:50; Su 09:00-13:20,15:00-19:50", "phone": "+33472101285", "ref:FR:SIRET": "79187733500012", "shop": "supermarket", "wheelchair": "yes"}}, {"type": "node", "id": 4682000649, "lat": 45.7441819, "lon": 4.8482552, "tags": {"addr:housenumber": "377", "addr:postcode": "69007", "addr:street": "Rue Garibaldi", "brand": "Intermarch\u00e9", "brand:wikidata": "Q3153200", "brand:wikipedia": "fr:Intermarch\u00e9", "name": "Intermarch\u00e9", "opening_hours": "Mo-Sa 08:30-20:30; Su 09:00-12:30", "phone": "+33 4 37 65 40 07", "ref:FR:SIRET": "82046657100016", "shop": "supermarket", "website": "https://www.intermarche.com"}}, {"type": "node", "id": 4895707224, "lat": 45.7489435, "lon": 4.8421476, "tags": {"branch": "City Lyon Universit\u00e9", "brand": "Auchan Supermarch\u00e9", "brand:website": "https://www.auchan.fr/magasins-rayons-marques-auchan/e-magasins-rayons-marques-auchan", "brand:wikidata": "Q105857776", "brand:wikipedia": "fr:Auchan Supermarch\u00e9", "check_date:opening_hours": "2024-09-07", "name": "Auchan Supermarch\u00e9", "opening_hours": "Mo-Su 08:30-20:30", "opening_hours:url": "https://www.auchan.fr/magasins/supermarche-city-lyon-universite/sl-1380", "phone": "+33 4 37 28 15 66", "ref:FR:SIRET": "41040901503935", "shop": "supermarket", "website": "https://www.auchan.fr/magasins/supermarche-city-lyon-universite/sl-1380"}}, {"type": "node", "id": 5262323673, "lat": 45.7528407, "lon": 4.8273039, "tags": {"brand": "Spar", "brand:wikidata": "Q610492", "brand:wikipedia": "en:Spar (retailer)", "check_date:opening_hours": "2025-11-25", "name": "Spar", "opening_hours": "Mo-Su 07:00-22:30", "phone": "+33478599052", "ref:FR:SIRET": "80465317800017", "shop": "supermarket", "website": "https://www.spar.fr/"}}, {"type": "node", "id": 5707014061, "lat": 45.753205, "lon": 4.8566897, "tags": {"brand": "L'Eau Vive", "brand:website": "https://www.eau-vive.com/magasin-bio/", "brand:wikidata": "Q89200423", "check_date:opening_hours": "2025-07-29", "name": "L'Eau Vive", "opening_hours": "Mo-Sa 09:00-19:30; Su 09:00-12:30", "organic": "only", "ref:FR:SIRET": "95000937300313", "shop": "supermarket", "wheelchair": "yes"}}, {"type": "node", "id": 5825534303, "lat": 45.742118, "lon": 4.8206865, "tags": {"brand": "La Vie Claire", "brand:wikidata": "Q3213589", "brand:wikipedia": "fr:La Vie Claire", "bulk_purchase": "yes", "check_date:opening_hours": "2025-08-29", "contact:facebook": "https://www.facebook.com/Lavieclaire", "name": "La Vie Claire", "opening_hours": "Mo-Sa 09:30-19:30; Su 09:30-12:30", "organic": "only", "phone": "+33 4 72 31 25 79", "ref:FR:SIRET": "63200001402023", "shop": "supermarket", "website": "https://www.lavieclaire.com/magasin-bio/lyon-charlemagne.html"}}, {"type": "node", "id": 5875917721, "lat": 45.7694259, "lon": 4.850764, "tags": {"brand": "La Vie Claire", "brand:wikidata": "Q3213589", "brand:wikipedia": "fr:La Vie claire", "bulk_purchase": "yes", "check_date": "2024-02-02", "contact:facebook": "https://www.facebook.com/Lavieclaire", "name": "La Vie Claire", "opening_hours": "Mo-Sa 09:00-20:00; Su 09:00-12:45", "organic": "only", "phone": "+33 4 72 44 01 08", "ref:FR:SIRET": "63200001401934", "shop": "supermarket", "website": "https://www.lavieclaire.com/magasin-bio/lyon-vitton.html", "wheelchair": "yes"}}, {"type": "node", "id": 6208181996, "lat": 45.7499387, "lon": 4.8388102, "tags": {"brand": "Super U", "brand:wikidata": "Q2529029", "brand:wikipedia": "fr:Syst\u00e8me U", "check_date": "2025-02-27", "contact:website": "https://www.magasins-u.com/magasin/uexpress-lyonuniversite", "name": "U Express Lyon Universit\u00e9", "opening_hours": "Mo-Sa 08:30-20:30; Su 09:30-13:00", "phone": "+33 4 72 72 13 01", "shop": "supermarket", "wheelchair": "yes"}}, {"type": "node", "id": 6237848151, "lat": 45.7565794, "lon": 4.8540756, "tags": {"contact:facebook": "1315vithuran", "name": "Indian Tamoul Khaday", "shop": "supermarket", "wikimedia_commons": "File:Sup\u00e9rette Indian Tamoul Khaday - Rue L\u00e9on Jouhaux (Lyon).jpg"}}, {"type": "node", "id": 6293908557, "lat": 45.7499076, "lon": 4.8512177, "tags": {"branch": "Lyon Guilloti\u00e8re", "brand": "La Vie Claire", "brand:wikidata": "Q3213589", "brand:wikipedia": "fr:La Vie claire", "check_date:opening_hours": "2024-05-29", "name": "La Vie Claire", "opening_hours": "Mo-Sa 09:00-20:00; Su 09:00-12:30", "organic": "only", "ref:FR:SIRET": "63200001402254", "shop": "supermarket", "website": "https://magasins.lavieclaire.com/lavieclaire/fr/boutique/france/auvergne-rhone-alpes/rhone/lyon/lyon-guillotiere/la3855", "wheelchair": "yes"}}, {"type": "node", "id": 6383821109, "lat": 45.7634514, "lon": 4.8435682, "tags": {"brand": "Casino", "brand:wikidata": "Q89029184", "name": "Casino", "opening_hours": "Mo-Su 07:00-23:00", "ref:FR:SIRET": "82201430400015", "shop": "supermarket"}}, {"type": "node", "id": 6520963385, "lat": 45.7500163, "lon": 4.8397412, "tags": {"check_date:opening_hours": "2024-09-27", "food": "asian", "name": "Leaf Market", "opening_hours": "09:00-19:30", "payment:cash": "yes", "payment:credit_cards": "yes", "ref:FR:SIRET": "49487384700045", "shop": "supermarket", "source": "survey", "wheelchair": "yes"}}, {"type": "node", "id": 6810798753, "lat": 45.7664184, "lon": 4.8342344, "tags": {"branch": "Lyon Grand Bazar", "brand": "Monoprix", "brand:website": "https://www.monoprix.fr/", "brand:wikidata": "Q3321241", "brand:wikipedia": "en:Monoprix", "name": "Monoprix", "opening_hours": "Mo-Sa 07:30-23:50; Su 09:00-21:00", "phone": "+33 4 37 23 70 20", "ref:FR:SIRET": "44465668000832", "shop": "supermarket", "website": "https://www.monoprix.fr/1963.html", "wheelchair": "yes"}}, {"type": "node", "id": 6837624553, "lat": 45.7582168, "lon": 4.8334103, "tags": {"brand": "Biocoop", "brand:wikidata": "Q2904039", "brand:wikipedia": "fr:Biocoop", "check_date": "2025-10-13", "check_date:opening_hours": "2025-10-13", "contact:city": "Lyon 2eme Arrondissement", "contact:facebook": "https://www.facebook.com/biocoopbellecour/", "contact:housenumber": "11", "contact:phone": "+33 4 72 56 82 28", "contact:postcode": "69002", "contact:street": "Place Bellecour", "name": "Biocoop", "opening_hours": "Mo-Su 09:00-20:00", "opening_hours:url": "https://www.biocooplyonbellecour.com/presentation-horaires-itineraires-biocoop-lyon-bellecour.html", "organic": "only", "ref:FR:SIRET": "47957311500025", "shop": "supermarket", "website": "https://www.biocooplyonbellecour.com"}}, {"type": "node", "id": 6916921603, "lat": 45.7693372, "lon": 4.8563272, "tags": {"brand": "Monoprix", "brand:wikidata": "Q3321241", "brand:wikipedia": "fr:Monoprix_(France)", "name": "Monop'", "opening_hours": "Mo-Sa 07:30-24:00; Su 08:00-21:00", "phone": "+33 4 78 78 86 70", "ref:FR:SIRET": "44465668000782", "shop": "supermarket", "website": "https://www.monoprix.fr/1813.html", "wheelchair": "yes"}}, {"type": "node", "id": 6988046244, "lat": 45.7512222, "lon": 4.8308357, "tags": {"brand": "U Express", "brand:wikidata": "Q2529029", "brand:wikipedia": "en:Syst\u00e8me U", "check_date:opening_hours": "2023-10-28", "name": "U Express", "opening_hours": "Mo-Sa 08:00-20:15; Su 09:00-13:00", "phone": "+33 4 78 37 39 62", "ref:FR:SIRET": "31440616600046", "shop": "supermarket", "survey:date": "2023-08-19", "website": "https://www.magasins-u.com/magasin/uexpress-lyon2eme", "wheelchair": "yes"}}, {"type": "node", "id": 6990619331, "lat": 45.7508265, "lon": 4.8303788, "tags": {"contact:facebook": "https://www.facebook.com/elmonumental.lyon", "description": "Sp\u00e9cialit\u00e9s d'Argentine et d'am\u00e9rique du sud", "email": "contact@el-monumental.fr", "name": "El Monumental", "opening_hours": "Tu-Sa 09:30-13:00, 15:30-19:30", "phone": "+33437575074", "ref:FR:SIRET": "82950389500015", "shop": "supermarket", "survey:date": "2023-08-19", "website": "https://el-monumental.fr/", "wheelchair": "no"}}, {"type": "node", "id": 7416149302, "lat": 45.7490769, "lon": 4.8419486, "tags": {"brand": "La Vie Claire", "brand:wikidata": "Q3213589", "bulk_purchase": "yes", "name": "La Vie Claire Lyon Universit\u00e9", "opening_hours": "Mo-Sa 09:00-20:00; Su 09:00-12:30", "organic": "yes", "phone": "+33437290442", "ref:FR:SIRET": "63200001402270", "shop": "supermarket", "website": "https://magasins.lavieclaire.com/lavieclaire/fr/boutique/france/auvergne-rhone-alpes/rhone/lyon/lyon-universite/la41498", "wheelchair": "yes"}}, {"type": "node", "id": 7570143721, "lat": 45.769778, "lon": 4.8425705, "tags": {"name": "Culinaries l'\u00e9picerie", "opening_hours": "24/7", "operator": "Culinaries", "ref:FR:SIRET": "83431537600022", "shop": "supermarket"}}, {"type": "node", "id": 7890721622, "lat": 45.7697307, "lon": 4.8534732, "tags": {"brand:wikidata": "Q101278163", "check_date": "2025-08-23", "check_date:opening_hours": "2025-08-23", "contact:facebook": "Voie-Verte-Le-Primeur-Traiteur-400137220024404", "name": "Voie Verte", "opening_hours": "Mo-Sa 08:30-19:30; Su 09:00-13:00", "phone": "+33 4 78 89 87 72", "ref:FR:SIRET": "74995403800073", "shop": "supermarket", "website": "https://www.voieverte.fr/"}}, {"type": "node", "id": 7998023434, "lat": 45.7454531, "lon": 4.8204043, "tags": {"name": "Lola en vrac", "opening_hours": "Mo-Fr 09:00-17:00", "shop": "supermarket"}}, {"type": "node", "id": 8018629874, "lat": 45.7635556, "lon": 4.8547601, "tags": {"email": "marche.asie.lafayette@gmail.com", "mobile": "+33 6 52 81 11 77", "name": "March\u00e9 d'Asie Lafayette", "opening_hours": "Mo-Sa 9:30-19:45", "origin": "asian", "phone": "+33 9 51 39 31 78", "ref:FR:SIRET": "83232765400014", "shop": "supermarket"}}, {"type": "node", "id": 8126748622, "lat": 45.7525326, "lon": 4.8406248, "tags": {"name": "Supermarch\u00e9 International", "ref:FR:SIRET": "83158581500010", "shop": "supermarket", "survey:date": "2020-11-16"}}, {"type": "node", "id": 8162375699, "lat": 45.7459212, "lon": 4.8232943, "tags": {"brand": "Biocoop", "brand:wikidata": "Q2904039", "brand:wikipedia": "fr:Biocoop", "bulk_purchase": "yes", "contact:city": "Lyon 2eme Arrondissement", "contact:housenumber": "42", "contact:phone": "+33 4 28 29 70 07", "contact:postcode": "69002", "contact:street": "Cours Charlemagne", "name": "Biocoop", "official_name": "Biocoop Confluence", "opening_hours": "Mo-Sa 09:00-19:30", "organic": "only", "ref:FR:SIRET": "88508965600015", "shop": "supermarket", "website": "https://www.biocoop-confluence.fr"}}, {"type": "node", "id": 8180762218, "lat": 45.7571417, "lon": 4.8440962, "tags": {"name": "Dar-Essalam", "shop": "supermarket", "survey:date": "2020-11-30"}}, {"type": "node", "id": 8342678217, "lat": 45.7658078, "lon": 4.8442844, "tags": {"brand": "Auchan Drive", "brand:wikidata": "Q2870659", "brand:wikipedia": "fr:Auchan Drive", "name": "Auchan Drive", "shop": "supermarket"}}, {"type": "node", "id": 8938686592, "lat": 45.753097, "lon": 4.8294895, "tags": {"brand": "U Express", "brand:wikidata": "Q2529029", "brand:wikipedia": "en:Syst\u00e8me U", "name": "U Express", "opening_hours": "Mo-Sa 07:00-22:00; Su 09:00-13:00", "payment:cards": "yes", "payment:cash": "yes", "phone": "+33 4 37 23 57 58", "ref:FR:SIRET": "49319129000011", "shop": "supermarket", "website": "https://www.magasins-u.com/magasin/uexpress-lyonrempartsdainay"}}, {"type": "node", "id": 9162362344, "lat": 45.7403493, "lon": 4.8204972, "tags": {"brand": "Rue des producteurs", "delivery": "yes", "opening_hours": "Tu, We, Fr 10:30-14:00, 16:00-19:30; Sa 09:30-13:30, 14:30-19:30", "shop": "supermarket", "website": "https://www.ruedesproducteurs.fr"}}, {"type": "node", "id": 9260972978, "lat": 45.7481417, "lon": 4.8389117, "tags": {"addr:housenumber": "33", "addr:street": "Rue Jaboulay", "brand": "Biocoop", "brand:wikidata": "Q2904039", "brand:wikipedia": "fr:Biocoop", "check_date:opening_hours": "2024-09-13", "level": "0", "name": "Biocoop Jules Guesde", "opening_hours": "Mo-Sa 09:00-19:30", "organic": "only", "shop": "supermarket", "website": "https://www.biocoop.fr/auvergne-rhone-alpes/rhone/LYON-7E-ARRONDISSEMENT/BIOCOOP-JULES-GUESDE", "wheelchair": "yes"}}, {"type": "node", "id": 10965863105, "lat": 45.7569469, "lon": 4.8562615, "tags": {"name": "U Lyon Part Dieu", "opening_hours": "Mo-Sa 07:00-21:00; Su 08:30-13:00", "shop": "supermarket"}}]}