{"version": 0.6, "generator": "Overpass API 0.7.62.8 e802775f", "osm3s": {"timestamp_osm_base": "2025-12-03T20:33:45Z", "copyright": "The data included in this document is from www.openstreetmap.org. The data is made available under ODbL."}, "elements": [{"type": "node", "id": 308685976, "lat": 48.8463596, "lon": 2.3017044, "tags": {"addr:city": "Paris", "addr:housenumber": "22", "addr:postcode": "75015", "addr:street": "Rue Cambronne", "name": "La Boulange de Cambronne", "opening_hours": "Mo-Fr 06:30-20:30", "ref:FR:SIRET": "81383940400015", "shop": "bakery", "wheelchair": "no"}}, {"type": "node", "id": 546475300, "lat": 48.8752058, "lon": 2.3250611, "tags": {"brand": "Brioche Dor\u00e9e", "brand:website": "https://www.briochedoree.fr", "brand:wikidata": "Q2925606", "brand:wikipedia": "fr:Brioche Dor\u00e9e", "contact:phone": "+33 1 44 69 32 70", "name": "Brioche Dor\u00e9e", "opening_hours": "Mo-Sa 07:30-20:30", "operator": "Groupe Le Duff", "ref:FR:SIRET": "31890659102310", "shop": "bakery", "survey:date": "2025-10-15", "toilets:wheelchair": "yes", "website": "https://www.briochedoree.fr/restaurants/45-paris-123-rue-st-lazare", "wheelchair": "yes"}}, {"type": "node", "id": 678029693, "lat": 48.8611164, "lon": 2.3441344, "tags": {"indoor_seating": "no", "level": "0", "name": "Pain-o-Rama", "opening_hours": "Mo-Sa 07:00-20:00; Su 08:00-17:00", "outdoor_seating": "no", "ref:FR:SIRET": "38399776400022", "shop": "bakery", "takeaway": "only", "wheelchair": "limited"}}, {"type": "node", "id": 682356619, "lat": 48.8662406, "lon": 2.3337899, "tags": {"addr:housenumber": "29", "addr:street": "Rue des Pyramides", "contact:facebook": "Takumiparis", "contact:instagram": "takumi_patisserie_", "name": "Takumi P\u00e2tisserie - Op\u00e9ra", "opening_hours": "Mo 10:30-19:00; Tu-Su 09:30-20:00", "phone": "+33 1 71 32 34 31", "shop": "bakery", "source": "cadastre-dgi-fr source : Direction G\u00e9n\u00e9rale des Imp\u00f4ts - Cadastre. Mise \u00e0 jour : 2010", "website": "https://www.takumi-patisserie.com/"}}, {"type": "node", "id": 686810242, "lat": 48.8701285, "lon": 2.3349193, "tags": {"addr:city": "Paris", "addr:housenumber": "14", "addr:postcode": "75002", "addr:street": "Rue de la Michodi\u00e8re", "check_date": "2024-09-26", "name": "The Little Miches", "opening_hours": "Mo-Th 07:00-19:30; Fr 07:00-18:30", "operator": "Gaetan Romp", "payment:cash": "yes", "payment:credit_cards": "yes", "payment:debit_cards": "yes", "phone": "+33 6 65 44 95 05", "shop": "bakery", "source": "cadastre-dgi-fr source : Direction G\u00e9n\u00e9rale des Imp\u00f4ts - Cadastre. Mise \u00e0 jour : 2010", "wheelchair": "no"}}, {"type": "node", "id": 790027923, "lat": 48.8761916, "lon": 2.3266324}, {"type": "node", "id": 801200358, "lat": 48.8469548, "lon": 2.3172257}, {"type": "node", "id": 801265299, "lat": 48.8469724, "lon": 2.3172774, "tags": {"addr:housenumber": "141", "source": "cadastre-dgi-fr source : Direction G\u00e9n\u00e9rale des Imp\u00f4ts - Cadastre. Mise \u00e0 jour : 2010"}}, {"type": "node", "id": 813769751, "lat": 48.8721203, "lon": 2.3123396, "tags": {"name": "Au Saint-Honor\u00e9", "opening_hours": "Mo-Fr 07:00-20:00", "shop": "bakery", "source": "cadastre-dgi-fr source : Direction G\u00e9n\u00e9rale des Imp\u00f4ts - Cadastre. Mise \u00e0 jour : 2010", "wheelchair": "yes"}}, {"type": "node", "id": 814014124, "lat": 48.8737653, "lon": 2.3157665, "tags": {"addr:city": "Paris", "addr:housenumber": "29", "addr:postcode": "75008", "addr:street": "Rue La Bo\u00e9tie", "brand": "Eric Kayser", "brand:wikidata": "Q99231745", "chocolate": "yes", "cuisine": "regional", "diet:vegetarian": "yes", "email": "boetie@maison-kayser.com", "indoor_seating": "yes", "name": "Eric Kayser", "opening_hours": "Mo-Fr 06:30-20:30; Sa 07:00-20:30", "outdoor_seating": "no", "pastry": "yes", "payment:cash": "yes", "payment:coins": "yes", "payment:contactless": "yes", "payment:credit_cards": "yes", "payment:mastercard": "yes", "payment:visa": "yes", "phone": "+33 1 45 22 55 50", "shop": "bakery", "source": "cadastre-dgi-fr source : Direction G\u00e9n\u00e9rale des Imp\u00f4ts - Cadastre. Mise \u00e0 jour : 2010;survey;visual survey", "website": "https://www.maison-kayser.com/fr/boulangeries/100001019-boetie-miromesnil.html"}}, {"type": "node", "id": 815831085, "lat": 48.8726364, "lon": 2.3241496, "tags": {"name": "Boulangerie \"Les Caprices de Charlotte\"", "opening_hours": "Mo-Sa 07:00-20:00", "shop": "bakery", "source": "cadastre-dgi-fr source : Direction G\u00e9n\u00e9rale des Imp\u00f4ts - Cadastre. Mise \u00e0 jour : 2010"}}, {"type": "node", "id": 827426277, "lat": 48.8517936, "lon": 2.3135511, "tags": {"check_date": "2023-11-22", "heritage": "3", "heritage:operator": "mhs", "mhs:inscription_date": "1984", "name": "La Boulangerie des Invalides", "ref:FR:SIRET": "40919807400042", "ref:mhs": "PA00088677", "shop": "bakery", "source": "survey", "source:heritage": "data.gouv.fr:Minist\u00e8re de la Culture - 08/2011", "wheelchair": "no", "wikidata": "Q22924621"}}, {"type": "node", "id": 829929116, "lat": 48.8755561, "lon": 2.3274123}, {"type": "node", "id": 840951257, "lat": 48.8722755, "lon": 2.3119496, "tags": {"contact:city": "Paris", "contact:housenumber": "101", "contact:postcode": "75008", "contact:street": "Rue du Faubourg Saint-Honor\u00e9", "name": "Dalloyau", "shop": "bakery", "source": "cadastre-dgi-fr source : Direction G\u00e9n\u00e9rale des Imp\u00f4ts - Cadastre. Mise \u00e0 jour : 2010", "wheelchair": "yes"}}, {"type": "node", "id": 843477436, "lat": 48.870411, "lon": 2.3068932, "tags": {"addr:housenumber": "50", "addr:street": "Avenue des Champs-\u00c9lys\u00e9es", "air_conditioning": "yes", "branch": "Champs Elys\u00e9es", "brand": "Boulangerie Louise", "brand:wikidata": "Q127591514", "contact:website": "https://www.boulangerielouise.com", "currency:EUR": "yes", "name": "Boulangerie Louise", "not:name": "Pomme de Pains", "opening_hours": "Mo-Su 05:00-02:00", "operator": "Teract", "payment:apple_pay": "yes", "payment:cash": "yes", "payment:coins": "yes", "payment:contactless": "yes", "payment:google_pay": "yes", "payment:mastercard": "yes", "payment:visa": "yes", "shop": "bakery", "stroller": "yes", "toilets": "yes", "toilets:wheelchair": "no", "wheelchair": "yes"}}, {"type": "node", "id": 913973135, "lat": 48.8538348, "lon": 2.3239294, "tags": {"addr:housenumber": "89", "addr:street": "Rue du Bac", "name": "Des G\u00e2teaux et du Pain", "shop": "bakery", "source": "cadastre-dgi-fr source : Direction G\u00e9n\u00e9rale des Imp\u00f4ts - Cadastre. Mise \u00e0 jour : 2010", "wheelchair": "no"}}, {"type": "node", "id": 968924202, "lat": 48.8412244, "lon": 2.3146196, "tags": {"contact:housenumber": "63", "contact:postcode": "75015", "contact:street": "Boulevard Pasteur", "name": "Des G\u00e2teaux et du Pain", "opening_hours": "Mo,We-Sa 09:00-19:30; Su 09:00-18:00", "ref:FR:SIRET": "52360813100018", "shop": "bakery", "wheelchair": "limited"}}, {"type": "node", "id": 968924211, "lat": 48.8417098, "lon": 2.3144789, "tags": {"brand": "Banette", "brand:wikidata": "Q2882405", "brand:wikipedia": "fr:Banette (entreprise)", "check_date": "2025-08-24", "name": "Banette", "opening_hours": "Mo-Sa 07:00-20:00; Su off", "operator": "M. et Mme Brillault", "shop": "bakery", "wheelchair": "yes"}}, {"type": "node", "id": 1113738985, "lat": 48.8427628, "lon": 2.3131898, "tags": {"check_date:opening_hours": "2024-12-14", "indoor_seating": "no", "name": "Les D\u00e9lices de Pasteur", "opening_hours": "Mo-Fr 06:30-20:00; Su 07:00-19:00", "outdoor_seating": "yes", "ref:FR:SIRET": "83808951400015", "shop": "bakery"}}, {"type": "node", "id": 1142802925, "lat": 48.8416023, "lon": 2.3385722, "tags": {"name": "Boulangerie du Val de Gr\u00e2ce", "opening_hours": "Mo-Sa 06:30-21:00", "shop": "bakery", "source": "cadastre-dgi-fr source : Direction G\u00e9n\u00e9rale des Imp\u00f4ts - Cadastre. Mise \u00e0 jour : 2011"}}, {"type": "node", "id": 1163707433, "lat": 48.8472109, "lon": 2.2956749, "tags": {"name": "Le Pain au Naturel", "opening_hours": "Th-Tu 07:00-20:00", "ref:FR:SIRET": "79926533500023", "shop": "bakery", "source": "survey"}}, {"type": "node", "id": 1191424012, "lat": 48.8585031, "lon": 2.3006826, "tags": {"addr:housenumber": "37", "name": "Maison Bergeron", "shop": "bakery", "source": "cadastre-dgi-fr source : Direction G\u00e9n\u00e9rale des Imp\u00f4ts - Cadastre. Mise \u00e0 jour : 2011"}}, {"type": "node", "id": 1202447063, "lat": 48.8619412, "lon": 2.3325363}, {"type": "node", "id": 1202455173, "lat": 48.8619417, "lon": 2.3324743}, {"type": "node", "id": 1202459182, "lat": 48.8619615, "lon": 2.3324747}, {"type": "node", "id": 1223805508, "lat": 48.8529023, "lon": 2.2984421, "tags": {"contact:city": "Paris", "contact:housenumber": "55", "contact:postcode": "75007", "contact:street": "Avenue de Suffren", "name": "Suffren 55", "shop": "bakery", "source": "MapBox Satellite", "wheelchair": "no"}}, {"type": "node", "id": 1248594612, "lat": 48.8420538, "lon": 2.3352669, "tags": {"email": "assas@maison-kayser.com", "name": "Boulangerie Eric Kayser", "opening_hours": "Mo-Sa 07:00-20:00; PH 07:00-14:00 \"may vary\"", "shop": "bakery", "website": "https://www.maison-kayser.com/fr/boulangeries/100001003-assas.html"}}, {"type": "node", "id": 1251064471, "lat": 48.8479388, "lon": 2.3110016, "tags": {"name": "Esprit Gourmand", "shop": "bakery", "source": "survey"}}, {"type": "node", "id": 1264875568, "lat": 48.8515655, "lon": 2.3106825, "tags": {"name": "Maison Lallement", "shop": "bakery", "source": "survey"}}, {"type": "node", "id": 1285289628, "lat": 48.8433099, "lon": 2.2998521, "tags": {"ice_cream": "yes", "name": "Zerzour", "shop": "bakery"}}, {"type": "node", "id": 1285289634, "lat": 48.8422335, "lon": 2.3028126, "tags": {"contact:city": "Paris", "contact:housenumber": "88", "contact:postcode": "75015", "contact:street": "Rue Cambronne", "name": "Fr\u00e9d\u00e9ric Comyn", "opening_hours": "We-Su 07:00-13:30,16:00-20:00", "shop": "bakery"}}, {"type": "node", "id": 1285289636, "lat": 48.8428188, "lon": 2.3029654, "tags": {"name": "Maison Landemaine", "opening_hours": "07:00-20:30; Su 07:00-20:00", "ref:FR:SIRET": "90066783300017", "shop": "bakery", "wheelchair": "limited"}}, {"type": "node", "id": 1293541716, "lat": 48.8765786, "lon": 2.3385925, "tags": {"alt_name": "Le Pain au naturel", "check_date": "2025-11-05", "indoor_seating": "yes", "name": "Moisan", "outdoor_seating": "yes", "ref:FR:SIRET": "79926578000020", "shop": "bakery", "source": "survey"}}, {"type": "node", "id": 1343235873, "lat": 48.8567231, "lon": 2.3036505, "tags": {"addr:housenumber": "187", "addr:postcode": "75007", "addr:street": "Rue de Grenelle", "name": "Les Gourmandises d'Eiffel", "shop": "bakery"}}, {"type": "node", "id": 1352878659, "lat": 48.844819, "lon": 2.2941119, "tags": {"brand": "Eric Kayser", "brand:wikidata": "Q99231745", "contact:city": "Paris", "contact:housenumber": "79", "contact:phone": "+33 1 44 19 88 54", "contact:postcode": "75015", "contact:street": "Rue du Commerce", "contact:website": "https://www.maison-kayser.com/fr/", "name": "Eric Kayser", "opening_hours": "Mo-Sa 06:45-20:30", "pastry": "yes", "shop": "bakery", "source": "survey 2018"}}, {"type": "node", "id": 1373984770, "lat": 48.8703852, "lon": 2.3424816, "tags": {"indoor_seating": "no", "name": "Levain d'Or", "outdoor_seating": "no", "shop": "bakery", "takeaway": "only", "wheelchair": "limited"}}, {"type": "node", "id": 1477602782, "lat": 48.8661247, "lon": 2.3355594, "tags": {"check_date": "2025-07-28", "contact:city": "Paris", "contact:housenumber": "16", "contact:instagram": "akiboulangercafe", "contact:postcode": "75001", "contact:street": "Rue Sainte-Anne", "contact:website": "https://akiparis.fr/collections/aki-boulangerie-commande-de-gateaux", "cuisine": "japanese", "name": "Aki Boulangerie", "opening_hours": "Mo-Sa 07:30-20:30", "payment:cash": "yes", "payment:contactless": "yes", "payment:credit_cards": "yes", "payment:debit_cards": "yes", "payment:mastercard": "yes", "payment:notes": "yes", "payment:visa": "yes", "ref:FR:SIRET": "52051601400013", "shop": "bakery"}}, {"type": "node", "id": 1483017734, "lat": 48.8767239, "lon": 2.3326961, "tags": {"name": "Les Gourmandises", "ref:FR:SIRET": "44356204600047", "shop": "bakery", "wheelchair": "no"}}, {"type": "node", "id": 1483017736, "lat": 48.8767816, "lon": 2.3351954, "tags": {"name": "Pain Lazare", "opening_hours": "Mo-Th 08:00-18:00; Fr 08:00-16:00", "ref:FR:SIRET": "85215112500014", "shop": "bakery", "source": "survey", "wheelchair": "no"}}, {"type": "node", "id": 1514084716, "lat": 48.8515852, "lon": 2.2976307, "tags": {"addr:housenumber": "17", "addr:postcode": "75015", "addr:street": "Rue Dupleix", "contact:instagram": "maisondupain.paris", "name": "Maison du Pain", "opening_hours": "Mo-Sa 07:00-20:00; Su 07:00-15:00", "phone": "+33 1 47 34 94 71", "shop": "bakery", "source:shop": "survey", "wheelchair": "yes"}}, {"type": "node", "id": 1670553016, "lat": 48.8551739, "lon": 2.3065041, "tags": {"name": "Le Notre", "shop": "bakery", "source": "survey"}}, {"type": "node", "id": 1679367439, "lat": 48.8652385, "lon": 2.3467947, "tags": {"addr:city": "Paris", "addr:floor": "0", "addr:housenumber": "51", "addr:postcode": "75002", "addr:street": "Rue Montorgueil", "check_date": "2025-09-23", "contact:website": "https://stohrer.fr/", "indoor_seating": "yes", "level": "0", "name": "Stohrer", "opening_hours": "Mo-Fr 08:00-20:30; Su 08:00-20:00; PH closed", "outdoor_seating": "no", "payment:cash": "yes", "payment:credit_cards": "yes", "payment:debit_cards": "yes", "payment:visa": "yes", "shop": "bakery", "smoking": "no", "source": "www.stohrer.fr + survey 01/2019", "wheelchair": "yes", "wikidata": "Q22921224"}}, {"type": "node", "id": 1686624457, "lat": 48.861961, "lon": 2.3325367}, {"type": "node", "id": 1712034539, "lat": 48.8593334, "lon": 2.3472863, "tags": {"addr:city": "Paris", "addr:street": "Rue des Halles", "indoor_seating": "yes", "name": "Boulangerie Dheilly", "opening_hours": "Mo-Th 07:00-20:00; Fr 07:00-19:30; Sa 09:00-19:00", "outdoor_seating": "no", "ref:FR:SIRET": "38962459400021", "shop": "bakery", "smoking": "no", "wheelchair": "yes"}}, {"type": "node", "id": 1795309755, "lat": 48.8416791, "lon": 2.3225479, "tags": {"brand": "Eric Kayser", "brand:wikidata": "Q99231745", "indoor_seating": "no", "name": "Eric Kayser", "opening_hours": "Mo-Sa 06:45-20:00", "outdoor_seating": "no", "pastry": "yes", "shop": "bakery", "source": "survey 2018", "takeaway": "only", "website": "https://www.maison-kayser.com/"}}, {"type": "node", "id": 1801536450, "lat": 48.8425995, "lon": 2.3220085, "tags": {"brand": "Brioche Dor\u00e9e", "brand:website": "https://www.briochedoree.fr", "brand:wikidata": "Q2925606", "brand:wikipedia": "fr:Brioche Dor\u00e9e", "cuisine": "sandwich", "level": "0", "name": "Brioche Dor\u00e9e", "shop": "bakery", "website": "https://www.briochedoree.fr/"}}, {"type": "node", "id": 1821967149, "lat": 48.8717348, "lon": 2.3426744, "tags": {"brand": "Brioche Dor\u00e9e", "brand:website": "https://www.briochedoree.fr", "brand:wikidata": "Q2925606", "brand:wikipedia": "fr:Brioche Dor\u00e9e", "contact:phone": "+33 1 53 24 63 21", "name": "Brioche Dor\u00e9e", "opening_hours": "Mo-Sa 07:30-20:00", "operator": "Groupe Le Duff", "ref:FR:SIRET": "31890659102609", "shop": "bakery", "source": "survey", "website": "https://www.briochedoree.fr/restaurants/1215-paris-montmartre"}}, {"type": "node", "id": 1824509089, "lat": 48.874364, "lon": 2.3328049, "tags": {"brand": "Brioche Dor\u00e9e", "brand:website": "https://www.briochedoree.fr", "brand:wikidata": "Q2925606", "brand:wikipedia": "fr:Brioche dor\u00e9e", "contact:phone": "+33 1 45 96 35 15", "cuisine": "sandwich", "indoor_seating": "yes", "internet_access": "wlan", "name": "Brioche Dor\u00e9e", "opening_hours": "Mo-Sa 07:30-20:00; Su 10:00-19:00", "operator": "Groupe Le Duff", "outdoor_seating": "no", "shop": "bakery", "source": "survey", "website": "https://www.briochedoree.fr/restaurants/214-paris-56-rue-de-la-chaussee-dantin", "wheelchair": "limited"}}, {"type": "node", "id": 1986745608, "lat": 48.8729983, "lon": 2.2986264, "tags": {"brand": "Brioche Dor\u00e9e", "brand:website": "https://www.briochedoree.fr", "brand:wikidata": "Q2925606", "brand:wikipedia": "fr:Brioche Dor\u00e9e", "checked": "2015-12-03", "contact:phone": "+33 1 45 61 31 58", "contact:website": "https://www.briochedoree.fr/restaurants/39-paris-8eme-144-avenue-des-champs-elysees", "name": "Brioche Dor\u00e9e", "opening_hours": "Mo-Th 07:30-22:30; Fr-Sa 07:30-23:30", "operator": "Groupe Le Duff", "ref:FR:SIRET": "31890659102096", "shop": "bakery", "wheelchair": "no"}}, {"type": "node", "id": 2039927302, "lat": 48.8712679, "lon": 2.3041093, "tags": {"brand": "Brioche Dor\u00e9e", "brand:website": "https://www.briochedoree.fr", "brand:wikidata": "Q2925606", "brand:wikipedia": "fr:Brioche Dor\u00e9e", "contact:phone": "+33 1 43 59 06 70", "indoor_seating": "no", "name": "Brioche Dor\u00e9e", "opening_hours": "Mo-Su 07:00-21:00", "operator": "Groupe Le Duff", "outdoor_seating": "yes", "ref:FR:SIRET": "31890659100520", "shop": "bakery", "website": "https://www.briochedoree.fr/restaurants/41-paris-8eme-78-avenue-des-champs-elysees", "wheelchair": "limited"}}, {"type": "node", "id": 2108011841, "lat": 48.8419136, "lon": 2.3247626, "tags": {"check_date": "2025-08-03", "name": "La Parisienne", "opening_hours": "Tu-Su 07:00-20:00", "shop": "bakery", "website": "http://www.boulangerielaparisienne.com"}}, {"type": "node", "id": 2125571214, "lat": 48.8716938, "lon": 2.3429662, "tags": {"diet:vegan": "only", "name": "Land&Monkeys", "opening_hours": "Mo-Su 07:30-20:00", "shop": "bakery", "source": "survey", "website": "https://www.land-and-monkeys.com"}}, {"type": "node", "id": 2164023038, "lat": 48.8706548, "lon": 2.3429479, "tags": {"addr:housenumber": "168", "addr:street": "Rue Montmartre", "brand:wikipedia": "en:Paul (bakery)", "check_date": "2025-03-02", "indoor_seating": "no", "name": "Urban Bakery", "opening_hours": "Mo-Sa 07:00-19:30; Su 08:00-18:00", "outdoor_seating": "no", "shop": "bakery", "source": "survey", "takeaway": "only", "wheelchair": "limited"}}, {"type": "node", "id": 2164930201, "lat": 48.8657789, "lon": 2.346922, "tags": {"addr:housenumber": "63", "addr:street": "Rue Montorgueil", "brand": "Paul", "brand:wikidata": "Q3370417", "brand:wikipedia": "en:Paul (bakery)", "check_date": "2025-05-06", "contact:phone": "+33 1 40 13 01 61", "indoor_seating": "no", "level": "0", "name": "Paul", "opening_hours": "Mo-Sa 07:30-20:00", "outdoor_seating": "yes", "shop": "bakery", "smoking": "no", "source": "survey 01/2019", "wheelchair": "yes"}}, {"type": "node", "id": 2302373742, "lat": 48.8501871, "lon": 2.33005, "tags": {"addr:city": "Paris", "addr:housenumber": "81", "addr:postcode": "75006", "addr:street": "Rue de Rennes", "check_date": "2023-09-27", "name": "Au Pain Retrouv\u00e9", "opening_hours": "Tu-Sa 06:00-20:30", "shop": "bakery"}}, {"type": "node", "id": 2373096193, "lat": 48.8457971, "lon": 2.3426275, "tags": {"addr:housenumber": "200", "addr:street": "Rue Saint-Jacques", "check_date": "2025-01-29", "indoor_seating": "yes", "name": "Lu Lu", "outdoor_seating": "no", "shop": "bakery"}}, {"type": "node", "id": 2409683713, "lat": 48.8764887, "lon": 2.3444554, "tags": {"check_date": "2024-09-23", "name": "Miche de Pain", "opening_hours": "Mo-Sa 07:00-20:00", "shop": "bakery", "source": "survey"}}, {"type": "node", "id": 2419010328, "lat": 48.8708653, "lon": 2.3088351, "tags": {"name": "Colis\u00e9e Gourmet", "shop": "bakery"}}, {"type": "node", "id": 2419011359, "lat": 48.8703111, "lon": 2.3109794, "tags": {"shop": "bakery"}}, {"type": "node", "id": 2438933173, "lat": 48.8438225, "lon": 2.3306529, "tags": {"name": "Jo\u00ebl La Boulangerie", "opening_hours": "Mo-Sa 07:00-20:00", "shop": "bakery"}}, {"type": "node", "id": 2445450652, "lat": 48.8441773, "lon": 2.3422943, "tags": {"contact:city": "Paris", "contact:housenumber": "29", "contact:postcode": "75005", "contact:street": "Rue Gay-Lussac", "indoor_seating": "no", "name": "Maison Dor\u00e9", "old_name": "Maison Delcoure", "opening_hours": "Mo-Fr 07:00-20:15, Sa 08:00-13:00", "outdoor_seating": "no", "shop": "bakery", "source": "survey", "takeaway": "only", "wheelchair": "limited"}}, {"type": "node", "id": 2478201179, "lat": 48.8658877, "lon": 2.3444778, "tags": {"addr:floor": ";0", "addr:housenumber": "53", "addr:street": "Rue Montmartre", "check_date": "2025-08-04", "indoor_seating": "no", "level": "0;0", "name": "Bon & B\u00f4", "opening_hours": "Mo-Fr 07:00-20:00", "outdoor_seating": "no", "shop": "bakery", "source": "survey 11/2017", "takeaway": "only", "wheelchair": "yes"}}, {"type": "node", "id": 2496113297, "lat": 48.8518339, "lon": 2.3368748, "tags": {"chocolatier": "yes", "craft": "confectionery", "name": "Mulot", "opening_hours": "Tu-Sa 08:00-20:00; Su 08:00-15:00; Mo off", "operator": "G\u00e9rard Mulot", "pastry": "yes", "phone": "+33 1 43 26 85 77", "shop": "bakery", "website": "http://maison-mulot.com"}}, {"type": "node", "id": 2497946416, "lat": 48.8755958, "lon": 2.3283907, "tags": {"brand": "Brioche Dor\u00e9e", "brand:website": "https://www.briochedoree.fr", "brand:wikidata": "Q2925606", "brand:wikipedia": "fr:Brioche dor\u00e9e", "contact:city": "Paris", "contact:housenumber": "75", "contact:phone": "+33 1 44 53 10 11", "contact:postcode": "75009", "contact:street": "Rue de Caumartin", "contact:website": "https://www.briochedoree.fr/restaurants/42-paris-9eme-75-avenue-de-caumartin", "name": "Brioche Dor\u00e9e", "opening_hours": "Mo-Sa 07:30-20:00", "operator": "Groupe Le Duff", "ref:FR:SIRET": "31890659101767", "shop": "bakery", "wheelchair": "yes"}}, {"type": "node", "id": 2527800576, "lat": 48.8462303, "lon": 2.3082719, "tags": {"check_date": "2025-10-05", "contact:city": "Paris", "contact:housenumber": "166", "contact:postcode": "75015", "contact:street": "Avenue de Suffren", "name": "Le Pain Au Naturel", "shop": "bakery"}}, {"type": "node", "id": 2534780376, "lat": 48.8531394, "lon": 2.344728, "tags": {"check_date": "2025-04-30", "indoor_seating": "yes", "name": "Paris Baguette", "opening_hours": "Mo-Fr 07:00-22:00; Sa 08:00-22:00; Su 08:00-20:00", "outdoor_seating": "yes", "payment:credit_cards": "yes", "payment:debit_cards": "yes", "shop": "bakery", "smoking": "outside", "website": "https://www.parisbaguette.fr/nos-boutiques", "wheelchair": "yes"}}, {"type": "node", "id": 2553153352, "lat": 48.8522173, "lon": 2.3433129, "tags": {"brand": "Paul", "brand:wikidata": "Q3370417", "brand:wikipedia": "en:Paul (bakery)", "check_date": "2025-09-03", "contact:city": "Paris", "contact:housenumber": "14", "contact:phone": "+33 9 67 33 31 18", "contact:postcode": "75006", "contact:street": "Boulevard Saint-Michel", "contact:website": "http://paul.fr/", "indoor_seating": "yes", "name": "Paul", "opening_hours": "Mo-Sa 08:00-18:00", "outdoor_seating": "yes", "panoramax": "1b0c04c6-4633-4a1b-9b6d-4c86c9e3129e", "shop": "bakery", "smoking": "outside", "wheelchair": "limited"}}, {"type": "node", "id": 2610957127, "lat": 48.8475371, "lon": 2.3020856, "tags": {"addr:city": "Paris", "addr:housenumber": "7", "addr:postcode": "75015", "addr:street": "Place Cambronne", "air_conditioning": "no", "brand:wikidata": "Q89430707", "indoor_seating": "yes", "name": "Maison Landemaine", "opening_hours": "Mo,We-Sa 07:00-20:30; Su 07:00-20:00", "outdoor_seating": "yes", "shop": "bakery", "source": "survey 2018", "toilets": "no"}}, {"type": "node", "id": 2630375066, "lat": 48.8483008, "lon": 2.3315285, "tags": {"name": "La Parisienne", "opening_hours": "Th-Tu 07:00-20:00", "shop": "bakery", "wheelchair": "no"}}, {"type": "node", "id": 2692650181, "lat": 48.8729482, "lon": 2.3451927, "tags": {"contact:city": "Paris", "contact:housenumber": "6", "contact:postcode": "75009", "contact:street": "Rue de Tr\u00e9vise", "name": "Hubert", "note": "Boulangerie-P\u00e2tisserie- Restauration", "opening_hours": "Mo-Fr 07:00-20:00", "operator": "Hubert", "pastry": "yes", "shop": "bakery"}}, {"type": "node", "id": 2745637351, "lat": 48.856555, "lon": 2.3066461, "tags": {"name": "Maison Julien", "shop": "bakery"}}, {"type": "node", "id": 2750250782, "lat": 48.8662189, "lon": 2.3411008, "tags": {"addr:housenumber": "10", "addr:postcode": "75002", "addr:street": "Place des Petits P\u00e8res", "check_date": "2024-05-28", "indoor_seating": "yes", "name": "Le Moulin de la Vierge", "name:fr": "Le Moulin de la Vierge", "opening_hours": "Mo-su 7:00-20:30", "outdoor_seating": "yes", "shop": "bakery", "smoking": "outside", "was:amenity": "cafe", "wheelchair": "limited"}}, {"type": "node", "id": 2763435495, "lat": 48.8676406, "lon": 2.336896, "tags": {"check_date": "2025-07-10", "contact:city": "Paris", "contact:email": "romain.gaia@patisserietomo.fr", "contact:facebook": "patisserietomo", "contact:housenumber": "11", "contact:phone": "+33 9 67 77 96 72", "contact:postcode": "75002", "contact:street": "Rue Chabanais", "contact:website": "http://www.patisserietomo.fr/", "description": "Dorayaki Franco-Japonnais", "level": "0", "name": "P\u00e2tisserie Tomo", "name:ja": "\u670b", "opening_hours": "Mo-Su 12:00-19:00", "outdoor_seating": "yes", "payment:cash": "yes", "payment:credit_cards": "yes", "shop": "bakery", "toilets": "yes", "toilets:access": "customers", "toilets:disposal": "flush", "toilets:position": "seated", "website": "https://patisserietomo.fr/", "wheelchair": "no"}}, {"type": "node", "id": 2782897032, "lat": 48.8557735, "lon": 2.3333935, "tags": {"name": "Jos\u00e9phine Bakery", "opening_hours": "Mo-Fr 07:30-19:00", "shop": "bakery"}}, {"type": "node", "id": 2782919295, "lat": 48.8537947, "lon": 2.3371165, "tags": {"brand": "Paul", "brand:wikidata": "Q3370417", "brand:wikipedia": "en:Paul (bakery)", "name": "Paul", "opening_hours": "07:00-19:00", "shop": "bakery", "wheelchair": "limited"}}, {"type": "node", "id": 2802075828, "lat": 48.8665493, "lon": 2.2967911, "tags": {"contact:city": "Paris", "contact:housenumber": "2", "contact:postcode": "75116", "contact:street": "Rue de Chaillot", "contact:website": "https://www.gourmand-croquant.com/", "name": "La p\u00e2tisserie Cyril Lignac", "opening_hours": "Mo 07:00-19:00; Tu-Su 07:00-20:00", "shop": "bakery"}}, {"type": "node", "id": 2828401477, "lat": 48.873207, "lon": 2.3032419, "tags": {"name": "Mottier", "shop": "bakery"}}, {"type": "node", "id": 2855031901, "lat": 48.848702, "lon": 2.3404334, "tags": {"check_date": "2025-11-30", "name": "L'\u00c9pi du Prince", "opening_hours": "Mo-Fr 07:30-19:30; Sa 08:30-19:30", "shop": "bakery"}}, {"type": "node", "id": 2886984600, "lat": 48.8746535, "lon": 2.3059471, "tags": {"contact:city": "Paris", "contact:housenumber": "165", "contact:postcode": "75008", "contact:street": "Rue du Faubourg Saint-Honor\u00e9", "indoor_seating": "yes", "name": "Le Pain du Faubourg", "outdoor_seating": "no", "shop": "bakery", "wheelchair": "limited"}}, {"type": "node", "id": 2886984801, "lat": 48.8743208, "lon": 2.3074302, "tags": {"contact:city": "Paris", "contact:housenumber": "180", "contact:postcode": "75008", "contact:street": "Rue du Faubourg Saint-Honor\u00e9", "name": "Merci J\u00e9r\u00f4me !", "shop": "bakery"}}, {"type": "node", "id": 2895929701, "lat": 48.8587325, "lon": 2.3232162, "tags": {"check_date": "2022-10-01", "name": "Gosselin", "opening_hours": "Mo-Fr 07:00-20:00; Sa 07:30-19:00", "ref:FR:SIRET": "48132789800013", "shop": "bakery"}}, {"type": "node", "id": 2899885798, "lat": 48.8736497, "lon": 2.3266758, "tags": {"brand": "Paul", "brand:wikidata": "Q3370417", "brand:wikipedia": "en:Paul (bakery)", "check_date": "2025-11-13", "heritage": "3", "heritage:operator": "mhs", "mhs:inscription_date": "1984-05-23", "name": "Paul", "old_name": "Aux Tortues", "opening_hours": "Mo-Sa 08:00-20:30", "ref:mhs": "PA00088869", "shop": "bakery", "source:heritage": "data.gouv.fr:Minist\u00e8re de la culture - 08/2017", "wikidata": "Q22924722"}}, {"type": "node", "id": 2935106306, "lat": 48.8500778, "lon": 2.3009676, "tags": {"name": "La Croquandise", "opening_hours": "Mo-Fr 07:00-20:00", "shop": "bakery"}}, {"type": "node", "id": 3029549785, "lat": 48.8583161, "lon": 2.3282685, "tags": {"brand": "Eric Kayser", "brand:wikidata": "Q99231745", "contact:city": "Paris", "contact:housenumber": "18", "contact:postcode": "75007", "contact:street": "Rue du Bac", "name": "Eric Kayser", "opening_hours": "Tu-Su 07:00-20:00", "pastry": "yes", "phone": "+33 1 42 61 27 63", "shop": "bakery"}}, {"type": "node", "id": 3084715701, "lat": 48.8440022, "lon": 2.2934092, "tags": {"contact:city": "Paris", "contact:housenumber": "93", "contact:postcode": "75015", "contact:street": "Rue du Commerce", "name": "Borissou", "opening_hours": "Tu-Sa 07:30-20:00; Su 07:30-19:00", "shop": "bakery"}}, {"type": "node", "id": 3152510293, "lat": 48.8746232, "lon": 2.3266224, "tags": {"brand": "Paul", "brand:wikidata": "Q3370417", "brand:wikipedia": "en:Paul (bakery)", "check_date": "2025-03-04", "name": "Paul", "opening_hours": "Mo 08:00-20:00; Tu 07:30-20:00; We 07:30-20:00; Th 08:00-20:30; Fr 07:30-20:30; Sa 08:30-20:30", "shop": "bakery", "wheelchair": "yes"}}, {"type": "node", "id": 3155074868, "lat": 48.8466864, "lon": 2.3087587, "tags": {"name": "Les Chants de Bl\u00e9", "opening_hours": "Mo-Fr 07:00-21:00; Su 08:00-21:00", "shop": "bakery"}}, {"type": "node", "id": 3174430920, "lat": 48.8413247, "lon": 2.3076662, "tags": {"check_date": "2024-03-29", "name": "Antoine", "opening_hours": "Mo-Fr 07:00-20:00", "shop": "bakery"}}, {"type": "node", "id": 3176709176, "lat": 48.8477911, "lon": 2.3189782, "tags": {"check_date": "2025-10-10", "contact:city": "Paris", "contact:housenumber": "70", "contact:postcode": "75007", "contact:street": "Rue de S\u00e8vres", "name": "Le Fournil de Guillaume", "ref:FR:SIRET": "53992525500017", "shop": "bakery"}}, {"type": "node", "id": 3177451579, "lat": 48.8481452, "lon": 2.3197595, "tags": {"check_date": "2025-10-10", "contact:city": "Paris", "contact:housenumber": "60", "contact:postcode": "75007", "contact:street": "Rue de S\u00e8vres", "level": "0", "name": "The French Bastards", "opening_hours": "Mo-Fr 07:30-20:00; Sa 08:30-20:00; Su 08:30-18:00", "ref:FR:SIRET": "84090821400058", "shop": "bakery", "website": "https://www.thefrenchbastards.fr", "wheelchair": "no"}}, {"type": "node", "id": 3182976748, "lat": 48.8685232, "lon": 2.3413917, "tags": {"brand": "Eric Kayser", "brand:wikidata": "Q99231745", "check_date": "2025-06-11", "contact:housenumber": "5", "contact:street": "Place de la Bourse", "indoor_seating": "yes", "name": "Eric Kayser", "opening_hours": "Mo-Fr 06:45-20:00; Sa 07:00-19:00", "operator": "Eric Kayser", "outdoor_seating": "yes", "pastry": "yes", "payment:apple_pay": "yes", "payment:cash": "yes", "payment:contactless": "yes", "payment:mastercard": "yes", "payment:visa": "yes", "phone": "+33 1 42 36 84 68", "shop": "bakery", "smoking": "outside", "toilets": "yes", "toilets:wheelchair": "yes", "website": "https://www.maison-kayser.com/fr/boulangeries/100001018-bourse.html"}}, {"type": "node", "id": 3199942337, "lat": 48.8429707, "lon": 2.306787, "tags": {"contact:city": "Paris", "contact:housenumber": "10", "contact:postcode": "75015", "contact:street": "Rue des Volontaires", "name": "AM Martinho", "opening_hours": "Mo-Fr 07:00-20:00", "pastry": "yes", "shop": "bakery", "source": "survey"}}, {"type": "node", "id": 3253932047, "lat": 48.8764362, "lon": 2.3249423}, {"type": "node", "id": 3253932049, "lat": 48.8764442, "lon": 2.3250097}, {"type": "node", "id": 3253932052, "lat": 48.8764718, "lon": 2.3249327}, {"type": "node", "id": 3253932054, "lat": 48.8764801, "lon": 2.3249994}, {"type": "node", "id": 3270877334, "lat": 48.8763148, "lon": 2.3254474}, {"type": "node", "id": 3312598061, "lat": 48.8741069, "lon": 2.3157729, "tags": {"addr:city": "Paris", "addr:housenumber": "43", "addr:postcode": "75008", "addr:street": "Rue de Miromesnil", "contact:phone": "+33 1 42 65 14 66", "name": "Boulangerie Serana", "opening_hours": "Mo-Th 06:15-20:30; Fr 06:15-19:30", "shop": "bakery", "wheelchair": "limited"}}, {"type": "node", "id": 3403997943, "lat": 48.876045, "lon": 2.325334}, {"type": "node", "id": 3403997962, "lat": 48.8762567, "lon": 2.3239932}, {"type": "node", "id": 3403997963, "lat": 48.876246, "lon": 2.3238952}, {"type": "node", "id": 3403997965, "lat": 48.8762713, "lon": 2.3239817}, {"type": "node", "id": 3403997968, "lat": 48.876328, "lon": 2.3239327, "tags": {"door": "yes", "level": "1"}}, {"type": "node", "id": 3403997969, "lat": 48.8763311, "lon": 2.3238499}, {"type": "node", "id": 3403997970, "lat": 48.876347, "lon": 2.323917}, {"type": "node", "id": 3404064043, "lat": 48.8765013, "lon": 2.3259533}, {"type": "node", "id": 3405089391, "lat": 48.876325, "lon": 2.3255294}, {"type": "node", "id": 3405089392, "lat": 48.8763735, "lon": 2.3254304}, {"type": "node", "id": 3405092993, "lat": 48.8763836, "lon": 2.3255124}, {"type": "node", "id": 3405125705, "lat": 48.8764388, "lon": 2.3259711}, {"type": "node", "id": 3405125706, "lat": 48.8764498, "lon": 2.3260605}, {"type": "node", "id": 3405286968, "lat": 48.8760702, "lon": 2.3255362}, {"type": "node", "id": 3405286969, "lat": 48.8761327, "lon": 2.3254146, "tags": {"door": "yes", "level": "1"}}, {"type": "node", "id": 3405286970, "lat": 48.8761451, "lon": 2.3255146}, {"type": "node", "id": 3405393717, "lat": 48.8762873, "lon": 2.3254039}, {"type": "node", "id": 3405393722, "lat": 48.8763082, "lon": 2.3253652}, {"type": "node", "id": 3405404904, "lat": 48.8762775, "lon": 2.3252677}, {"type": "node", "id": 3405404909, "lat": 48.8762955, "lon": 2.3252627}, {"type": "node", "id": 3405404911, "lat": 48.8763123, "lon": 2.3253972}, {"type": "node", "id": 3405488122, "lat": 48.8762946, "lon": 2.3266379}, {"type": "node", "id": 3405520836, "lat": 48.8760369, "lon": 2.324678}, {"type": "node", "id": 3405520837, "lat": 48.8760689, "lon": 2.3246689}, {"type": "node", "id": 3405520839, "lat": 48.8760817, "lon": 2.3247729}, {"type": "node", "id": 3408538488, "lat": 48.8764566, "lon": 2.3261163}, {"type": "node", "id": 3408538489, "lat": 48.8765191, "lon": 2.3260985}, {"type": "node", "id": 3408677907, "lat": 48.8761202, "lon": 2.3253132}, {"type": "node", "id": 3410804476, "lat": 48.8760496, "lon": 2.3247818}, {"type": "node", "id": 3410839806, "lat": 48.8762735, "lon": 2.3265304}, {"type": "node", "id": 3429929584, "lat": 48.8703842, "lon": 2.3328924, "tags": {"air_conditioning": "yes", "brand": "Brioche Dor\u00e9e", "brand:website": "https://www.briochedoree.fr", "brand:wikidata": "Q2925606", "brand:wikipedia": "fr:Brioche Dor\u00e9e", "check_date": "2025-05-21", "indoor_seating": "no", "name": "Brioche Dor\u00e9e", "opening_hours": "Mo-Fr 07:00-20:30; Sa 07:30-20:30; Su 07:30-20:00", "operator": "Groupe Le Duff", "outdoor_seating": "no", "phone": "+33 1 44 51 99 76", "ref:FR:SIRET": "31890659102344", "shop": "bakery", "takeaway": "only", "website": "https://www.briochedoree.fr/restaurants/44-paris-4-place-de-lopera", "wheelchair": "yes"}}, {"type": "node", "id": 3455146393, "lat": 48.8446652, "lon": 2.3099958, "tags": {"indoor_seating": "yes", "name": "Secco", "opening_hours": "Mo-Sa 07:30-20:00", "operator": "St\u00e9phane Secco", "outdoor_seating": "yes", "shop": "bakery"}}, {"type": "node", "id": 3457446093, "lat": 48.8454965, "lon": 2.3442013, "tags": {"name": "Boulangerie Moderne", "opening_hours": "Mo-Fr 07:00-20:00; Sa 08:00-15:00", "payment:credit_cards": "yes", "payment:debit_cards": "yes", "phone": "+33 1 43 54 12 22", "shop": "bakery", "wheelchair": "yes"}}, {"type": "node", "id": 3461586504, "lat": 48.8664865, "lon": 2.3472959, "tags": {"check_date": "2025-09-18", "indoor_seating": "no", "name": "Mimo the Baker", "outdoor_seating": "yes", "shop": "bakery", "wheelchair": "limited"}}, {"type": "node", "id": 3461586770, "lat": 48.8662237, "lon": 2.3472467, "tags": {"addr:housenumber": "100", "addr:street": "Rue Montorgueil", "check_date": "2025-08-05", "contact:city": "Paris", "contact:email": "maisoncollet@hotmail.fr", "contact:housenumber": "100", "contact:phone": "+33 1 45 08 00 06", "contact:postcode": "75002", "contact:street": "Rue Montorgueil", "contact:website": "http://maisoncollet.wixsite.com/maisoncollet", "indoor_seating": "no", "level": "0", "name": "Maison Collet", "opening_hours": "Mo-Fr 06:30-20:45", "outdoor_seating": "no", "payment:cash": "yes", "payment:credit_cards": "yes", "payment:debit_cards": "yes", "payment:visa": "yes", "shop": "bakery", "source": "survey 01/2019", "takeaway": "only", "wheelchair": "yes"}}, {"type": "node", "id": 3475247293, "lat": 48.8585053, "lon": 2.3460897, "tags": {"brand": "Paris Baguette", "check_date:opening_hours": "2024-07-10", "name": "Paris Baguette", "opening_hours": "Mo-Fr 07:00-20:00; Sa 08:00-19:00", "ref:FR:SIRET": "75191413600021", "shop": "bakery"}}, {"type": "node", "id": 3531674608, "lat": 48.8755682, "lon": 2.3275023}, {"type": "node", "id": 3531675800, "lat": 48.8754509, "lon": 2.3274449}, {"type": "node", "id": 3531675801, "lat": 48.8754622, "lon": 2.3275349}, {"type": "node", "id": 3611368949, "lat": 48.8599059, "lon": 2.3086287, "tags": {"heritage": "3", "heritage:operator": "mhs", "mhs:inscription_date": "1984", "name": "Boulangerie", "ref:mhs": "PA00088674", "shop": "bakery", "source:heritage": "data.gouv.fr:Minist\u00e8re de la Culture - 08/2011", "wikidata": "Q22924618"}}, {"type": "node", "id": 3670563995, "lat": 48.8640823, "lon": 2.3321744, "tags": {"addr:housenumber": "1", "addr:postcode": "75001", "addr:street": "Rue des Pyramides", "contact:facebook": "https://www.facebook.com/SebastienGaudardpatisseriedesmartyrs?locale=fr_FR", "contact:instagram": "https://www.instagram.com/sebastiengaudardpatissier/", "contact:tiktok": "https://www.tiktok.com/@sebastiengaudard75", "description": "P\u00e2tisserie - Salon de Th\u00e9", "email": "tuileries@sebastiengaudard.com", "name": "S\u00e9bastien Gaudard", "opening_hours": "Tu-Fr 10:00-19:00; Sa-Su 10:00-19:00", "operator": "S\u00e9bastien Gaudard", "phone": "+33 1 71 18 24 70", "ref:FR:SIRET": "80155821400020", "shop": "bakery", "website": "https://www.sebastiengaudard.com/", "wheelchair": "yes"}}, {"type": "node", "id": 3710690713, "lat": 48.8538315, "lon": 2.3378304, "tags": {"check_date": "2025-07-21", "name": "Thevenin", "opening_hours": "Mo-Su 07:00-20:00", "phone": "+33 1 43 26 04 13", "shop": "bakery"}}, {"type": "node", "id": 3726438925, "lat": 48.8506404, "lon": 2.2936731, "tags": {"addr:city": "Paris", "addr:housenumber": "69", "addr:postcode": "75015", "addr:street": "Boulevard de Grenelle", "name": "Boulangerie Dupleix", "payment:cards": "yes", "payment:cash": "yes", "payment:contactless": "yes", "shop": "bakery"}}, {"type": "node", "id": 3726438926, "lat": 48.8504684, "lon": 2.294283, "tags": {"contact:email": "alex.secco19@gmail.com", "contact:phone": "+33 6 35 09 00 29", "name": "Boulangerie Secco", "opening_hours": "Mo-Sa 07:00-20:00", "shop": "bakery", "source": "survey 2018"}}, {"type": "node", "id": 3797982377, "lat": 48.8762121, "lon": 2.3026571, "tags": {"contact:city": "Paris", "contact:housenumber": "236", "contact:postcode": "75008", "contact:street": "Rue du Faubourg Saint-Honor\u00e9", "name": "Midor\u00e9", "opening_hours": "Mo-Fr 07:00-20:00; Sa 08:00-19:00", "shop": "bakery", "wheelchair": "yes"}}, {"type": "node", "id": 3811331867, "lat": 48.8671899, "lon": 2.2974664, "tags": {"name": "Les d\u00e9lices de Chaillot", "shop": "bakery"}}, {"type": "node", "id": 3811355160, "lat": 48.8679501, "lon": 2.2980675, "tags": {"name": "Mi Do R\u00e9", "shop": "bakery"}}, {"type": "node", "id": 3811412260, "lat": 48.8731824, "lon": 2.3340919, "tags": {"branch": "La Fayette", "brand": "Ernest & Valentin", "name": "Ernest & Valentin", "ref:FR:SIRET": "88104863100017", "shop": "bakery", "website": "https://ernestetvalentin.com/boulangeries/", "wheelchair": "no"}}, {"type": "node", "id": 3904919518, "lat": 48.8457596, "lon": 2.3191243, "tags": {"shop": "bakery", "source": "survey"}}, {"type": "node", "id": 3965473645, "lat": 48.8409947, "lon": 2.319999}, {"type": "node", "id": 3980676686, "lat": 48.8615341, "lon": 2.3416742, "tags": {"contact:city": "Paris", "contact:housenumber": "123 - 125", "contact:phone": "+33 9 81 01 02 19", "contact:postcode": "75001", "contact:street": "Rue Saint-Honor\u00e9", "indoor_seating": "no", "name": "Les Gourmandises de Saint-Honor\u00e9", "opening_hours": "Mo-Su 07:00-20:00", "outdoor_seating": "no", "ref:FR:SIRET": "40871212300038", "shop": "bakery", "takeaway": "only", "wheelchair": "limited"}}, {"type": "node", "id": 3980699442, "lat": 48.868472, "lon": 2.3236905, "tags": {"name": "Ladur\u00e9e", "name:fr": "Ladur\u00e9e", "name:tr": "Makaron laduree", "opening_hours": "Mo-Sa 08:00-20:00; Su 09:00-19:00", "shop": "bakery", "wheelchair": "yes"}}, {"type": "node", "id": 3980826513, "lat": 48.8622828, "lon": 2.3394325, "tags": {"check_date": "2025-02-22", "contact:city": "Paris", "contact:housenumber": "168", "contact:postcode": "75001", "contact:street": "Rue Saint-Honor\u00e9", "name": "Aux Castelblangeois", "ref:FR:SIRET": "40186762700010", "shop": "bakery"}}, {"type": "node", "id": 3980826540, "lat": 48.865069, "lon": 2.3318365, "tags": {"contact:city": "Paris", "contact:housenumber": "302", "contact:phone": "+33 1 42 60 58 61", "contact:postcode": "75001", "contact:street": "Rue Saint-Honor\u00e9", "name": "Yannick Martin", "ref:FR:SIRET": "40259751200027", "shop": "bakery", "wheelchair": "yes"}}, {"type": "node", "id": 3980828290, "lat": 48.8679291, "lon": 2.3249888, "tags": {"contact:city": "Paris", "contact:housenumber": "400", "contact:postcode": "75001", "contact:street": "Rue Saint-Honor\u00e9", "name": "Aux d\u00e9lices de Manon", "ref:FR:SIRET": "39098420100041", "shop": "bakery", "was:amenity": "cafe", "was:contact:fax": "+33 1 49 27 02 51", "was:contact:phone": "+33 1 43 26 08 303", "was:contact:website": "https://auxdelicesdemanon.business.site/", "was:name:fr": "Aux d\u00e9lices de Manon", "was:opening_hours": "Mo-Sa 06:00-22:00; Su 06:00-20:00"}}, {"type": "node", "id": 4025400491, "lat": 48.8412083, "lon": 2.3201211}, {"type": "node", "id": 4025428535, "lat": 48.8412898, "lon": 2.3202211}, {"type": "node", "id": 4025588396, "lat": 48.8412519, "lon": 2.3202931}, {"type": "node", "id": 4039973250, "lat": 48.8761816, "lon": 2.3265569}, {"type": "node", "id": 4039973257, "lat": 48.8762706, "lon": 2.3252697}, {"type": "node", "id": 4039973258, "lat": 48.876281, "lon": 2.326584}, {"type": "node", "id": 4039973259, "lat": 48.8762878, "lon": 2.3265822}, {"type": "node", "id": 4040161915, "lat": 48.8458164, "lon": 2.341108, "tags": {"indoor_seating": "no", "name": "Piccadis", "opening_hours": "Mo-Fr 07:15-20:00, Sa 08:00-19:45", "outdoor_seating": "no", "shop": "bakery", "takeaway": "only", "wheelchair": "limited"}}, {"type": "node", "id": 4070085126, "lat": 48.8539921, "lon": 2.3236131, "tags": {"name": "Seco", "shop": "bakery", "wheelchair": "no"}}, {"type": "node", "id": 4125591192, "lat": 48.8488642, "lon": 2.3249934, "tags": {"name": "Maison du Pain", "opening_hours": "Mo-Fr 06:00-20:30, Sa 07:00-20:00, Su 07:30-20:00", "ref:FR:SIREN": "849396114", "ref:FR:SIRET": "84939611400019", "ref:vatin": "FR03849396114", "shop": "bakery"}}, {"type": "node", "id": 4198820784, "lat": 48.8723008, "lon": 2.325378, "tags": {"name": "La Castellane", "shop": "bakery"}}, {"type": "node", "id": 4217750737, "lat": 48.8626955, "lon": 2.3140236}, {"type": "node", "id": 4217750738, "lat": 48.862696, "lon": 2.3140577}, {"type": "node", "id": 4217750754, "lat": 48.8627408, "lon": 2.3139933}, {"type": "node", "id": 4217750755, "lat": 48.8627418, "lon": 2.3140561}, {"type": "node", "id": 4231973489, "lat": 48.8603179, "lon": 2.3073574, "tags": {"addr:city": "Paris", "addr:housenumber": "20", "addr:postcode": "75007", "addr:street": "Rue Jean Nicot", "name": "Pariseven", "opening_hours": "Mo-Sa 07:30-20:30", "ref:FR:SIRET": "44960120200012", "shop": "bakery"}}, {"type": "node", "id": 4231973507, "lat": 48.8596699, "lon": 2.3079515, "tags": {"contact:city": "Paris", "contact:housenumber": "85", "contact:postcode": "75007", "contact:street": "Rue Saint-Dominique", "name": "Nelly Julien", "opening_hours": "Mo-Sa 06:30-20:00", "shop": "bakery"}}, {"type": "node", "id": 4231978927, "lat": 48.8591775, "lon": 2.3052908, "tags": {"contact:city": "Paris", "contact:housenumber": "111", "contact:postcode": "75007", "contact:street": "Rue Saint-Dominique", "name": "Touchard Jean-Marc", "shop": "bakery"}}, {"type": "node", "id": 4292750936, "lat": 48.8459605, "lon": 2.2988825, "tags": {"name": "Le Moulin de la Croix Nivert", "opening_hours": "Tu-Sa 07:00-20:30", "shop": "bakery"}}, {"type": "node", "id": 4420336890, "lat": 48.8754275, "lon": 2.3172524, "tags": {"level": "0", "name": "Thierry Marx", "shop": "bakery"}}, {"type": "node", "id": 4483747949, "lat": 48.861289, "lon": 2.3354478}, {"type": "node", "id": 4483771068, "lat": 48.861208, "lon": 2.3354017, "tags": {"door": "no", "entrance": "yes", "indoor": "yes", "level": "-2", "source": "survey"}}, {"type": "node", "id": 4483771075, "lat": 48.8611948, "lon": 2.3353038}, {"type": "node", "id": 4483771080, "lat": 48.8613086, "lon": 2.3353685}, {"type": "node", "id": 4483771082, "lat": 48.8611752, "lon": 2.335383}, {"type": "node", "id": 4496965207, "lat": 48.8612921, "lon": 2.3354351}, {"type": "node", "id": 4625881792, "lat": 48.8539257, "lon": 2.3372462, "tags": {"indoor_seating": "yes", "name": "The Smiths Bakery", "opening_hours": "Mo-Th,Su 08:30-20:30; Fr-Sa 08:30-22:30", "outdoor_seating": "yes", "shop": "bakery", "wheelchair": "no"}}, {"type": "node", "id": 4683156189, "lat": 48.874971, "lon": 2.3178124, "tags": {"name": "Home Metres", "name:fr": "Home Metres", "note": "Position \u00e0 pr\u00e9ciser", "shop": "bakery"}}, {"type": "node", "id": 4788734732, "lat": 48.8745594, "lon": 2.3282561, "tags": {"brand": "Paul", "brand:wikidata": "Q3370417", "brand:wikipedia": "en:Paul (bakery)", "name": "Paul", "name:fr": "Paul", "shop": "bakery"}}, {"type": "node", "id": 4810326727, "lat": 48.8484019, "lon": 2.29701, "tags": {"branch": "Commerce", "brand": "Ernest & Valentin", "check_date:opening_hours": "2025-09-02", "indoor_seating": "yes", "name": "Ernest & Valentin", "opening_hours": "Mo-Sa 07:00-20:00, Su 07:30-18:30", "outdoor_seating": "yes", "ref:FR:SIRET": "83263306900022", "shop": "bakery", "website": "https://ernestetvalentin.com/boulangeries/", "wheelchair": "yes"}}, {"type": "node", "id": 4843866722, "lat": 48.8712861, "lon": 2.3039856, "tags": {"brand": "Paul", "brand:wikidata": "Q3370417", "brand:wikipedia": "en:Paul (bakery)", "indoor_seating": "no", "level": "0", "name": "Paul", "name:fr": "Paul", "outdoor_seating": "yes", "room": "shop", "shop": "bakery", "wheelchair": "yes"}}, {"type": "node", "id": 4870409022, "lat": 48.8482673, "lon": 2.3200267, "tags": {"check_date": "2025-10-10", "name": "Secco", "name:fr": "Secco", "opening_hours": "Mo-Sa 07:00-20:00; Jan 01 closed; May 01 closed", "shop": "bakery"}}, {"type": "node", "id": 4875878021, "lat": 48.8428373, "lon": 2.341484, "tags": {"addr:city": "Paris", "addr:housenumber": "243", "addr:postcode": "75005", "addr:street": "Rue Saint-Jacques", "name": "Boulangerie Bruno Solques", "opening_hours": "Mo-Sa 06:30-13:30, 15:30-20:00", "shop": "bakery"}}, {"type": "node", "id": 4905284711, "lat": 48.8680361, "lon": 2.336577, "tags": {"name": "Les Petits Choux", "opening_hours": "Mo-Fr 07:00-19:00, Sa 07:00-15:00", "shop": "bakery"}}, {"type": "node", "id": 4905285039, "lat": 48.8494302, "lon": 2.29804, "tags": {"addr:city": "Paris", "addr:housenumber": "66", "addr:postcode": "75015", "addr:street": "Avenue de la Motte-Picquet", "indoor_seating": "yes", "name": "Merci J\u00e9r\u00f4me", "opening_hours": "Mo-Sa 07:00-20:30; Su 07:00-20:00", "outdoor_seating": "yes", "phone": "+33 1 47 83 32 87", "shop": "bakery", "website": "https://mercijerome.com/", "wheelchair": "yes"}}, {"type": "node", "id": 5001825481, "lat": 48.8530734, "lon": 2.3308146, "tags": {"contact:instagram": "binome_boulangerie", "name": "Bin\u00f4me", "opening_hours": "Mo-Sa 07:00-18:00", "shop": "bakery"}}, {"type": "node", "id": 5003433455, "lat": 48.8563055, "lon": 2.3260984, "tags": {"check_date": "2025-04-29", "name": "Galland", "shop": "bakery"}}, {"type": "node", "id": 5009327621, "lat": 48.861697, "lon": 2.3464578, "tags": {"door": "no", "indoor": "yes", "level": "-4", "source": "survey"}}, {"type": "node", "id": 5009327627, "lat": 48.8617387, "lon": 2.3464393}, {"type": "node", "id": 5009327628, "lat": 48.8616669, "lon": 2.3464711}, {"type": "node", "id": 5009327637, "lat": 48.8617241, "lon": 2.3463615}, {"type": "node", "id": 5009327644, "lat": 48.8616521, "lon": 2.3463926}, {"type": "node", "id": 5077321896, "lat": 48.852005, "lon": 2.3351084, "tags": {"level": "0", "name": "Secco", "opening_hours": "Mo-Sa 07:00-20:00", "shop": "bakery"}}, {"type": "node", "id": 5150224621, "lat": 48.8754667, "lon": 2.3433075, "tags": {"check_date": "2023-04-29", "indoor_seating": "no", "name": "Maison Dupuy", "opening_hours": "Mo,We-Sa 07:00-20:00; Su 07:00-13:30", "outdoor_seating": "no", "ref:FR:SIREN": "318918877", "ref:FR:SIRET": "31891887700024", "shop": "bakery", "takeaway": "only"}}, {"type": "node", "id": 5155068819, "lat": 48.8410153, "lon": 2.3059883, "tags": {"addr:postcode": "75015", "name": "Secco", "opening_hours": "Mo-Sa 07:00-20:00", "shop": "bakery"}}, {"type": "node", "id": 5207824825, "lat": 48.8607502, "lon": 2.3094278, "tags": {"shop": "bakery"}}, {"type": "node", "id": 5280218322, "lat": 48.8414626, "lon": 2.3269235, "tags": {"level": "0", "name": "Octave", "organic": "yes", "shop": "bakery", "strapline": "Boulangerie de Montparnasse"}}, {"type": "node", "id": 5305889421, "lat": 48.8555476, "lon": 2.3340801, "tags": {"addr:housenumber": "21", "addr:street": "Rue Bonaparte", "check_date": "2025-05-01", "contact:facebook": "https://www.facebook.com/MaisonLaduree/", "contact:instagram": "https://www.instagram.com/maisonladuree", "cuisine": "tea", "name": "Ladur\u00e9e", "opening_hours": "08:30-19:00", "opening_hours:kitchen": "08:30-18:30", "phone": "+33 1 44 07 64 87", "shop": "bakery", "website": "https://www.laduree.fr/en/laduree-paris-bonaparte.html"}}, {"type": "node", "id": 5381388505, "lat": 48.8675665, "lon": 2.3332011, "tags": {"addr:city": "Paris", "addr:housenumber": "3", "addr:postcode": "75002", "addr:street": "Rue Danielle Casanova", "check_date": "2024-06-03", "check_date:opening_hours": "2023-08-25", "contact:instagram": "https://www.instagram.com/midoreboulangeries/", "delivery": "yes", "delivery:partner": "Deliveroo", "name": "Midor\u00e9", "opening_hours": "Mo-Fr 07:30-20:00; Sa 08:00-19:00", "payment:cash": "yes", "payment:credit_cards": "yes", "payment:debit_cards": "yes", "shop": "bakery", "takeaway": "yes", "toilets": "yes", "website": "https://www.midore.fr/", "wheelchair": "yes"}}, {"type": "node", "id": 5422620899, "lat": 48.8432591, "lon": 2.3052544, "tags": {"contact:city": "Paris", "contact:housenumber": "75", "contact:phone": "+33 1 43 06 81 18", "contact:postcode": "75015", "contact:street": "Rue Lecourbe", "contact:website": "https://www.laromainville.fr/magasin/2-paris-15e", "name": "La Romainville", "opening_hours": "Tu-Th 09:30-13:00,14:00-19:00; Fr-Sa 09:30-19:30; Su 09:30-12:00", "shop": "bakery"}}, {"type": "node", "id": 5422620914, "lat": 48.8430082, "lon": 2.3044152, "tags": {"name": "Au Levain", "opening_hours": "07:00-20:30", "shop": "bakery"}}, {"type": "node", "id": 5422621460, "lat": 48.8413231, "lon": 2.297896, "tags": {"name": "L'\u00e9toile du matin", "opening_hours": "Tu-Sa 07:00-20:00; Su 08:00-14:30", "shop": "bakery"}}, {"type": "node", "id": 5445132174, "lat": 48.8440204, "lon": 2.317315, "tags": {"contact:city": "Paris", "contact:housenumber": "6", "contact:postcode": "75015", "contact:street": "Rue Falgui\u00e8re", "name": "Le Pain Souriant", "opening_hours": "06:45-20:00; Sa-Su,PH 06:45-19:00; Mo closed", "shop": "bakery"}}, {"type": "node", "id": 5563839925, "lat": 48.8605228, "lon": 2.3458549, "tags": {"addr:housenumber": "21", "addr:street": "Rue des Halles", "check_date": "2025-08-13", "contact:city": "Paris", "contact:housenumber": "21", "contact:phone": "+33 1 42 36 28 55", "contact:postcode": "75001", "contact:street": "Rue des Halles", "indoor_seating": "yes", "name": "La Parisienne", "opening_hours": "Mo-Sa 07:00-20:00", "outdoor_seating": "yes", "payment:cash": "yes", "payment:credit_cards": "yes", "ref:FR:SIRET": "81254993900013", "shop": "bakery", "smoking": "outside", "wheelchair": "limited"}}, {"type": "node", "id": 5630045327, "lat": 48.8735683, "lon": 2.3429846, "tags": {"name": "M. Denis", "opening_hours": "Fr-Tu 07:00-20:00", "shop": "bakery"}}, {"type": "node", "id": 5685585321, "lat": 48.860083, "lon": 2.3006579, "tags": {"addr:housenumber": "16", "addr:street": "Avenue Rapp", "contact:phone": "+33 1 45 51 66 39", "name": "Lapelosa F\u00e9lice", "opening_hours": "Mo-Fr 07:00-20:00", "shop": "bakery", "source": "local knowledge"}}, {"type": "node", "id": 5819800853, "lat": 48.8478982, "lon": 2.2934507, "tags": {"addr:city": "Paris", "addr:housenumber": "35", "addr:postcode": "75015", "addr:street": "Rue Violet", "contact:instagram": "https://www.instagram.com/panade_paris", "name": "Panade", "opening_hours": "Tu-Fr 07:30-19:30; Sa 08:00-19:30; Su 08:00-18:30", "operator": "Merouan BOUNEKRAF", "phone": "+33 1 42 65 73 02", "ref:FR:SIRET": "90193908200011", "shop": "bakery", "start_date": "2021-10-19", "website": "https://www.panade-paris.fr/"}}, {"type": "node", "id": 5828922322, "lat": 48.8517816, "lon": 2.318585, "tags": {"name": "Au Bout du Monde", "ref:FR:SIRET": "84858194800017", "shop": "bakery"}}, {"type": "node", "id": 5990827885, "lat": 48.8445128, "lon": 2.331854, "tags": {"addr:housenumber": "5", "addr:street": "Rue Vavin", "level": "0", "name": "Boulangerie du Jardin", "opening_hours": "Mo-Sa 07:00-19:30", "operator": "Christine et Pascal", "shop": "bakery", "smoking": "no", "takeaway": "yes"}}, {"type": "node", "id": 6044041367, "lat": 48.8739929, "lon": 2.3420481, "tags": {"addr:city": "Paris", "addr:housenumber": "1", "addr:postcode": "75009", "addr:street": "Rue de Provence", "check_date": "2025-11-15", "level": "0", "name": "Aux Castelblangeois", "payment:cards": "yes", "payment:cash": "yes", "phone": "+33 153340875", "shop": "bakery"}}, {"type": "node", "id": 6049767635, "lat": 48.8669909, "lon": 2.3442875, "tags": {"addr:city": "Paris", "addr:floor": "0", "addr:housenumber": "33", "addr:street": "Rue d'Aboukir", "check_date": "2025-10-16", "indoor_seating": "no", "level": "0", "name": "La Miche et Lulu", "outdoor_seating": "no", "ref:FR:SIRET": "51164728100019", "shop": "bakery", "takeaway": "only", "wheelchair": "yes"}}, {"type": "node", "id": 6049882127, "lat": 48.8649314, "lon": 2.346713, "tags": {"addr:city": "Paris", "addr:floor": "0", "addr:housenumber": "45", "addr:postcode": "75002", "addr:street": "Rue Montorgueil", "check_date": "2025-09-23", "contact:phone": "+33 1 40410061", "indoor_seating": "no", "level": "0", "name": "Fou de P\u00e2tisserie", "name:fr": "Fou de P\u00e2tisserie", "opening_hours": "Mo-Fr 11:00-20:00; Sa 10:00-20:00; Su 10:00-18:00", "outdoor_seating": "yes", "payment:cash": "yes", "payment:credit_cards": "yes", "payment:debit_cards": "yes", "payment:visa": "yes", "shop": "bakery", "smoking": "no", "wheelchair": "no"}}, {"type": "node", "id": 6097031661, "lat": 48.8533387, "lon": 2.3425481, "tags": {"name": "Les Arts Gourmands", "shop": "bakery", "wheelchair": "no"}}, {"type": "node", "id": 6112597012, "lat": 48.8626951, "lon": 2.3139949}, {"type": "node", "id": 6135090710, "lat": 48.8408932, "lon": 2.3199412}, {"type": "node", "id": 6192292303, "lat": 48.8607057, "lon": 2.3409996, "tags": {"branch": "Louvre Rivoli", "check_date:opening_hours": "2025-05-30", "contact:city": "Paris", "contact:housenumber": "91", "contact:phone": "+33 1 42 33 49 84", "contact:postcode": "75001", "contact:street": "Rue de Rivoli", "contact:website": "https://www.boetmie.com/", "disused:shop": "bakery", "indoor_seating": "yes", "name": "BO&MIE", "opening_hours": "Mo-Sa 07:30-20:00; Su 08:00-20:00", "outdoor_seating": "no", "pastry": "yes", "ref:FR:SIRET": "88443942300010", "shop": "bakery", "smoking": "no", "wheelchair": "yes"}}, {"type": "node", "id": 6246354033, "lat": 48.8518488, "lon": 2.2934403, "tags": {"shop": "bakery"}}, {"type": "node", "id": 6279453474, "lat": 48.8585015, "lon": 2.3022647, "tags": {"contact:city": "Paris", "contact:housenumber": "112", "contact:postcode": "75007", "contact:street": "Rue Saint-Dominique", "name": "Boulangerie Laurent B", "ref:FR:SIRET": "57222155400015", "shop": "bakery", "wheelchair": "yes"}}, {"type": "node", "id": 6331744770, "lat": 48.8593022, "lon": 2.3468344, "tags": {"check_date": "2025-08-13", "contact:instagram": "maison_courcelle", "name": "Maison Courcelle", "shop": "bakery"}}, {"type": "node", "id": 6349589357, "lat": 48.8469038, "lon": 2.3173783}, {"type": "node", "id": 6349589358, "lat": 48.8469838, "lon": 2.3173108}, {"type": "node", "id": 6349589359, "lat": 48.8468789, "lon": 2.3172991}, {"type": "node", "id": 6349589361, "lat": 48.8468838, "lon": 2.317215}, {"type": "node", "id": 6352024941, "lat": 48.870579, "lon": 2.2973489, "tags": {"addr:city": "Paris", "addr:housenumber": "69", "addr:postcode": "75116", "addr:street": "Avenue Marceau", "name": "Sophie Lebreully", "shop": "bakery", "source": "cadastre-dgi-fr source : Direction G\u00e9n\u00e9rale des Imp\u00f4ts - Cadastre. Mise \u00e0 jour : 2010"}}, {"type": "node", "id": 6356369385, "lat": 48.8667366, "lon": 2.3337411, "tags": {"brand": "Paul", "brand:wikidata": "Q3370417", "brand:wikipedia": "en:Paul (bakery)", "name": "Paul", "name:it": "Paul", "ref:FR:SIRET": "40305211101212", "shop": "bakery"}}, {"type": "node", "id": 6362647839, "lat": 48.8439695, "lon": 2.322973}, {"type": "node", "id": 6362647845, "lat": 48.8439405, "lon": 2.3230281}, {"type": "node", "id": 6364850715, "lat": 48.8412889, "lon": 2.3208336}, {"type": "node", "id": 6364850718, "lat": 48.8413246, "lon": 2.3208764}, {"type": "node", "id": 6364850720, "lat": 48.8413284, "lon": 2.3207523}, {"type": "node", "id": 6367483532, "lat": 48.8413594, "lon": 2.3207902}, {"type": "node", "id": 6367483533, "lat": 48.8413621, "lon": 2.3208053}, {"type": "node", "id": 6367483778, "lat": 48.8439191, "lon": 2.3229116}, {"type": "node", "id": 6367483779, "lat": 48.8439048, "lon": 2.3229392}, {"type": "node", "id": 6367483780, "lat": 48.8439295, "lon": 2.3229698}, {"type": "node", "id": 6540145685, "lat": 48.8673007, "lon": 2.3348935, "tags": {"addr:floor": "0", "check_date": "2025-10-01", "check_date:opening_hours": "2024-08-28", "contact:city": "Paris", "contact:housenumber": "42", "contact:postcode": "75002", "contact:street": "Rue des Petits Champs", "level": "0", "name": "Boulangerie Joseph", "opening_hours:signed": "no", "ref:FR:SIRET": "49534087900024", "shop": "bakery", "wheelchair": "yes"}}, {"type": "node", "id": 6631790523, "lat": 48.8409798, "lon": 2.3200318}, {"type": "node", "id": 6631790524, "lat": 48.8409746, "lon": 2.3200413}, {"type": "node", "id": 6685470750, "lat": 48.8690332, "lon": 2.329413, "tags": {"addr:housenumber": "1", "addr:postcode": "75002", "addr:street": "Rue Volney", "name": "Au Coin Gourmand", "phone": "+33149260791", "shop": "bakery", "website": "https://www.aucoingourmand.fr/"}}, {"type": "node", "id": 6695032685, "lat": 48.8513058, "lon": 2.3289966, "tags": {"brand": "Po\u00eelane", "contact:city": "Paris", "contact:housenumber": "8", "contact:phone": "+33 1 45 48 42 59", "contact:postcode": "75006", "contact:street": "Rue du Cherche-Midi", "contact:website": "https://www.poilane.com", "name": "Boulangerie Poil\u00e2ne", "opening_hours": "Mo-Sa 07:15-18:00", "shop": "bakery"}}, {"type": "node", "id": 6808202517, "lat": 48.8764706, "lon": 2.325962}, {"type": "node", "id": 6811563082, "lat": 48.8765124, "lon": 2.3260432}, {"type": "node", "id": 7118018820, "lat": 48.847469, "lon": 2.3300374, "tags": {"name": "La Boulangerie d'Assas", "shop": "bakery"}}, {"type": "node", "id": 7232736676, "lat": 48.876826, "lon": 2.32985, "tags": {"name": "Pastel Bakery", "shop": "bakery"}}, {"type": "node", "id": 7362736077, "lat": 48.8767116, "lon": 2.3216991, "tags": {"addr:housenumber": "8", "addr:street": "Rue de Vienne", "check_date": "2024-11-05", "check_date:opening_hours": "2024-11-05", "indoor_seating": "yes", "level": "0", "name": "Midor\u00e9", "opening_hours": "Mo-Fr 07:00-20:00; Sa 07:30-19:00", "outdoor_seating": "yes", "payment:cash": "yes", "payment:credit_cards": "yes", "payment:debit_cards": "yes", "shop": "bakery", "toilets:wheelchair": "no", "wheelchair": "yes"}}, {"type": "node", "id": 7631784185, "lat": 48.8444803, "lon": 2.3242245, "tags": {"brand": "Brioche Dor\u00e9e", "brand:wikidata": "Q2925606", "brand:wikipedia": "fr:Brioche Dor\u00e9e", "contact:city": "Paris", "contact:housenumber": "150", "contact:phone": "+33 1 45 44 71 73", "contact:postcode": "75006", "contact:street": "Rue de Rennes", "contact:website": "https://www.briochedoree.fr/restaurants/58-paris-150-rue-de-rennes", "indoor_seating": "no", "name": "Brioche Dor\u00e9e", "official_name": "Brioche Dor\u00e9e Paris - 150 Rue De Rennes", "opening_hours": "Mo-Sa 07:30-20:00", "outdoor_seating": "no", "ref:FR:SIRET": "31890659101551", "shop": "bakery", "takeaway": "only"}}, {"type": "node", "id": 7632098485, "lat": 48.843289, "lon": 2.3225936, "tags": {"brand": "Brioche Dor\u00e9e", "brand:wikidata": "Q2925606", "brand:wikipedia": "fr:Brioche dor\u00e9e", "contact:city": "Paris", "contact:housenumber": "11", "contact:phone": "+33 1 42 79 88 39", "contact:postcode": "75015", "contact:street": "Rue de l'Arriv\u00e9e", "contact:website": "https://www.briochedoree.fr/restaurants/67-paris-c.cial-maine-montparnasse", "name": "Brioche Dor\u00e9e", "official_name": "Brioche Dor\u00e9e Paris - C.cial Maine Montparnasse", "opening_hours": "Mo-Sa 08:00-20:00", "ref:FR:SIRET": "31890659100744", "shop": "bakery"}}, {"type": "node", "id": 7995703469, "lat": 48.8737501, "lon": 2.3203723, "tags": {"brand": "Paul", "brand:wikidata": "Q3370417", "brand:wikipedia": "en:Paul (bakery)", "name": "Paul", "shop": "bakery", "survey:date": "2020-09"}}, {"type": "node", "id": 8438609363, "lat": 48.8466081, "lon": 2.2938769, "tags": {"contact:city": "Paris", "contact:housenumber": "98", "contact:postcode": "75015", "contact:street": "Rue du Th\u00e9\u00e2tre", "name": "Boulangerie du Th\u00e9\u00e2tre", "opening_hours": "Tu-Sa 07:30-19:30; Su 07:30-13:30", "operator": "Lionel Naulleau", "payment:cash": "yes", "payment:credit_cards": "yes", "shop": "bakery"}}, {"type": "node", "id": 8439390588, "lat": 48.8470222, "lon": 2.2932163, "tags": {"contact:city": "Paris", "contact:housenumber": "133", "contact:postcode": "75015", "contact:street": "Avenue \u00c9mile Zola", "name": "Boulangerie le Gallic", "operator": "Fabrice le Gallic", "shop": "bakery"}}, {"type": "node", "id": 8463717251, "lat": 48.8681181, "lon": 2.3306876, "tags": {"addr:city": "Paris", "addr:housenumber": "33", "addr:postcode": "75001", "addr:street": "Rue Danielle Casanova", "brand": "Eric Kayser", "brand:wikidata": "Q99231745", "check_date": "2025-05-21", "food": "sandwich;salad", "name": "Eric Kayser", "opening_hours": "Mo-Th,Sa 07:00-20:30; Fr 07:00-15:00", "pastry": "yes", "payment:cash": "yes", "payment:credit_cards": "yes", "payment:debit_cards": "yes", "phone": "+33 1 42 97 59 29", "ref:FR:SIRET": "47946703700012", "shop": "bakery", "website": "https://maison-kayser.com/boulangerie/vendome/", "wheelchair": "yes"}}, {"type": "node", "id": 8706088391, "lat": 48.8420681, "lon": 2.3171693, "tags": {"name": "Chez Papy", "shop": "bakery"}}, {"type": "node", "id": 8927040028, "lat": 48.8410107, "lon": 2.3407212, "tags": {"check_date:opening_hours": "2023-05-17", "name": "Boulangerie de la Place", "opening_hours": "Su-Fr 06:30-21:00", "shop": "bakery"}}, {"type": "node", "id": 9082433433, "lat": 48.8762984, "lon": 2.3024752, "tags": {"name": "Midor\u00e9", "shop": "bakery"}}, {"type": "node", "id": 9127637187, "lat": 48.8492587, "lon": 2.3466185, "tags": {"indoor_seating": "yes", "name": "Maison Forest", "opening_hours": "Mo-Sa 07:30-20:00", "outdoor_seating": "yes", "shop": "bakery"}}, {"type": "node", "id": 9269761921, "lat": 48.8440317, "lon": 2.3244986, "tags": {"name": "Paris Baguette", "opening_hours": "Mo-Fr 07:00-22:00, Sa 08:00-22:00, Su 08:00-20:00", "shop": "bakery"}}, {"type": "node", "id": 9606935588, "lat": 48.8486608, "lon": 2.3254619, "tags": {"contact:instagram": "mille_et_1", "internet_access": "wlan", "internet_access:fee": "no", "level": "0", "name": "Mille et Un", "opening_hours": "Mo-Sa 07:30-19:30", "shop": "bakery", "toilets": "yes", "toilets:access": "customers", "toilets:disposal": "flush", "toilets:position": "seated", "toilets:wheelchair": "no", "wheelchair": "no"}}, {"type": "node", "id": 9607359493, "lat": 48.846787, "lon": 2.327245, "tags": {"addr:floor": "0", "addr:housenumber": "5", "addr:street": "Rue Notre-Dame-des-Champs", "check_date": "2025-10-10", "level": "0", "name": "Thevenin", "opening_hours": "Mo-Sa 07:00-20:00; Su 07:00-19:00", "phone": "+33 1 45 48 16 92", "shop": "bakery", "website": "https://maisonthevenin.fr/magasins/2-maison-thevenin-saint-placide", "wheelchair": "yes"}}, {"type": "node", "id": 9672800537, "lat": 48.8622122, "lon": 2.3400769, "tags": {"check_date:opening_hours": "2023-05-12", "email": "tartine.co.louvre@gmail.com", "indoor_seating": "no", "name": "Tartine & Co", "opening_hours": "Mo-Sa 06:45-20:00", "organic": "yes", "outdoor_seating": "no", "phone": "+33 1 42 60 23 29", "ref:FR:SIRET": "85326737500022", "shop": "bakery", "takeaway": "only", "website": "https://tartineandco.fr/"}}, {"type": "node", "id": 9733507686, "lat": 48.8409491, "lon": 2.3199317}, {"type": "node", "id": 9733507687, "lat": 48.8409361, "lon": 2.319916}, {"type": "node", "id": 9733507688, "lat": 48.840989, "lon": 2.3199807}, {"type": "node", "id": 9733507689, "lat": 48.8409758, "lon": 2.3199646}, {"type": "node", "id": 9733510246, "lat": 48.8409582, "lon": 2.3200125, "tags": {"door": "no", "indoor": "door", "level": "2"}}, {"type": "node", "id": 9733510247, "lat": 48.8409675, "lon": 2.3200239}, {"type": "node", "id": 9733510248, "lat": 48.8409489, "lon": 2.320001}, {"type": "node", "id": 9733510249, "lat": 48.8409647, "lon": 2.3200292}, {"type": "node", "id": 9733510250, "lat": 48.840946, "lon": 2.3200063}, {"type": "node", "id": 9733510251, "lat": 48.8409092, "lon": 2.3199107, "tags": {"door": "no", "indoor": "door", "level": "2"}}, {"type": "node", "id": 9733510560, "lat": 48.8409151, "lon": 2.3199018}, {"type": "node", "id": 9733510561, "lat": 48.8409033, "lon": 2.3199194}, {"type": "node", "id": 9733510562, "lat": 48.8408997, "lon": 2.3199139}, {"type": "node", "id": 9733510563, "lat": 48.8409116, "lon": 2.3198963}, {"type": "node", "id": 9733510950, "lat": 48.8409912, "lon": 2.3199766}, {"type": "node", "id": 9733510951, "lat": 48.840978, "lon": 2.3199604}, {"type": "node", "id": 9733510952, "lat": 48.8409513, "lon": 2.3199276}, {"type": "node", "id": 9733510953, "lat": 48.8409384, "lon": 2.3199117}, {"type": "node", "id": 9733510954, "lat": 48.8410006, "lon": 2.319988}, {"type": "node", "id": 9733510955, "lat": 48.840918, "lon": 2.3198867}, {"type": "node", "id": 9733510977, "lat": 48.8409786, "lon": 2.3200303}, {"type": "node", "id": 9733511927, "lat": 48.8408927, "lon": 2.3199243}, {"type": "node", "id": 9733511928, "lat": 48.8408914, "lon": 2.3199266}, {"type": "node", "id": 9733511929, "lat": 48.8408908, "lon": 2.3199286}, {"type": "node", "id": 9733511930, "lat": 48.8408904, "lon": 2.3199309}, {"type": "node", "id": 9733511931, "lat": 48.8408904, "lon": 2.319934}, {"type": "node", "id": 9733511932, "lat": 48.8408908, "lon": 2.3199368}, {"type": "node", "id": 9733511933, "lat": 48.8408919, "lon": 2.3199396}, {"type": "node", "id": 9735473541, "lat": 48.8412733, "lon": 2.3202062}, {"type": "node", "id": 9735473542, "lat": 48.8412684, "lon": 2.3202004}, {"type": "node", "id": 9735473543, "lat": 48.8412326, "lon": 2.3202677}, {"type": "node", "id": 9735473544, "lat": 48.8412375, "lon": 2.3202736}, {"type": "node", "id": 9735473545, "lat": 48.8412338, "lon": 2.3202805}, {"type": "node", "id": 9738083184, "lat": 48.8412313, "lon": 2.3201551}, {"type": "node", "id": 9738083187, "lat": 48.8412264, "lon": 2.320149}, {"type": "node", "id": 9738083189, "lat": 48.8411958, "lon": 2.3202221}, {"type": "node", "id": 9738083190, "lat": 48.841191, "lon": 2.320216}, {"type": "node", "id": 9744971441, "lat": 48.8410716, "lon": 2.3205597}, {"type": "node", "id": 9744971442, "lat": 48.841083, "lon": 2.3205394}, {"type": "node", "id": 9744971443, "lat": 48.8410835, "lon": 2.320538}, {"type": "node", "id": 9744971444, "lat": 48.8410837, "lon": 2.3205363}, {"type": "node", "id": 9744971445, "lat": 48.8410838, "lon": 2.3205347}, {"type": "node", "id": 9744971446, "lat": 48.8410836, "lon": 2.3205333}, {"type": "node", "id": 9744971447, "lat": 48.8410835, "lon": 2.3205323}, {"type": "node", "id": 9744971448, "lat": 48.841083, "lon": 2.3205309}, {"type": "node", "id": 9744971449, "lat": 48.8410823, "lon": 2.3205297}, {"type": "node", "id": 9744971450, "lat": 48.8410673, "lon": 2.3205108}, {"type": "node", "id": 9744971451, "lat": 48.8410666, "lon": 2.3205104}, {"type": "node", "id": 9744971452, "lat": 48.8410657, "lon": 2.3205101}, {"type": "node", "id": 9744971453, "lat": 48.8410648, "lon": 2.32051}, {"type": "node", "id": 9744971454, "lat": 48.8410639, "lon": 2.32051}, {"type": "node", "id": 9744971455, "lat": 48.8410638, "lon": 2.3205101}, {"type": "node", "id": 9744971456, "lat": 48.8410627, "lon": 2.3205107}, {"type": "node", "id": 9744971457, "lat": 48.8410616, "lon": 2.3205114}, {"type": "node", "id": 9744971458, "lat": 48.841061, "lon": 2.3205122}, {"type": "node", "id": 9744971459, "lat": 48.8410498, "lon": 2.3205323}, {"type": "node", "id": 9744971460, "lat": 48.8410488, "lon": 2.320531}, {"type": "node", "id": 9744971461, "lat": 48.8410474, "lon": 2.3205338}, {"type": "node", "id": 9744971462, "lat": 48.8410468, "lon": 2.3205364}, {"type": "node", "id": 9744971463, "lat": 48.8410466, "lon": 2.3205394}, {"type": "node", "id": 9744971464, "lat": 48.8410468, "lon": 2.3205421}, {"type": "node", "id": 9744971465, "lat": 48.8410479, "lon": 2.3205453}, {"type": "node", "id": 9744971466, "lat": 48.841049, "lon": 2.3205473}, {"type": "node", "id": 9744971467, "lat": 48.8410626, "lon": 2.3205644}, {"type": "node", "id": 9744971468, "lat": 48.8410634, "lon": 2.3205649}, {"type": "node", "id": 9744971469, "lat": 48.8410646, "lon": 2.3205656}, {"type": "node", "id": 9744971470, "lat": 48.8410664, "lon": 2.320566}, {"type": "node", "id": 9744971471, "lat": 48.8410681, "lon": 2.320566}, {"type": "node", "id": 9744971472, "lat": 48.8410699, "lon": 2.3205653}, {"type": "node", "id": 9744971473, "lat": 48.8410713, "lon": 2.3205641}, {"type": "node", "id": 9744971474, "lat": 48.8410729, "lon": 2.3205613}, {"type": "node", "id": 9744971500, "lat": 48.8410497, "lon": 2.3205481}, {"type": "node", "id": 9767671824, "lat": 48.8412469, "lon": 2.3202957}, {"type": "node", "id": 9767671825, "lat": 48.8412511, "lon": 2.3202942}, {"type": "node", "id": 9767671888, "lat": 48.8412667, "lon": 2.3202542, "tags": {"door": "hinged", "indoor": "door", "level": "-1"}}, {"type": "node", "id": 9767671889, "lat": 48.8412608, "lon": 2.3202653}, {"type": "node", "id": 9767671890, "lat": 48.8412727, "lon": 2.3202428}, {"type": "node", "id": 9767671891, "lat": 48.8412762, "lon": 2.320247}, {"type": "node", "id": 9767671892, "lat": 48.8412643, "lon": 2.3202695}, {"type": "node", "id": 9767671943, "lat": 48.8412702, "lon": 2.320197}, {"type": "node", "id": 9767671944, "lat": 48.841275, "lon": 2.320203}, {"type": "node", "id": 9767671945, "lat": 48.8412332, "lon": 2.3201516}, {"type": "node", "id": 9767671946, "lat": 48.8412283, "lon": 2.3201456}, {"type": "node", "id": 9767671964, "lat": 48.8411889, "lon": 2.3201567}, {"type": "node", "id": 9767671965, "lat": 48.8412025, "lon": 2.3201734}, {"type": "node", "id": 9767671966, "lat": 48.8411824, "lon": 2.3202116}, {"type": "node", "id": 9767671967, "lat": 48.8411938, "lon": 2.3202258}, {"type": "node", "id": 9767671968, "lat": 48.8411889, "lon": 2.3202198}, {"type": "node", "id": 9767671969, "lat": 48.8412307, "lon": 2.3202713}, {"type": "node", "id": 9767671970, "lat": 48.8412441, "lon": 2.3202939}, {"type": "node", "id": 9767671971, "lat": 48.8412459, "lon": 2.3202954}, {"type": "node", "id": 9767671972, "lat": 48.8412483, "lon": 2.3202957}, {"type": "node", "id": 9767671973, "lat": 48.8412495, "lon": 2.3202953}, {"type": "node", "id": 9780876701, "lat": 48.850571, "lon": 2.3194445, "tags": {"shop": "bakery"}}, {"type": "node", "id": 9780876706, "lat": 48.849428, "lon": 2.3247794, "tags": {"name": "Maison M'Seddi", "old_name": "Tant' Mich'", "shop": "bakery"}}, {"type": "node", "id": 9845335095, "lat": 48.8417247, "lon": 2.3288654, "tags": {"check_date:opening_hours": "2025-07-25", "name": "La Boulangerie du D\u00f4me", "opening_hours": "Tu-Su 07:00-20:00", "shop": "bakery"}}, {"type": "node", "id": 9856960817, "lat": 48.8532807, "lon": 2.3384069, "tags": {"brand": "Eric Kayser", "brand:wikidata": "Q99231745", "name": "Eric Kayser", "opening_hours": "Mo-Sa 07:00-20:30", "pastry": "yes", "shop": "bakery", "wheelchair": "no"}}, {"type": "node", "id": 9856960818, "lat": 48.853441, "lon": 2.3412963, "tags": {"check_date": "2023-09-16", "name": "Libert\u00e9", "opening_hours": "Mo-Sa 07:30-20:00; Su 08:30-17:00", "shop": "bakery"}}, {"type": "node", "id": 9877619397, "lat": 48.8448599, "lon": 2.3241432, "tags": {"name": "Mie Amor", "opening_hours": "Mo-Fr 07:00-19:30; Sa 08:00-19:00", "shop": "bakery"}}, {"type": "node", "id": 9879701224, "lat": 48.8561817, "lon": 2.3050526, "tags": {"name": "Du Pain Et Vous", "opening_hours": "Mo-Fr 07:00-20:00; Sa 08:00-20:00", "shop": "bakery"}}, {"type": "node", "id": 9879858428, "lat": 48.8469809, "lon": 2.331399, "tags": {"name": "Bread & Roses", "opening_hours": "Tu-Su 10:00-19:00", "organic": "yes", "shop": "bakery", "website": "https://www.breadandroses.fr/", "wheelchair": "limited"}}, {"type": "node", "id": 9916014838, "lat": 48.8549797, "lon": 2.3305989, "tags": {"name": "Legrand", "opening_hours": "Mo-Fr 07:00-19:30", "ref:FR:SIRET": "80375061100011", "shop": "bakery", "website": "https://boulangerielegrand.business.site"}}, {"type": "node", "id": 9930314317, "lat": 48.85994, "lon": 2.2936558, "tags": {"shop": "bakery"}}, {"type": "node", "id": 9937781360, "lat": 48.8728898, "lon": 2.3098353, "tags": {"addr:housenumber": "73", "addr:postcode": "75008", "addr:street": "Avenue Franklin Delano Roosevelt", "contact:facebook": "https://www.facebook.com/maisonjulien/", "name": "Maison Julien", "opening_hours": "Mo,Su 12:00-15:00,19:00-22:00; Tu-Sa 12:00-15:00,19:00-00:00", "phone": "+33 1 43 59 78 76", "shop": "bakery", "source": "survey", "wheelchair": "yes"}}, {"type": "node", "id": 9977851288, "lat": 48.8445872, "lon": 2.3186637, "tags": {"name": "Aux Plaisirs Du Palais", "shop": "bakery"}}, {"type": "node", "id": 9993879735, "lat": 48.8524627, "lon": 2.3439441, "tags": {"addr:housenumber": "7", "addr:postcode": "70075", "addr:street": "Boulevard Saint-Michel", "check_date:opening_hours": "2025-08-02", "contact:phone": "+33 1 42 33 49 84", "indoor_seating": "yes", "level": "0", "name": "BO&MIE", "name:en": "BO&MIE", "official_name": "BO&MIE Saint-Michel", "opening_hours": "Mo-Sa 07:30-20:00, Su 08:00-20:00", "outdoor_seating": "yes", "payment:credit_cards": "yes", "payment:debit_cards": "yes", "shop": "bakery", "smoking": "outside", "toilets": "yes", "toilets:disposal": "flush", "toilets:handwashing": "yes", "toilets:paper_supplied": "yes", "toilets:position": "seated", "toilets:wheelchair": "limited", "website": "https://www.boetmie.com", "wheelchair": "yes"}}, {"type": "node", "id": 10019638988, "lat": 48.8580577, "lon": 2.3446087, "tags": {"contact:email": "contact@mercijerome.com", "contact:facebook": "https://www.facebook.com/mercijerome", "contact:instagram": "merci_jerome", "contact:linkedin": "https://www.linkedin.com/company/merci-jerome", "contact:twitter": "https://twitter.com/MerciJerome", "indoor_seating": "yes", "name": "Merci J\u00e9r\u00f4me !", "opening_hours": "Mo-Su 07:00-20:00", "outdoor_seating": "yes", "ref:FR:SIRET": "82467102800028", "shop": "bakery", "smoking": "outside", "website": "https://mercijerome.com", "wheelchair": "limited"}}, {"type": "node", "id": 10134042453, "lat": 48.8643018, "lon": 2.3412401, "tags": {"name": "baguett.", "opening_hours": "Mo-Sa 07:00-20:00, Su 08:00-15:00", "pastry_shop": "yes", "shop": "bakery"}}, {"type": "node", "id": 10136617784, "lat": 48.8475255, "lon": 2.3261627, "tags": {"contact:city": "Paris", "contact:housenumber": "54", "contact:postcode": "75006", "contact:street": "Rue Saint-Placide", "name": "L'\u00c9toile du Berger", "opening_hours": "Mo-Sa 10:30-19:30", "operator": "Au pain rustique", "operator:ref:FR:SIREN": "442306510", "ref:FR:NAF": "10.71D", "ref:FR:SIRET": "44230651000045", "shop": "bakery"}}, {"type": "node", "id": 10179545279, "lat": 48.8635887, "lon": 2.3342819, "tags": {"brand": "Maison Kayser", "brand:wikidata": "Q99231745", "name": "\u00c9ric Kayser", "opening_hours": "07:00-20:30", "ref:FR:SIRET": "41513703300015", "shop": "bakery"}}, {"type": "node", "id": 10221928777, "lat": 48.8648372, "lon": 2.3460734, "tags": {"addr:city": "Paris", "addr:housenumber": "60", "addr:postcode": "75002", "addr:street": "Rue Tiquetonne", "check_date": "2025-09-18", "description": "Anciennement : Nice Things", "diet:gluten_free": "only", "indoor_seating": "yes", "name": "Copains", "opening_hours": "Mo-Sa 08:30-19:30; Su 09:00-17:30", "outdoor_seating": "yes", "ref:FR:SIRET": "89950755200037", "shop": "bakery", "smoking": "outside", "wheelchair": "limited"}}, {"type": "node", "id": 10294659412, "lat": 48.8492625, "lon": 2.3256682, "tags": {"addr:city": "Paris", "addr:housenumber": "50", "addr:postcode": "75006", "addr:street": "Rue du Cherche-Midi", "level": "0", "name": "Boulangerie Hugues Pouget", "payment:cash": "yes", "payment:debit_cards": "yes", "phone": "01 39 18 22 38", "shop": "bakery", "website": "https://www.instagram.com/huguespouget_paris"}}, {"type": "node", "id": 10722173413, "lat": 48.8420436, "lon": 2.298864, "tags": {"addr:city": "Paris", "addr:housenumber": "2", "addr:postcode": "75015", "addr:street": "Rue P\u00e9tel", "bakehouse": "no", "name": "Archibald", "opening_hours": "Mo-Fr 11:30-19:30; Sa 10:00-19:00", "organic": "yes", "outdoor_seating": "no", "phone": "+33 9 87 19 42 41", "shop": "bakery", "website": "https://archibald.bio/"}}, {"type": "node", "id": 10875522644, "lat": 48.8541745, "lon": 2.3248725, "tags": {"check_date": "2025-05-01", "contact:instagram": "https://www.instagram.com/thierrymarxbakery", "level": "0", "name": "Thierry Marx", "opening_hours": "Mo-Su 07:30-19:45", "outdoor_seating": "yes", "phone": "+33 1 43 21 88 56", "shop": "bakery", "source": "survey", "website": "https://thierrymarxbakery.fr/nos-boutiques/"}}, {"type": "node", "id": 10922894856, "lat": 48.8490614, "lon": 2.3290227, "tags": {"name": "Secco", "opening_hours": "Mo-Sa 07:00-20:00; Jan 1,May 1 closed", "shop": "bakery", "website": "https://www.seccoparis.com"}}, {"type": "node", "id": 10967994829, "lat": 48.8714622, "lon": 2.3381511, "tags": {"check_date": "2025-10-17", "name": "Merci J\u00e9r\u00f4me !", "opening_hours": "Mo-Sa 07:00-19:30", "ref:FR:SIRET": "83128332000016", "shop": "bakery"}}, {"type": "node", "id": 11169575739, "lat": 48.8761976, "lon": 2.3266698}, {"type": "node", "id": 11197689055, "lat": 48.8655072, "lon": 2.3363876, "tags": {"brand": "Banette", "brand:wikidata": "Q2882405", "name": "Banette", "ref:FR:SIRET": "92189943100016", "shop": "bakery"}}, {"type": "node", "id": 11333364511, "lat": 48.8751148, "lon": 2.3324825, "tags": {"addr:city": "Paris", "addr:housenumber": "62", "addr:postcode": "75009", "addr:street": "Rue de la Chauss\u00e9e d'Antin", "contact:website": "https://www.delambrebakery.com", "name": "The Delambre Bakery", "opening_hours": "Tu-Sa 12:00-20:00", "operator": "The Delambre Bakery", "shop": "bakery", "wheelchair": "yes"}}, {"type": "node", "id": 11409713764, "lat": 48.8740852, "lon": 2.3466877, "tags": {"addr:city": "Paris", "addr:housenumber": "14", "addr:postcode": "75009", "addr:street": "Rue Richer", "name": "Quignon", "shop": "bakery"}}, {"type": "node", "id": 11682533823, "lat": 48.8410564, "lon": 2.3040844, "tags": {"addr:city": "Paris", "addr:housenumber": "113", "addr:postcode": "75015", "addr:street": "Rue Cambronne", "name": "Quatre Heures - Cambronne", "phone": "+33973504975", "shop": "bakery"}}, {"type": "node", "id": 11727845264, "lat": 48.8447415, "lon": 2.2968706, "tags": {"addr:housenumber": "68", "addr:street": "Rue de la Croix-Nivert", "name": "La craquante de Nivert", "ref:FR:SIRET": "48261127400010", "shop": "bakery"}}, {"type": "node", "id": 11769942500, "lat": 48.8553571, "lon": 2.3248259, "tags": {"indoor_seating": "no", "name": "Pane Vivo", "opening_hours": "Tu-Fr 09:00-14:00,14:30-19:30, Sa 10:30-18:30, Su 09:00-14:00", "outdoor_seating": "no", "shop": "bakery", "takeaway": "only", "website": "https://www.panevivo.com", "wheelchair": "limited"}}, {"type": "node", "id": 11810446323, "lat": 48.8490805, "lon": 2.2986568, "tags": {"name": "Poupart-Piquot", "opening_hours": "Mo-Fr 07:30-20:00, Su 07:00-14:00", "ref:FR:SIRET": "48373475200015", "shop": "bakery"}}, {"type": "node", "id": 11966129578, "lat": 48.8497388, "lon": 2.2948003, "tags": {"check_date": "2024-06-09", "name": "Violette", "opening_hours": "Mo-We,Fr-Su 07:30-20:00", "ref:FR:SIRET": "80204634200019", "shop": "bakery", "wheelchair": "no"}}, {"type": "node", "id": 12002461468, "lat": 48.8436199, "lon": 2.2933561, "tags": {"addr:street": "rue des entrepreneurs", "name": "\u00c0 la petite chocolati\u00e8re", "shop": "bakery"}}, {"type": "node", "id": 12045348022, "lat": 48.8433215, "lon": 2.3141979, "tags": {"name": "florentin", "shop": "bakery"}}, {"type": "node", "id": 12215889779, "lat": 48.8705161, "lon": 2.3098653, "tags": {"brand": "Paul", "brand:wikidata": "Q3370417", "name": "Paul", "shop": "bakery"}}, {"type": "node", "id": 12749260153, "lat": 48.8762269, "lon": 2.3265438, "tags": {"door": "yes", "indoor": "door", "level": "0"}}, {"type": "node", "id": 12833261907, "lat": 48.8746522, "lon": 2.3428699, "tags": {"addr:city": "Paris", "addr:housenumber": "12", "addr:postcode": "75009", "addr:street": "Rue Cadet", "contact:instagram": "victoire.boulangerie", "name": "Boulangerie Victoire", "opening_hours": "Mo-Fr 07:30-20:00, Sa 08:30-19:00", "organic": "yes", "shop": "bakery"}}, {"type": "node", "id": 12881354492, "lat": 48.8469091, "lon": 2.3172188, "tags": {"door": "hinged", "indoor": "door", "level": "0"}}, {"type": "node", "id": 12881354496, "lat": 48.8469326, "lon": 2.3172224, "tags": {"door": "sliding", "indoor": "door", "level": "0"}}, {"type": "node", "id": 12887124837, "lat": 48.8617545, "lon": 2.3472027, "tags": {"addr:door": "Lescot", "amenity": "fast_food", "brand": "Paul", "brand:wikidata": "Q3370417", "check_date": "2025-09-05", "cuisine": "sandwich", "level": "-1", "name": "Paul", "shop": "bakery"}}, {"type": "node", "id": 12964345802, "lat": 48.8675021, "lon": 2.3223862, "tags": {"addr:housenumber": "5", "addr:postcode": "75008", "addr:street": "Rue Royale", "name": "Copains", "shop": "bakery"}}, {"type": "node", "id": 13249545401, "lat": 48.865148, "lon": 2.3343899, "tags": {"addr:housenumber": "9", "addr:postcode": "75001", "addr:street": "Avenue de l'Op\u00e9ra", "name": "Copains Op\u00e9ra", "opening_hours": "Mo-Su 08:00-20:00", "phone": "+33 6 59 18 72 55", "shop": "bakery", "website": "https://www.copains-paris.com"}}, {"type": "way", "id": 104212749, "nodes": [1202459182, 1686624457, 1202447063, 1202455173, 1202459182], "tags": {"addr:postcode": "75001", "addr:street": "Jardins des Tuileries", "brand": "Eric Kayser", "brand:wikidata": "Q99231745", "building": "yes", "check_date": "2025-08-18", "check_date:opening_hours": "2025-08-18", "description": "Anciennement :Paul", "indoor_seating": "no", "name": "Eric Kayser", "opening_hours:signed": "no", "outdoor_seating": "yes", "pastry": "yes", "shop": "bakery", "smoking": "separated", "wheelchair": "yes"}}, {"type": "way", "id": 318987127, "nodes": [3253932054, 3253932052, 3253932047, 3253932049, 3253932054], "tags": {"indoor": "room", "indoor_seating": "no", "level": "1", "name": "Bread and co", "outdoor_seating": "no", "room": "shop", "shop": "bakery", "takeaway": "only", "wheelchair": "yes"}}, {"type": "way", "id": 333276713, "nodes": [3403997969, 3403997963, 3403997962, 3403997965, 3403997968, 3403997970, 3403997969], "tags": {"addr:city": "Paris", "brand": "Paul", "brand:wikidata": "Q3370417", "brand:wikipedia": "en:Paul (bakery)", "indoor": "room", "indoor_seating": "no", "level": "1", "name": "Paul", "opening_hours": "Mo-Fr 07:30-20:00; Sa 09:00-20:00", "outdoor_seating": "no", "phone": "+33 1 40 06 01 07", "shop": "bakery", "takeaway": "only", "website": "https://st-lazare-paris.klepierre.fr/Restaurants/PAUL-Niveau-Trains", "wheelchair": "yes"}}, {"type": "way", "id": 333285225, "nodes": [3408538489, 3408538488, 3405125706, 3405125705, 6808202517, 3404064043, 6811563082, 3408538489], "tags": {"brand": "Millie's Cookies", "brand:wikidata": "Q1935533", "indoor": "room", "indoor_seating": "no", "level": "1", "name": "Millie's Cookies", "outdoor_seating": "no", "shop": "bakery", "takeaway": "only"}}, {"type": "way", "id": 333395318, "nodes": [3405089391, 3270877334, 3405089392, 3405092993, 3405089391], "tags": {"brand": "Paul", "brand:wikidata": "Q3370417", "brand:wikipedia": "en:Paul (bakery)", "cuisine": "sandwich", "indoor": "room", "layer": "-1", "level": "1", "name": "Paul", "shop": "bakery", "wheelchair": "yes"}}, {"type": "way", "id": 333415668, "nodes": [3408677907, 3403997943, 3405286968, 3405286970, 3405286969, 3408677907], "tags": {"indoor": "room", "indoor_seating": "yes", "level": "1", "name": "Dalloyau", "outdoor_seating": "no", "shop": "bakery", "wheelchair": "yes"}}, {"type": "way", "id": 333427923, "nodes": [3405393717, 3405404911, 3405393722, 3405404909, 3405404904, 4039973257, 3405393717], "tags": {"check_date:opening_hours": "2023-12-29", "indoor": "room", "indoor_seating": "no", "level": "0", "name": "Ladur\u00e9e", "opening_hours:signed": "no", "outdoor_seating": "no", "shop": "bakery", "takeaway": "only", "wheelchair": "yes"}}, {"type": "way", "id": 333441270, "nodes": [3405520837, 3405520836, 3410804476, 3405520839, 3405520837], "tags": {"brand": "Paul", "brand:wikidata": "Q3370417", "brand:wikipedia": "en:Paul (bakery)", "cuisine": "french", "indoor": "room", "layer": "-1", "level": "-1", "name": "Paul", "sandwich": "yes", "shop": "bakery", "website": "http://stlazareparis.com/boutiques/boulangerie-paul/", "wheelchair": "yes"}}, {"type": "way", "id": 346655284, "nodes": [829929116, 3531675800, 3531675801, 3531674608, 829929116], "tags": {"addr:city": "Paris", "addr:housenumber": "107", "addr:postcode": "75009", "addr:street": "Rue Saint-Lazare", "indoor": "room", "level": "0", "name": "Maison Pradier", "opening_hours": "Mo-Sa 07:30-19:00", "phone": "+33 1 47 05 77 08", "shop": "bakery", "website": "https://www.maisonpradier.com/"}}, {"type": "way", "id": 422057927, "nodes": [4217750754, 4217750755, 4217750738, 4217750737, 6112597012, 4217750754], "tags": {"indoor": "room", "level": "-2", "name": "Bonne journ\u00e9e", "room": "shop", "shop": "bakery", "source": "SNCF Transilien - Plans d'architecte et plan de communication - Prestation de saisie r\u00e9alis\u00e9e par Arx IT en hiver 2016"}}, {"type": "way", "id": 451555430, "nodes": [4483747949, 4496965207, 4483771080, 4483771075, 4483771082, 4483771068, 4483747949], "tags": {"air_conditioning": "yes", "amenity": "fast_food", "brand": "Paul", "brand:wikidata": "Q3370417", "cuisine": "sandwich", "indoor": "room", "indoor_seating": "yes", "level": "-2", "location": "underground", "name": "Paul", "opening_hours": "We-Mo 10:30-17:30", "operator": "Paul", "outdoor_seating": "no", "shop": "bakery", "source": "survey", "takeaway": "yes", "wheelchair": "yes"}}, {"type": "way", "id": 512295050, "nodes": [5009327628, 5009327644, 5009327637, 5009327627, 5009327621, 5009327628], "tags": {"brand": "Brioche Dor\u00e9e", "brand:website": "https://www.briochedoree.fr", "brand:wikidata": "Q2925606", "brand:wikipedia": "fr:Brioche dor\u00e9e", "contact:phone": "+33 1 40 13 76 79", "cuisine": "french;sandwich", "indoor": "room", "indoor_seating": "yes", "level": "-4", "name": "Brioche Dor\u00e9e", "operator": "Groupe Le Duff", "outdoor_seating": "no", "ref:FR:SIRET": "31890659101890", "room": "yes", "shop": "bakery", "smoking": "no", "source": "survey", "website": "https://www.briochedoree.fr/restaurants/65-paris-1er-forum-des-halles-1-rue-basse", "wheelchair": "yes"}}, {"type": "way", "id": 678143992, "nodes": [6349589359, 6349589357, 6349589358, 801265299, 801200358, 12881354496, 12881354492, 6349589361, 6349589359], "tags": {"brand": "Eric Kayser", "brand:wikidata": "Q99231745", "check_date": "2025-10-10", "contact:housenumber": "1", "contact:street": "Boulevard du Montparnasse", "indoor": "room", "level": "0", "name": "Eric Kayser", "opening_hours": "Mo-Sa 07:00-20:30", "pastry": "yes", "phone": "+33 1 47 83 75 39", "room": "shop", "shop": "bakery", "website": "https://www.maison-kayser.com/", "wheelchair": "yes"}}, {"type": "way", "id": 679756913, "nodes": [6364850715, 6364850720, 6367483532, 6367483533, 6364850718, 6364850715], "tags": {"indoor": "room", "level": "-2", "name": "Lunch Team Caf\u00e9", "room": "shop", "shop": "bakery"}}, {"type": "way", "id": 680054617, "nodes": [6362647845, 6367483780, 6367483779, 6367483778, 6362647839, 6362647845], "tags": {"amenity": "fast_food", "brand": "La Croissanterie", "brand:wikidata": "Q3207961", "cuisine": "sandwich", "indoor": "room", "level": "-3", "name": "La Croissanterie", "room": "shop", "shop": "bakery", "takeaway": "yes", "wheelchair": "limited"}}, {"type": "way", "id": 1059386058, "nodes": [9733510955, 9733510563, 9733510560, 9733510251, 9733510561, 9733510562, 9733511927, 9733511928, 9733511929, 9733511930, 9733511931, 9733511932, 9733511933, 6135090710, 9733510250, 9733510248, 9733510246, 9733510247, 9733510249, 6631790524, 6631790523, 9733510977, 3965473645, 9733510954, 9733510950, 9733507688, 9733507689, 9733510951, 9733510952, 9733507686, 9733507687, 9733510953, 9733510955], "tags": {"amenity": "fast_food", "brand": "Paul", "brand:wikidata": "Q3370417", "cuisine": "sandwich", "indoor": "room", "indoor_seating": "no", "level": "2", "name": "Paul", "outdoor_seating": "no", "shop": "bakery", "takeaway": "only"}}, {"type": "way", "id": 1060650606, "nodes": [9744971474, 9744971473, 9744971472, 9744971471, 9744971470, 9744971469, 9744971468, 9744971467, 9744971500, 9744971466, 9744971465, 9744971464, 9744971463, 9744971462, 9744971461, 9744971460, 9744971459, 9744971458, 9744971457, 9744971456, 9744971455, 9744971454, 9744971453, 9744971452, 9744971451, 9744971450, 9744971449, 9744971448, 9744971447, 9744971446, 9744971445, 9744971444, 9744971443, 9744971442, 9744971441, 9744971474], "tags": {"brand": "Paul", "brand:wikidata": "Q3370417", "indoor": "room", "level": "0", "name": "Paul", "shop": "bakery"}}, {"type": "way", "id": 1063336602, "nodes": [9767671966, 9767671965, 9767671964, 4025400491, 9767671946, 9738083187, 9738083184, 9767671945, 9767671943, 9735473542, 9735473541, 9767671944, 4025428535, 9767671891, 9767671890, 9767671888, 9767671889, 9767671892, 4025588396, 9767671825, 9767671973, 9767671972, 9767671824, 9767671971, 9767671970, 9735473545, 9735473544, 9735473543, 9767671969, 9767671967, 9738083189, 9738083190, 9767671968, 9767671966], "tags": {"amenity": "fast_food", "brand": "Paul", "brand:wikidata": "Q3370417", "cuisine": "sandwich", "indoor": "room", "level": "-1", "name": "Paul", "opening_hours": "Mo-Fr 06:15-20:00, Sa 07:00-17:00, Su 08:00-18:00", "shop": "bakery", "website": "https://www.paul.fr/stores/gare_de_paris_montparnasse_paul_le_cafe"}}, {"type": "way", "id": 1205208550, "nodes": [3405488122, 4039973259, 4039973258, 3410839806, 12749260153, 4039973250, 790027923, 11169575739, 3405488122], "tags": {"check_date": "2025-04-12", "indoor": "room", "level": "0", "name": "Aux Merveilleux", "shop": "bakery"}}]}