{"version": 0.6, "generator": "Overpass API 0.7.62.8 e802775f", "osm3s": {"timestamp_osm_base": "2025-12-05T11:47:54Z", "copyright": "The data included in this document is from www.openstreetmap.org. The data is made available under ODbL."}, "elements": [{"type": "node", "id": 438704618, "lat": -23.5629592, "lon": -46.5074781}, {"type": "node", "id": 438714761, "lat": -23.5639991, "lon": -46.5067114}, {"type": "node", "id": 438714765, "lat": -23.5640183, "lon": -46.505361}, {"type": "node", "id": 1252703194, "lat": -23.5704217, "lon": -46.5075406, "tags": {"addr:city": "S\u00e3o Paulo", "bus": "yes", "description": "Ref.: R Minerios Atomicos/ R Sirido", "gtfs_id": "40012292", "highway": "bus_stop", "name": "Avenida Rio Das Pedras, 2022", "network": "SPTrans", "network:wikidata": "Q7392689", "public_transport": "platform", "route_ref": "2290-10;3023-10;342M-10;3778-10;4002-10;4008-10;4010-10;4014-10;4030-10;407J-10;407Y-10;573T-10;573T-31;N404-11", "trolleybus": "yes", "wheelchair": "yes"}}, {"type": "node", "id": 1252705250, "lat": -23.5704903, "lon": -46.5071218, "tags": {"addr:city": "S\u00e3o Paulo", "bus": "yes", "description": "Ref.: R Minerios Atomicos/ R Sirido", "gtfs_id": "40012305", "highway": "bus_stop", "name": "Avenida Rio Das Pedras, 1939", "network": "SPTrans", "network:wikidata": "Q7392689", "public_transport": "platform", "route_ref": "2290-10;2290-21;3023-10;342M-10;3778-10;4002-10;4008-10;4010-10;4014-10;4030-10;407J-10;407Y-10;573T-10;573T-31;N404-11", "trolleybus": "yes", "wheelchair": "yes"}}, {"type": "node", "id": 1252707348, "lat": -23.5701292, "lon": -46.5087529, "tags": {"addr:city": "S\u00e3o Paulo", "bus": "yes", "gtfs_id": "40005551", "gtfs_stop_desc": "Ref.: R Engenheiro Guilherme Cristiano Frender/ Av Rio Das Pedras", "highway": "bus_stop", "name": "Avenida Inconfid\u00eancia Mineira, 2050", "network": "SPTrans", "network:wikidata": "Q7392689", "public_transport": "platform", "route_ref": "3134-10;3729-10;407A-10;407Y-10;507T-10;524M-10"}}, {"type": "node", "id": 1252708312, "lat": -23.5705708, "lon": -46.5094424, "tags": {"addr:city": "S\u00e3o Paulo", "bus": "yes", "departures_board": "yes", "gtfs_id": "409050", "highway": "bus_stop", "name": "Avenida Inconfid\u00eancia Mineira, 1997", "network": "SPTrans", "network:wikidata": "Q7392689", "public_transport": "platform", "route_ref": "3134-10;3729-10;407A-10;407Y-10;507T-10;524M-10", "shelter": "no", "wheelchair": "yes"}}, {"type": "node", "id": 1252711037, "lat": -23.5716126, "lon": -46.5106039, "tags": {"addr:city": "S\u00e3o Paulo", "bus": "yes", "gtfs_id": "40005550", "gtfs_stop_desc": "Ref.: R Refinaria Mataripe/ R Lucilia de Camargo Barbosa", "highway": "bus_stop", "name": "Avenida Inconfid\u00eancia Mineira, 1827", "network": "SPTrans", "network:wikidata": "Q7392689", "public_transport": "platform", "route_ref": "3134-10;3729-10;407A-10;407Y-10;507T-10;524M-10"}}, {"type": "node", "id": 1252711040, "lat": -23.5723258, "lon": -46.5110928, "tags": {"addr:city": "S\u00e3o Paulo", "bus": "yes", "gtfs_id": "40005549", "gtfs_stop_desc": "Ref.: R Julio Parigot/ R Refinaria Mataripe", "highway": "bus_stop", "name": "Avenida Inconfid\u00eancia Mineira, 1738", "network": "SPTrans", "network:wikidata": "Q7392689", "public_transport": "platform", "route_ref": "3134-10;3729-10;407A-10;407Y-10;507T-10;524M-10"}}, {"type": "node", "id": 2066354440, "lat": -23.5690885, "lon": -46.5089382, "tags": {"addr:city": "S\u00e3o Paulo", "addr:housenumber": "1712", "addr:postcode": "03452-100", "addr:street": "Avenida Rio das Pedras", "bench": "yes", "bus": "yes", "departures_board": "yes", "description": "Ref.: Pc Aguim/ R Padre Manuel Luis de Vergueiro", "gtfs_id": "40012291", "highway": "bus_stop", "lit": "yes", "name": "Avenida Rio Das Pedras, 1746", "network": "SPTrans", "network:wikidata": "Q7392689", "operator": "SPTrans", "public_transport": "platform", "route_ref": "2290-10;342M-10;3729-10;3778-10;4002-10;4008-10;4010-10;4014-10;4030-10;407J-10;507T-10;524M-10;573T-10;573T-31;N404-11", "shelter": "yes", "trolleybus": "yes", "wheelchair": "yes"}}, {"type": "node", "id": 2066361557, "lat": -23.5657598, "lon": -46.5124839, "tags": {"addr:city": "S\u00e3o Paulo", "addr:housenumber": "1200", "addr:street": "Avenida Rio das Pedras", "bus": "yes", "description": "Ref.: R Presidente Bernardes/ R Forte de Sao Pedro", "gtfs_id": "40012289", "highway": "bus_stop", "network": "SPTrans", "network:wikidata": "Q7392689", "network:wikipedia": "pt:S\u00e3o Paulo Transporte", "public_transport": "platform", "route_ref": "2290-10;3032-10;342M-10;3778-10;4002-10;4008-10;4010-10;4014-10;407J-10;507T-10;573T-10;573T-31;N404-11", "trolleybus": "yes", "wheelchair": "yes"}}, {"type": "node", "id": 2066361563, "lat": -23.5642423, "lon": -46.5137388, "tags": {"addr:city": "S\u00e3o Paulo", "addr:housenumber": "1017", "addr:postcode": "03453-000", "addr:street": "Avenida Rio das Pedras", "bench": "yes", "bus": "yes", "departures_board": "yes", "description": "Ref.: R Forte de Sao Pedro/ R Adelino Ferreira", "gtfs_id": "40012308", "highway": "bus_stop", "lit": "yes", "name": "Avenida Rio Das Pedras, 1023", "network": "SPTrans", "network:wikidata": "Q7392689", "public_transport": "platform", "route_ref": "2290-10;2290-21;3032-10;342M-10;3778-10;4002-10;4008-10;4010-10;4014-10;407J-10;507T-10;573T-10;573T-31;N404-11", "shelter": "yes", "trolleybus": "yes", "wheelchair": "yes"}}, {"type": "node", "id": 2066361568, "lat": -23.5666666, "lon": -46.5111547, "tags": {"addr:city": "S\u00e3o Paulo", "addr:housenumber": "1355", "addr:postcode": "03453-000", "addr:street": "Avenida Rio das Pedras", "bus": "yes", "departures_board": "yes", "description": "Ref.: R Presidente Bernardes/ R Forte de Sao Pedro", "gtfs_id": "40012307", "highway": "bus_stop", "network": "SPTrans", "network:wikidata": "Q7392689", "public_transport": "platform", "route_ref": "2290-10;2290-21;3032-10;342M-10;3778-10;4002-10;4008-10;4010-10;4014-10;407J-10;507T-10;573T-10;573T-31;N404-11", "trolleybus": "yes", "wheelchair": "yes"}}, {"type": "node", "id": 2066361571, "lat": -23.5681308, "lon": -46.5096352, "tags": {"addr:city": "S\u00e3o Paulo", "bus": "yes", "description": "Ref.: Av Odilon Pires/ R Padre Manuel Luis de Vergueiro", "gtfs_id": "40012306", "highway": "bus_stop", "name": "Avenida Rio Das Pedras, 1649", "network": "SPTrans", "network:wikidata": "Q7392689", "public_transport": "platform", "route_ref": "2290-10;2290-21;3032-10;342M-10;3729-10;3778-10;4002-10;4008-10;4010-10;4014-10;407A-10;407J-10;507T-10;524M-10;573T-10;573T-31;N404-11", "trolleybus": "yes", "wheelchair": "yes"}}, {"type": "node", "id": 2066361573, "lat": -23.5673823, "lon": -46.5108009, "tags": {"addr:city": "S\u00e3o Paulo", "addr:housenumber": "1458", "addr:street": "Avenida Rio das Pedras", "bus": "yes", "departures_board": "yes", "description": "Ref.: Rua Odilon Pires", "gtfs_id": "409059", "highway": "bus_stop", "network": "SPTrans", "network:wikidata": "Q7392689", "operator": "SPTrans", "public_transport": "platform", "route_ref": "2290-10;342M-10;3729-10;3778-10;4002-10;4008-10;4010-10;4014-10;4030-10;407J-10;507T-10;524M-10;573T-10;573T-31;N404-11", "trolleybus": "yes", "wheelchair": "yes"}}, {"type": "node", "id": 2331054578, "lat": -23.5676564, "lon": -46.523034, "tags": {"addr:city": "S\u00e3o Paulo", "addr:housenumber": "332", "addr:street": "Avenida Dom Azeredo Coutinho", "bench": "no", "bus": "yes", "covered": "yes", "departures_board": "no", "gtfs_id": "40008556", "gtfs_stop_desc": "Ref.: R Oliveira Fagundes / Rua Rio Pari", "highway": "bus_stop", "name": "Avenida Dom Azeredo Coutinho, 332", "network": "SPTrans", "network:wikidata": "Q7392689", "public_transport": "platform", "route_ref": "N434-11;351F-10;574J-10", "shelter": "yes"}}, {"type": "node", "id": 2331054580, "lat": -23.5645496, "lon": -46.5213348, "tags": {"addr:city": "S\u00e3o Paulo", "addr:housenumber": "460", "addr:postcode": "03471-130", "addr:street": "Rua Ol\u00edmpio de Campos", "bus": "yes", "departures_board": "yes", "description": "Ref.: R Julio Cesar Porto/ R Engenheiro Paulino Francisco de Carvalho", "gtfs_id": "40008560", "highway": "bus_stop", "network": "SPTrans", "network:wikidata": "Q7392689", "public_transport": "platform", "route_ref": "N434-11;351F-10;574J-10", "wheelchair": "yes"}}, {"type": "node", "id": 2331054581, "lat": -23.5678513, "lon": -46.5235851, "tags": {"addr:city": "S\u00e3o Paulo", "addr:housenumber": "86", "addr:street": "Rua Rio Pari", "bus": "yes", "departures_board": "yes", "gtfs_id": "40008552", "gtfs_stop_desc": "Ref.: Av Dom Azeredo Coutinho/ Av Carneiro Ribeiro", "highway": "bus_stop", "name": "Avenida Rio Pari, 86", "network": "SPTrans", "network:wikidata": "Q7392689", "public_transport": "platform", "route_ref": "N434-11;351F-10;574J-10"}}, {"type": "node", "id": 2331054582, "lat": -23.5672862, "lon": -46.5234325, "tags": {"addr:city": "S\u00e3o Paulo", "addr:housenumber": "32;54", "addr:street": "Rua Rio Pari", "bus": "yes", "departures_board": "yes", "gtfs_id": "40008555", "gtfs_stop_desc": "Avenida Rio Pari, 54 Ref.: Av Dom Azevedo Coutinho/ Av Carneiro Ribeiro", "highway": "bus_stop", "network": "SPTrans", "network:wikidata": "Q7392689", "public_transport": "platform", "route_ref": "3139-10", "shelter": "yes"}}, {"type": "node", "id": 2752146819, "lat": -23.5992946, "lon": -46.4959234, "tags": {"addr:city": "S\u00e3o Paulo", "addr:country": "BR", "bus": "yes", "description": "Ref.: Av Engenho Novo", "gtfs_id": "750006188", "highway": "bus_stop", "name": "Rua Ijaci, 15", "network": "SPTRANS", "route_ref": "3054-10;573T-10;573T-31"}}, {"type": "node", "id": 3043173115, "lat": -23.5911079, "lon": -46.5296492, "tags": {"addr:city": "S\u00e3o Paulo", "bus": "yes", "departures_board": "no", "description": "Ref.: Rua Jose Ingenieros/ Rua Professor Cortines Laxo", "gtfs_id": "780006360", "highway": "bus_stop", "name": "Avenida Francisco Vieira Bueno, 156", "network": "SPTrans", "network:wikidata": "Q7392689", "public_transport": "platform", "route_ref": "N536-11;373T-10", "shelter": "no"}}, {"type": "node", "id": 3044501918, "lat": -23.5903085, "lon": -46.5304097, "tags": {"addr:city": "S\u00e3o Paulo", "bus": "yes", "departures_board": "no", "description": "Ref.: Rua Professor Cortines Laxo/ Rua Desembargador Veloso de Oliveira", "gtfs_id": "780006361", "highway": "bus_stop", "name": "Avenida Francisco Vieira Bueno, 23", "network": "SPTrans", "network:wikidata": "Q7392689", "public_transport": "platform", "route_ref": "N536-11;373T-10;514T-10"}}, {"type": "node", "id": 3044501919, "lat": -23.5920413, "lon": -46.5284463, "tags": {"addr:city": "S\u00e3o Paulo", "bus": "yes", "departures_board": "no", "description": "Ref.: R Frederico Jahn/ R Chiquinha Gonzaga", "gtfs_id": "780006359", "highway": "bus_stop", "name": "Avenida Francisco Vieira Bueno, 309", "network": "SPTrans", "network:wikidata": "Q7392689", "public_transport": "platform", "route_ref": "N536-11;373T-10;514T-10"}}, {"type": "node", "id": 3044812007, "lat": -23.5846079, "lon": -46.5195714, "tags": {"addr:city": "S\u00e3o Paulo", "addr:housenumber": "78", "addr:street": "Avenida Inconfid\u00eancia Mineira", "bus": "yes", "departures_board": "yes", "gtfs_id": "40005534", "gtfs_stop_desc": "Ref.: R Araguaci/ R Padre Jose Carlos Correia Toledo", "highway": "bus_stop", "network": "SPTrans", "network:wikidata": "Q7392689", "public_transport": "platform", "route_ref": "3134-10;3729-10;3762-10;407A-10;507T-10;524M-10;574W-10", "shelter": "no"}}, {"type": "node", "id": 3405908703, "lat": -23.5672832, "lon": -46.5270975, "tags": {"addr:city": "S\u00e3o Paulo", "addr:housenumber": "1712", "addr:street": "Avenida Jo\u00e3o XXIII", "bus": "yes", "covered": "yes", "description": "Ref.: Av Carneiro Ribeiro/ Av Alberto Camus", "gtfs_id": "40012590", "highway": "bus_stop", "name": "Avenida Jo\u00e3o XxIII, 1710", "network": "SPTRANS", "public_transport": "platform", "route_ref": "N401-11;2100-10;233C-10;407R-10", "shelter": "yes", "trolleybus": "yes", "wheelchair": "yes"}}, {"type": "node", "id": 3405908707, "lat": -23.5705793, "lon": -46.5303117, "tags": {"addr:city": "S\u00e3o Paulo", "addr:housenumber": "1260", "addr:street": "Avenida Jo\u00e3o XXIII", "bus": "yes", "covered": "yes", "departures_board": "yes", "description": "Ref.: R Andre Santo/ Av Monsenhor Antonio de Castro", "gtfs_id": "40012592", "highway": "bus_stop", "name": "Avenida Jo\u00e3o XXIII, 1250", "network": "SPTrans", "network:wikidata": "Q7392689", "public_transport": "platform", "route_ref": "574J-10;N401-11;2100-10;233C-10;3745-10;407R-10", "shelter": "yes", "trolleybus": "yes", "wheelchair": "yes"}}, {"type": "node", "id": 4574116859, "lat": -23.5847447, "lon": -46.5338435, "tags": {"addr:city": "S\u00e3o Paulo", "addr:housenumber": "6067A", "addr:postcode": "03374-000", "addr:street": "Avenida Sapopemba", "bus": "yes", "departures_board": "yes", "description": "Ref.: Rua Fernando Torquato/ Rua Gaspar Dos Santos", "gtfs_id": "780006661", "highway": "bus_stop", "network": "SPTrans", "network:wikidata": "Q7392689", "network:wikipedia": "pt:S\u00e3o Paulo Transporte", "public_transport": "platform", "route_ref": "3141-10;414P-10;5141-10;5144-10;574R-10;N503-11", "shelter": "no"}}, {"type": "node", "id": 4574117854, "lat": -23.5854241, "lon": -46.5336852, "tags": {"addr:city": "S\u00e3o Paulo", "addr:housenumber": "6110", "addr:postcode": "03374-000", "addr:street": "Avenida Sapopemba", "bench": "yes", "bus": "yes", "departures_board": "yes", "description": "Ref.: R Fernando Torquato/ R Gaspar Dos Santos", "gtfs_id": "780006662", "highway": "bus_stop", "lit": "yes", "network": "SPTrans", "network:wikidata": "Q7392689", "network:wikipedia": "pt:S\u00e3o Paulo Transporte", "public_transport": "platform", "route_ref": "3141-10;414P-10;5141-10;5144-10;574R-10;N503-11", "shelter": "yes", "wheelchair": "yes"}}, {"type": "node", "id": 4574118101, "lat": -23.5868188, "lon": -46.5327534, "tags": {"addr:city": "S\u00e3o Paulo", "addr:housenumber": "6325", "addr:postcode": "03374-000", "addr:street": "Avenida Sapopemba", "bus": "yes", "departures_board": "yes", "description": "Ref.: Rua Gaspar Dos Santos/ Rua Ernesto Fogo", "gtfs_id": "780006663", "highway": "bus_stop", "network": "SPTrans", "network:wikidata": "Q7392689", "network:wikipedia": "pt:S\u00e3o Paulo Transporte", "public_transport": "platform", "route_ref": "3141-10;414P-10;5141-10;5144-10;574R-10;N503-11", "shelter": "no"}}, {"type": "node", "id": 4574118161, "lat": -23.5872984, "lon": -46.532604, "tags": {"addr:city": "S\u00e3o Paulo", "addr:housenumber": "6378", "addr:postcode": "03374-001", "addr:street": "Avenida Sapopemba", "bus": "yes", "departures_board": "yes", "description": "Ref.: Rua Ernesto Fogo/ Rua Pedro Vitorato", "gtfs_id": "780006664", "highway": "bus_stop", "network": "SPTrans", "network:wikidata": "Q7392689", "network:wikipedia": "pt:S\u00e3o Paulo Transporte", "public_transport": "platform", "route_ref": "3141-10;414P-10;5141-10;5144-10;574R-10;N503-11", "shelter": "no"}}, {"type": "node", "id": 4574119552, "lat": -23.588321, "lon": -46.5322082, "tags": {"addr:city": "S\u00e3o Paulo", "addr:housenumber": "6495", "addr:postcode": "03374-000", "addr:street": "Avenida Sapopemba", "bench": "yes", "bus": "yes", "departures_board": "yes", "description": "Ref.: Rua Antonio De Paula Souza/ Rua Nicola Farelli", "gtfs_id": "780006665", "highway": "bus_stop", "lit": "yes", "network": "SPTrans", "network:wikidata": "Q7392689", "network:wikipedia": "pt:S\u00e3o Paulo Transporte", "public_transport": "platform", "route_ref": "3141-10;373T-10;414P-10;4729-10;5141-10;5144-10;514T-10;574R-10;N503-11;N536-11", "shelter": "yes", "wheelchair": "yes"}}, {"type": "node", "id": 4574120830, "lat": -23.592381, "lon": -46.5292891, "tags": {"addr:city": "S\u00e3o Paulo", "addr:housenumber": "7090", "addr:postcode": "03374-000", "addr:street": "Avenida Sapopemba", "bench": "yes", "bus": "yes", "departures_board": "yes", "description": "Ref.: Rua Tales/ Rua Posidonio", "gtfs_id": "780006669", "highway": "bus_stop", "network": "SPTrans", "network:wikidata": "Q7392689", "network:wikipedia": "pt:S\u00e3o Paulo Transporte", "public_transport": "platform", "route_ref": "3141-10;373T-10;414P-10;4729-10;5141-10;5144-10;514T-10;574R-10;N503-11", "shelter": "no", "wheelchair": "no"}}, {"type": "node", "id": 4574121834, "lat": -23.590932, "lon": -46.5313699, "tags": {"addr:city": "S\u00e3o Paulo", "addr:housenumber": "6818", "addr:postcode": "03374-000", "addr:street": "Avenida Sapopemba", "bench": "yes", "bus": "yes", "departures_board": "yes", "description": "Ref.: Rua Mossoro/ Rua Aureliano Do Amaral", "gtfs_id": "780006667", "highway": "bus_stop", "lit": "yes", "network": "SPTrans", "network:wikidata": "Q7392689", "network:wikipedia": "pt:S\u00e3o Paulo Transporte", "public_transport": "platform", "route_ref": "3141-10;373T-10;414P-10;4729-10;5141-10;5144-10;514T-10;574R-10;N503-11", "shelter": "yes", "wheelchair": "yes"}}, {"type": "node", "id": 4574122197, "lat": -23.5912009, "lon": -46.5305829, "tags": {"addr:city": "S\u00e3o Paulo", "addr:housenumber": "6897", "addr:postcode": "03374-001", "addr:street": "Avenida Sapopemba", "bench": "yes", "bus": "yes", "departures_board": "yes", "description": "Ref.: R Joao Tauler/ R Tales", "gtfs_id": "780006668", "highway": "bus_stop", "lit": "yes", "network": "SPTrans", "network:wikidata": "Q7392689", "network:wikipedia": "pt:S\u00e3o Paulo Transporte", "public_transport": "platform", "route_ref": "3141-10;373T-10;414P-10;4729-10;5141-10;5144-10;514T-10;N503-11;N536-11", "shelter": "yes", "wheelchair": "yes"}}, {"type": "node", "id": 4574124312, "lat": -23.5931869, "lon": -46.5282021, "tags": {"bus": "yes", "departures_board": "no", "description": "Ref.: Rua Posidonio/ Rua Antonio Muniz Fagundes", "gtfs_id": "780006670", "highway": "bus_stop", "name": "Avenida Sapopemba, 7235", "network": "SPTrans", "network:wikidata": "Q7392689", "public_transport": "platform", "route_ref": "3141-10;373T-10;414P-10;4729-10;5141-10;5144-10;514T-10;N503-11;N536-11", "shelter": "yes", "wheelchair": "limited"}}, {"type": "node", "id": 4574137198, "lat": -23.594894, "lon": -46.5250431, "tags": {"bus": "yes", "departures_board": "no", "description": "Ref.: Rua Henoch Gawendo/ Rua Cruz Machado", "gtfs_id": "780006672", "highway": "bus_stop", "name": "Avenida Sapopemba, 7621", "network": "SPTrans", "network:wikidata": "Q7392689", "public_transport": "platform", "route_ref": "3141-10;4729-10;5141-10;5144-10;574R-10;N503-11"}}, {"type": "node", "id": 4574137200, "lat": -23.5945619, "lon": -46.5268424, "tags": {"addr:city": "S\u00e3o Paulo", "addr:housenumber": "7436", "addr:postcode": "03374-000", "addr:street": "Avenida Sapopemba", "bus": "yes", "departures_board": "yes", "description": "Ref.: Rua Doutor Eugenio Casillo/ Rua Padre Atilio Garret", "gtfs_id": "780006671", "highway": "bus_stop", "network": "SPTrans", "network:wikidata": "Q7392689", "network:wikipedia": "pt:S\u00e3o Paulo Transporte", "public_transport": "platform", "route_ref": "3141-10;373T-10;414P-10;4729-10;5141-10;5144-10;514T-10;574R-10;N503-11", "shelter": "no", "wheelchair": "yes"}}, {"type": "node", "id": 4574167103, "lat": -23.5953442, "lon": -46.5245825, "tags": {"bus": "yes", "departures_board": "no", "description": "Ref.: Rua Euclides Coelho/ Avenida Vila Ema", "gtfs_id": "780006755", "highway": "bus_stop", "name": "Avenida Sapopemba, 7688", "network": "SPTrans", "network:wikidata": "Q7392689", "public_transport": "platform", "route_ref": "3141-10;414P-10;4729-10;5141-10;5144-10;574R-10;N503-11"}}, {"type": "node", "id": 4574171824, "lat": -23.5962074, "lon": -46.523737, "tags": {"bus": "yes", "departures_board": "yes", "description": "Ref.: Rua Castro Avelaens", "gtfs_id": "780006756", "highway": "bus_stop", "name": "Avenida Sapopemba, 7817", "network": "SPTrans", "network:wikidata": "Q7392689", "network:wikipedia": "pt:S\u00e3o Paulo Transporte", "public_transport": "platform", "route_ref": "3021-10;3141-10;3390-10;364A-10;4029-10;4729-10;513C-10;513C-31;5141-10;5144-10;574C-10;574R-10;N503-11"}}, {"type": "node", "id": 4574183034, "lat": -23.5973965, "lon": -46.522999, "tags": {"bus": "yes", "departures_board": "no", "description": "Ref.: Tr Alberto Mendoza/ Tr Ester Gawendo", "gtfs_id": "780006757", "highway": "bus_stop", "name": "Avenida Sapopemba, 7974", "network": "SPTrans", "network:wikidata": "Q7392689", "public_transport": "platform", "route_ref": "3021-10;3141-10;3390-10;364A-10;4029-10;4033-10;4729-10;513C-10;513C-31;5141-10;5144-10;574C-10;574R-10;N503-11"}}, {"type": "node", "id": 4574184059, "lat": -23.5984274, "lon": -46.5206638, "tags": {"bus": "yes", "description": "Ref.: Rua Treze De Agosto/ Rua Cesar Esposito", "gtfs_id": "780006759", "highway": "bus_stop", "name": "Avenida Sapopemba, 8267", "network": "SPTrans", "network:wikidata": "Q7392689", "public_transport": "platform", "route_ref": "3021-10;3141-10;3390-10;364A-10;4029-10;4033-10;4729-10;513C-10;513C-31;5141-10;5144-10;574C-10;574R-10;N503-11"}}, {"type": "node", "id": 4574184083, "lat": -23.5986443, "lon": -46.5199782, "tags": {"bus": "yes", "description": "Ref.: Rua Cesar Esposito/ Rua Manuel De Arruda Castanho", "gtfs_id": "780006760", "highway": "bus_stop", "name": "Avenida Sapopemba, 8327", "network": "SPTrans", "network:wikidata": "Q7392689", "public_transport": "platform", "route_ref": "3021-10;3141-10;3390-10;364A-10;4029-10;4033-10;4729-10;513C-10;513C-31;5141-10;5144-10;574C-10;574R-10;N503-11"}}, {"type": "node", "id": 4574184101, "lat": -23.597604, "lon": -46.5227396, "tags": {"bus": "yes", "departures_board": "no", "description": "Ref.: Rua Doutor Armillo/ Tr Ester Gawendo", "gtfs_id": "780006758", "highway": "bus_stop", "name": "Avenida Sapopemba, 8015", "network": "SPTrans", "network:wikidata": "Q7392689", "public_transport": "platform", "route_ref": "3021-10;3141-10;3390-10;364A-10;4029-10;4033-10;4729-10;513C-10;513C-31;5141-10;5144-10;574C-10;574R-10;N503-11"}}, {"type": "node", "id": 4574187905, "lat": -23.5986655, "lon": -46.5186211, "tags": {"bench": "yes", "bus": "yes", "departures_board": "no", "description": "Ref.: Rua Antonio Pereira Pegas/ Rua Paulo Pontes", "gtfs_id": "780006761", "highway": "bus_stop", "name": "Avenida Sapopemba, 8481", "network": "SPTrans", "network:wikidata": "Q7392689", "public_transport": "platform", "route_ref": "3021-10;3141-10;3390-10;364A-10;4029-10;4033-10;4729-10;513C-10;513C-31;5141-10;5144-10;574C-10;574R-10;N503-11", "shelter": "yes", "wheelchair": "yes"}}, {"type": "node", "id": 4574188884, "lat": -23.5990201, "lon": -46.5167759, "tags": {"addr:city": "S\u00e3o Paulo", "bus": "yes", "departures_board": "no", "description": "Ref.: R Dona Carmela/ R Nassioseno Gomes Barbosa", "gtfs_id": "780006793", "highway": "bus_stop", "name": "Avenida Sapopemba, 8652", "network": "SPTrans", "network:wikidata": "Q7392689", "network:wikipedia": "pt:S\u00e3o Paulo Transporte", "public_transport": "platform", "route_ref": "3021-10;3141-10;3390-10;364A-10;4029-10;4033-10;4729-10;513C-10;513C-31;5141-10;5144-10;574C-10;574R-10;N503-11"}}, {"type": "node", "id": 4574189007, "lat": -23.5994131, "lon": -46.5149314, "tags": {"bus": "yes", "description": "Ref.: Rua Jose Joaquim/ Rua Obelisco", "gtfs_id": "780006795", "highway": "bus_stop", "name": "Avenida Sapopemba, 8842", "network": "SPTrans", "network:wikidata": "Q7392689", "public_transport": "platform", "route_ref": "3141-10;4029-10;513C-10;513C-31;5141-10;5144-10;574C-10;574R-10;574W-10;N503-11;3390-10;364A-10"}}, {"type": "node", "id": 4574189666, "lat": -23.5990007, "lon": -46.5162037, "tags": {"addr:city": "S\u00e3o Paulo", "bus": "yes", "description": "Ref.: R Benedito Jacinto Mendes/ R Egidio Alves Da Costa", "gtfs_id": "780006794", "highway": "bus_stop", "name": "Avenida Sapopemba, 8701", "network": "SPTrans", "network:wikidata": "Q7392689", "public_transport": "platform", "route_ref": "3021-10;3141-10;3390-10;364A-10;4029-10;4033-10;4729-10;513C-10;513C-31;5141-10;5144-10;574C-10;574R-10;N503-11"}}, {"type": "node", "id": 5405905231, "lat": -23.585344, "lon": -46.5193655}, {"type": "node", "id": 5405905232, "lat": -23.5853516, "lon": -46.5193862}, {"type": "node", "id": 5405905234, "lat": -23.5853266, "lon": -46.5194468}, {"type": "node", "id": 5405937597, "lat": -23.5838423, "lon": -46.5277163}, {"type": "node", "id": 5405937598, "lat": -23.5839677, "lon": -46.5275607}, {"type": "node", "id": 5405937599, "lat": -23.5838693, "lon": -46.5274682}, {"type": "node", "id": 5405937600, "lat": -23.5838484, "lon": -46.5274883}, {"type": "node", "id": 5405937601, "lat": -23.5837981, "lon": -46.5274252}, {"type": "node", "id": 5405937602, "lat": -23.5836739, "lon": -46.5275969}, {"type": "node", "id": 5887844364, "lat": -23.5931177, "lon": -46.5018761, "tags": {"addr:city": "S\u00e3o Paulo", "addr:housenumber": "326", "addr:postcode": "03933-070", "addr:street": "Rua Pedrin\u00f3polis", "addr:suburb": "Jardim S\u00e3o Gabriel", "name": "Supermercado Baronesa", "shop": "supermarket"}}, {"type": "node", "id": 5888870360, "lat": -23.5991882, "lon": -46.5161958, "tags": {"addr:city": "S\u00e3o Paulo", "addr:housenumber": "8708", "addr:postcode": "03988-000", "addr:street": "Avenida Sapopemba", "addr:suburb": "Jardim Grimaldi", "name": "Nagumo", "opening_hours": "Mo-Su 08:00-20:00", "shop": "supermarket"}}, {"type": "node", "id": 5888870362, "lat": -23.5968262, "lon": -46.5226378, "tags": {"addr:city": "S\u00e3o Paulo", "addr:housenumber": "7911", "addr:postcode": "03988-000", "addr:street": "Avenida Sapopemba", "addr:suburb": "Vila F\u00e1tima", "name": "Mercado Municipal", "shop": "supermarket"}}, {"type": "node", "id": 5888870370, "lat": -23.5976514, "lon": -46.5175174, "tags": {"addr:city": "S\u00e3o Paulo", "addr:housenumber": "77", "addr:postcode": "03922-000", "addr:street": "Rua Benedito Jacinto Mendes", "addr:suburb": "Jardim Grimaldi", "name": "Bem Barato", "opening_hours": "Mo-Sa 08:00-20:00; Su 08:00-18:00", "shop": "supermarket"}}, {"type": "node", "id": 5888890684, "lat": -23.5889934, "lon": -46.5322717, "tags": {"addr:city": "S\u00e3o Paulo", "addr:housenumber": "6572", "addr:postcode": "03374-000", "addr:street": "Avenida Sapopemba", "bus": "yes", "departures_board": "yes", "description": "Ref.: Rua Antonio De Paula Souza/ Rua Rodolfo Bernardelli", "gtfs_id": "780006666", "highway": "bus_stop", "network": "SPTrans", "network:wikidata": "Q7392689", "network:wikipedia": "pt:S\u00e3o Paulo Transporte", "public_transport": "platform", "route_ref": "3141-10;373T-10;414P-10;4729-10;5141-10;5144-10;514T-10;574R-10;N503-11;N536-11", "shelter": "no", "wheelchair": "yes"}}, {"type": "node", "id": 5888964688, "lat": -23.5989927, "lon": -46.499353}, {"type": "node", "id": 6172836634, "lat": -23.589513, "lon": -46.5082429, "tags": {"addr:city": "S\u00e3o Paulo", "addr:country": "BR", "bench": "yes", "bus": "yes", "description": "Ref.: R Amelia Vanso Magnoli/ R James Nares", "gtfs_id": "780005491", "highway": "bus_stop", "lit": "yes", "name": "Avenida Da Barreira Grande, 3029", "network": "SPTRANS", "operator": "SPTrans", "public_transport": "platform", "route_ref": "3029-10;3053-10;3745-10;3746-10;3746-31;407W-10;507T-10;5145-10;524M-10;573H-10;N434-11", "shelter": "yes", "surface": "concrete"}}, {"type": "node", "id": 6173282119, "lat": -23.5897493, "lon": -46.5050603, "tags": {"addr:city": "S\u00e3o Paulo", "addr:country": "BR", "addr:housenumber": "135", "addr:postcode": "03935-000", "addr:street": "Rua Estado do Amazonas", "bench": "no", "bus": "yes", "description": "Ref.: Rua Ranulfo Ramiro Da Silva", "gtfs_id": "7504856", "highway": "bus_stop", "lit": "no", "name": "Rua Estado Do Amazonas, 231", "network": "SPTRANS", "operator": "SPTrans", "public_transport": "platform", "route_ref": "507T-10", "shelter": "no", "surface": "concrete"}}, {"type": "node", "id": 6173282122, "lat": -23.5896278, "lon": -46.5048465, "tags": {"addr:city": "S\u00e3o Paulo", "addr:country": "BR", "addr:housenumber": "244", "addr:postcode": "03935-000", "addr:street": "Rua Estado do Amazonas", "bench": "no", "bus": "yes", "description": "Ref.: Rua Doliarina", "gtfs_id": "7504857", "highway": "bus_stop", "lit": "no", "name": "Rua Estado Do Amazonas, 244", "network": "SPTRANS", "operator": "SPTrans", "public_transport": "platform", "route_ref": "507T-10", "shelter": "no", "surface": "concrete"}}, {"type": "node", "id": 6380994756, "lat": -23.5741023, "lon": -46.5131877}, {"type": "node", "id": 6718721658, "lat": -23.5643344, "lon": -46.5133692}, {"type": "node", "id": 6718721659, "lat": -23.564334, "lon": -46.5133688}, {"type": "node", "id": 6718732744, "lat": -23.5852178, "lon": -46.5197158}, {"type": "node", "id": 6718748015, "lat": -23.5644705, "lon": -46.5133337}, {"type": "node", "id": 6718748016, "lat": -23.5644917, "lon": -46.5133568}, {"type": "node", "id": 6718748017, "lat": -23.5644346, "lon": -46.5134186}, {"type": "node", "id": 6718748018, "lat": -23.5644134, "lon": -46.5133956}, {"type": "node", "id": 6718748019, "lat": -23.5645224, "lon": -46.5134408, "tags": {"addr:city": "S\u00e3o Paulo", "addr:housenumber": "1065", "addr:postcode": "03453-000", "addr:street": "Avenida Rio das Pedras"}}, {"type": "node", "id": 6718748020, "lat": -23.564526, "lon": -46.5134448}, {"type": "node", "id": 6718748021, "lat": -23.5645838, "lon": -46.5133838}, {"type": "node", "id": 6718748022, "lat": -23.5645803, "lon": -46.51338}, {"type": "node", "id": 6718748023, "lat": -23.5646259, "lon": -46.5133319}, {"type": "node", "id": 6718748024, "lat": -23.5646292, "lon": -46.5133284}, {"type": "node", "id": 6718748025, "lat": -23.5643777, "lon": -46.5134175}, {"type": "node", "id": 6718748029, "lat": -23.5644588, "lon": -46.5135079}, {"type": "node", "id": 6718748030, "lat": -23.5643417, "lon": -46.5133774}, {"type": "node", "id": 6718748033, "lat": -23.5643729, "lon": -46.5134121}, {"type": "node", "id": 6718749043, "lat": -23.5645021, "lon": -46.5131874}, {"type": "node", "id": 6718749046, "lat": -23.5644374, "lon": -46.5132573}, {"type": "node", "id": 6718833944, "lat": -23.5742312, "lon": -46.5131861}, {"type": "node", "id": 6718833945, "lat": -23.5742488, "lon": -46.5131674}, {"type": "node", "id": 6718833946, "lat": -23.5741856, "lon": -46.5130989}, {"type": "node", "id": 6718833947, "lat": -23.5741641, "lon": -46.5132573}, {"type": "node", "id": 6718844914, "lat": -23.5717041, "lon": -46.5107477}, {"type": "node", "id": 6718844915, "lat": -23.5717177, "lon": -46.5107077}, {"type": "node", "id": 6718844916, "lat": -23.5716647, "lon": -46.5106479}, {"type": "node", "id": 6718901232, "lat": -23.5848418, "lon": -46.5195862}, {"type": "node", "id": 6718909225, "lat": -23.5849469, "lon": -46.5193147}, {"type": "node", "id": 6718909230, "lat": -23.5851953, "lon": -46.5197082}, {"type": "node", "id": 6718910085, "lat": -23.5849921, "lon": -46.5192412}, {"type": "node", "id": 6718910086, "lat": -23.5849691, "lon": -46.5193222}, {"type": "node", "id": 6722368369, "lat": -23.5624843, "lon": -46.5061809}, {"type": "node", "id": 6722368370, "lat": -23.5624449, "lon": -46.506218}, {"type": "node", "id": 6724478395, "lat": -23.5774343, "lon": -46.5254907, "tags": {"addr:city": "S\u00e3o Paulo", "addr:housenumber": "480", "addr:postcode": "03361-010", "addr:street": "Avenida Cipriano Rodrigues", "bus": "yes", "departures_board": "yes", "description": "Ref.: Tv Bandeira Duarte", "gtfs_id": "8704593", "highway": "bus_stop", "operator": "SPTrans", "public_transport": "platform", "route_ref": "3029-10;3762-10;407F-10;407W-10;407Y-10;574W-10;575C-10;N434-11", "shelter": "no"}}, {"type": "node", "id": 6920659806, "lat": -23.587981, "lon": -46.5092331}, {"type": "node", "id": 6920659807, "lat": -23.5879564, "lon": -46.5090229}, {"type": "node", "id": 6920659808, "lat": -23.5893729, "lon": -46.5088774}, {"type": "node", "id": 6920659809, "lat": -23.589411, "lon": -46.5088774}, {"type": "node", "id": 6920659810, "lat": -23.5893486, "lon": -46.5093239}, {"type": "node", "id": 6920659811, "lat": -23.5892322, "lon": -46.5097189}, {"type": "node", "id": 6920659812, "lat": -23.5891953, "lon": -46.5097833}, {"type": "node", "id": 6920659813, "lat": -23.5891566, "lon": -46.5098148}, {"type": "node", "id": 6920659814, "lat": -23.5890964, "lon": -46.5098409}, {"type": "node", "id": 6920659815, "lat": -23.5881561, "lon": -46.5100622}, {"type": "node", "id": 7998193589, "lat": -23.574688, "lon": -46.497215, "tags": {"bus": "yes", "description": "Ref.: Rua Januario Da Costa", "gtfs_id": "2409061", "highway": "bus_stop", "name": "Rua Martinho De Alboim, 20", "network": "SPTRANS", "route_ref": "3778-10"}}, {"type": "node", "id": 7998194005, "lat": -23.586828, "lon": -46.500443, "tags": {"bus": "yes", "departures_board": "no", "description": "Ref.: Avenida Luis Pires De Minas", "gtfs_id": "750005490", "highway": "bus_stop", "name": "Avenida Pirangu\u00e7u, 69", "network": "SPTrans", "network:wikidata": "Q7392689", "public_transport": "platform", "route_ref": "364A-10;407W-10;507T-10;N434-11"}}, {"type": "node", "id": 7998194032, "lat": -23.586944, "lon": -46.495605, "tags": {"bus": "yes", "description": "Ref.: Rua Central De Santa Helena/ Rua Liberato Salzano", "gtfs_id": "750005476", "highway": "bus_stop", "name": "Rua Estado De Pernambuco, 451", "network": "SPTRANS", "public_transport": "platform", "route_ref": "3053-10"}}, {"type": "node", "id": 7998194033, "lat": -23.588808, "lon": -46.496534, "tags": {"bus": "yes", "description": "Ref.: Rua Fernando Martins/ Rua Morro Do Espia", "gtfs_id": "750005477", "highway": "bus_stop", "name": "Rua Estado De Pernambuco, 691", "network": "SPTRANS", "public_transport": "platform", "route_ref": "3053-10"}}, {"type": "node", "id": 7998194035, "lat": -23.590939, "lon": -46.497513, "tags": {"bus": "yes", "description": "Ref.: Rua Patos De Minas/ Avenida Da Barreira Grande", "gtfs_id": "750005478", "highway": "bus_stop", "name": "Rua Estado De Pernambuco, 915", "network": "SPTRANS", "public_transport": "platform", "route_ref": "3053-10"}}, {"type": "node", "id": 7998194036, "lat": -23.5909995, "lon": -46.4976175, "tags": {"bus": "yes", "description": "Ref.: Rua Patos De Minas/ Avenida Da Barreira Grande", "gtfs_id": "750005479", "highway": "bus_stop", "name": "Rua Estado De Pernambuco, 954", "network": "SPTRANS", "public_transport": "platform", "route_ref": "3053-10"}}, {"type": "node", "id": 7998194037, "lat": -23.586172, "lon": -46.498976, "tags": {"bus": "yes", "departures_board": "no", "description": "Ref.: Rua Central De Santa Helena", "gtfs_id": "750005472", "highway": "bus_stop", "name": "Avenida Pirangu\u00e7u, 214", "network": "SPTrans", "network:wikidata": "Q7392689", "public_transport": "platform", "route_ref": "364A-10;407W-10;507T-10;N434-11"}}, {"type": "node", "id": 7998194039, "lat": -23.588756, "lon": -46.5007172, "tags": {"bus": "yes", "departures_board": "no", "description": "Ref.: Avenida Ouro Verde De Minas", "gtfs_id": "750005470", "highway": "bus_stop", "name": "Pra\u00e7a Mater Dei, 711", "network": "SPTrans", "network:wikidata": "Q7392689", "public_transport": "platform", "route_ref": "364A-10;407W-10;507T-10;N434-11"}}, {"type": "node", "id": 7998194057, "lat": -23.586067, "lon": -46.503103, "tags": {"bus": "yes", "description": "Ref.: Avenida Ouro Verde De Minas/ Rua Jose Roberto Pereira", "gtfs_id": "750005488", "highway": "bus_stop", "name": "Rua Estado Do Amazonas, 691", "network": "SPTRANS", "route_ref": "507T-10"}}, {"type": "node", "id": 7998194058, "lat": -23.586178, "lon": -46.501252, "tags": {"bus": "yes", "description": "Ref.: Rua Sargento Noel De Camargo/ Rua Pastor Agenor Caldeira Diniz", "gtfs_id": "750005489", "highway": "bus_stop", "name": "Rua Morro Do Espia, 170", "network": "SPTRANS", "route_ref": "507T-10"}}, {"type": "node", "id": 7998194090, "lat": -23.588844, "lon": -46.500562, "tags": {"bus": "yes", "departures_board": "no", "description": "Pra\u00e7a Mater Dei, 720 Ref.: Rua Pastor Agenor Caldeira Diniz", "gtfs_id": "750005469", "highway": "bus_stop", "name": "Pra\u00e7a Mater Dei, 720", "network": "SPTrans", "network:wikidata": "Q7392689", "public_transport": "platform", "route_ref": "3745-10"}}, {"type": "node", "id": 7998194470, "lat": -23.592354, "lon": -46.501965, "tags": {"bus": "yes", "description": "Ref.: Avenida Da Barreira Grande", "gtfs_id": "750006286", "highway": "bus_stop", "name": "Avenida Lu\u00eds Pires De Minas, 238", "network": "SPTrans", "network:wikidata": "Q7392689", "public_transport": "platform", "route_ref": "364A-10;3746-10;3746-31;507T-10;5145-10;524M-10;573H-10"}}, {"type": "node", "id": 7998194474, "lat": -23.5953088, "lon": -46.5026734, "tags": {"bus": "yes", "departures_board": "yes", "description": "Ref.: Pc Catas Altas/ Rua Turvolandia", "gtfs_id": "750006282", "highway": "bus_stop", "name": "Rua Douradoquara", "network": "SPTrans", "network:wikidata": "Q7392689", "network:wikipedia": "pt:S\u00e3o Paulo Transporte", "public_transport": "platform", "route_ref": "364A-10;373T-10;4033-10;507T-10;5145-10;514T-10;524M-10;573H-10;N536-11", "shelter": "no"}}, {"type": "node", "id": 7998194475, "lat": -23.5948958, "lon": -46.502699, "tags": {"bus": "yes", "description": "Pra\u00e7a Catas Altas, 320 Ref.: Rua Juvenilia/ Rua Douradoquara", "gtfs_id": "750006283", "highway": "bus_stop", "name": "Pra\u00e7a Catas Altas, 320", "network": "SPTrans", "network:wikidata": "Q7392689", "public_transport": "platform", "route_ref": "3746-31"}}, {"type": "node", "id": 7998194477, "lat": -23.5947875, "lon": -46.5028471, "tags": {"bus": "yes", "description": "Pra\u00e7a Catas Altas, 316 Ref.: Rua Juvenilia/ Rua Douradoquara", "gtfs_id": "750006284", "highway": "bus_stop", "name": "Pra\u00e7a Catas Altas, 316", "network": "SPTrans", "network:wikidata": "Q7392689", "public_transport": "platform", "route_ref": "373T-10;3746-10"}}, {"type": "node", "id": 7998194479, "lat": -23.5952252, "lon": -46.5030739, "tags": {"bus": "yes", "departures_board": "yes", "description": "Ref.: Rua Caiana/ Rua Da Ecologia", "gtfs_id": "750006285", "highway": "bus_stop", "name": "Rua Cachoeira do Campo, 348", "network": "SPTrans", "network:wikidata": "Q7392689", "network:wikipedia": "pt:S\u00e3o Paulo Transporte", "public_transport": "platform", "route_ref": "364A-10;373T-10;3746-10;3746-31;4033-10;507T-10;5145-10;514T-10;524M-10;573H-10;N536-11", "shelter": "no"}}, {"type": "node", "id": 7998194482, "lat": -23.596592, "lon": -46.501122, "tags": {"bus": "yes", "departures_board": "no", "description": "Ref.: Rua Basilio Martins De Lisboa/ Rua Dom Gregorio Dos Anjos", "gtfs_id": "750006280", "highway": "bus_stop", "name": "Rua Douradoquara, 90", "network": "SPTrans", "network:wikidata": "Q7392689", "public_transport": "platform", "route_ref": "364A-10;373T-10;4033-10;507T-10;5145-10;514T-10;524M-10;573H-10;N536-11"}}, {"type": "node", "id": 7998194484, "lat": -23.596608, "lon": -46.5013183, "tags": {"bus": "yes", "departures_board": "no", "description": "Ref.: Rua Dom Gregorio Dos Anjos", "gtfs_id": "750006281", "highway": "bus_stop", "name": "Rua Douradoquara, 77", "network": "SPTrans", "network:wikidata": "Q7392689", "public_transport": "platform", "route_ref": "364A-10;373T-10;4033-10;507T-10;5145-10;514T-10;524M-10;573H-10;N536-11"}}, {"type": "node", "id": 7998194513, "lat": -23.595108, "lon": -46.499462, "tags": {"bus": "yes", "departures_board": "no", "description": "Ref.: Rua Taiobeiras/ Rua Pedrinopolis", "gtfs_id": "750006279", "highway": "bus_stop", "name": "Avenida Pirapitinga, 11", "network": "SPTrans", "network:wikidata": "Q7392689", "public_transport": "platform", "route_ref": "N536-11;373T-10;514T-10"}}, {"type": "node", "id": 7998194517, "lat": -23.591722, "lon": -46.499777, "tags": {"bus": "yes", "description": "Ref.: Rua Campo Florido/ Rua Crucilandia", "gtfs_id": "750006277", "highway": "bus_stop", "name": "Avenida Da Barreira Grande, 3962", "network": "SPTrans", "network:wikidata": "Q7392689", "public_transport": "platform", "route_ref": "3053-10"}}, {"type": "node", "id": 7998194519, "lat": -23.594084, "lon": -46.499695, "tags": {"bus": "yes", "description": "Ref.: Rua Francisco Da Costa Machado/ Avenida Pirapitinga", "gtfs_id": "750006278", "highway": "bus_stop", "name": "Rua Campo Florido, 2", "network": "SPTrans", "network:wikidata": "Q7392689", "public_transport": "platform", "route_ref": "N536-11;373T-10"}}, {"type": "node", "id": 7998194683, "lat": -23.5815777, "lon": -46.4983774, "tags": {"addr:city": "S\u00e3o Paulo", "addr:housenumber": "3620", "addr:street": "Avenida Rio das Pedras", "bus": "yes", "departures_board": "yes", "description": "Ref.: Rua Funilandia/ Avenida Luis Pires De Minas", "gtfs_id": "750012296", "highway": "bus_stop", "network": "SPTrans", "network:wikidata": "Q7392689", "public_transport": "platform", "route_ref": "2290-10;3023-10;342M-10;364A-10;4002-10;4008-10;4010-10;4014-10;4030-10;407F-10;407J-10;573T-10;573T-31;N404-11"}}, {"type": "node", "id": 7998194687, "lat": -23.5831521, "lon": -46.4960875, "tags": {"addr:city": "S\u00e3o Paulo", "addr:housenumber": "3893", "addr:street": "Avenida Rio das Pedras", "bus": "yes", "departures_board": "yes", "description": "Ref.: Rua Doutor Mario Rodrigues Louza/ Rua Francisco Queiroz Matos", "gtfs_id": "750012297", "highway": "bus_stop", "network": "SPTrans", "network:wikidata": "Q7392689", "public_transport": "platform", "route_ref": "2290-10;3023-10;342M-10;4002-10;4008-10;4010-10;4014-10;4030-10;407F-10;407J-10;573T-10;573T-31;N404-11;N434-11"}}, {"type": "node", "id": 7998194873, "lat": -23.5786365, "lon": -46.4993219, "tags": {"addr:city": "S\u00e3o Paulo", "addr:housenumber": "6600", "addr:street": "Avenida Aricanduva", "bench": "yes", "bus": "yes", "departures_board": "yes", "description": "Ref.: Rua Lamim/ Rua Capinopolis", "gtfs_id": "750012664", "highway": "bus_stop", "lit": "yes", "operator": "SPTrans", "public_transport": "platform", "route_ref": "3027-10;3098-10;3761-10;3773-10;407E-10;407G-10;407K-10;407N-10;4210-10;4311-10;4313-10;N402-11", "shelter": "yes", "wheelchair": "yes"}}, {"type": "node", "id": 7998194874, "lat": -23.5790493, "lon": -46.4966476, "tags": {"addr:city": "S\u00e3o Paulo", "addr:housenumber": "7786", "addr:street": "Avenida Aricanduva", "bench": "yes", "bus": "yes", "departures_board": "yes", "description": "Ref.: Rua Funilandia/ Rua Ana Santesso", "gtfs_id": "750012665", "highway": "bus_stop", "lit": "yes", "operator": "SPTrans", "public_transport": "platform", "route_ref": "3027-10;3098-10;3761-10;3773-10;407E-10;407G-10;407K-10;407N-10;4210-10;4311-10;4313-10;N402-11", "shelter": "yes", "wheelchair": "yes"}}, {"type": "node", "id": 7998195286, "lat": -23.575512, "lon": -46.496896, "tags": {"bus": "yes", "description": "Ref.: Rua Ipiabas", "gtfs_id": "2404271", "highway": "bus_stop", "name": "Rua Janu\u00e1rio Da Costa, 215", "network": "SPTRANS", "route_ref": "3778-10"}}, {"type": "node", "id": 7998195310, "lat": -23.582829, "lon": -46.4963, "tags": {"addr:city": "S\u00e3o Paulo", "addr:housenumber": "3837", "addr:street": "Avenida Rio das Pedras", "bus": "yes", "description": "Ref.: Rua Felisberto Augusto De Oliveira/ Rua Doutor Mario Rodrigues Louza", "gtfs_id": "750012300", "highway": "bus_stop", "network": "SPTrans", "network:wikidata": "Q7392689", "public_transport": "platform", "route_ref": "2290-10;2290-21;3023-10;342M-10;4002-10;4008-10;4010-10;4014-10;4030-10;407F-10;407J-10;573T-10;573T-31;N404-11;N434-11"}}, {"type": "node", "id": 7998195311, "lat": -23.5810601, "lon": -46.4986961, "tags": {"addr:city": "S\u00e3o Paulo", "addr:housenumber": "3521", "addr:street": "Avenida Rio das Pedras", "bus": "yes", "departures_board": "yes", "description": "Ref.: Rua Funilandia/ Rua Capinopolis", "gtfs_id": "750012301", "highway": "bus_stop", "network": "SPTrans", "network:wikidata": "Q7392689", "network:wikipedia": "pt:S\u00e3o Paulo Transporte", "public_transport": "platform", "route_ref": "2290-10;2290-21;3023-10;342M-10;364A-10;4002-10;4008-10;4010-10;4014-10;4030-10;407F-10;407J-10;573T-10;573T-31;N404-11"}}, {"type": "node", "id": 8001685459, "lat": -23.5863829, "lon": -46.5031689, "tags": {"bus": "yes", "description": "Ref.: Avenida Ouro Verde De Minas/ Rua Jose Roberto Pereira", "gtfs_id": "750005487", "highway": "bus_stop", "name": "Rua Estado Do Amazonas, 650", "network": "SPTRANS", "route_ref": "507T-10"}}, {"type": "node", "id": 8001685461, "lat": -23.590628, "lon": -46.5052713, "tags": {"addr:city": "S\u00e3o Paulo", "addr:housenumber": "3365", "addr:postcode": "03916-000", "addr:street": "Avenida da Barreira Grande", "bus": "yes", "departures_board": "yes", "description": "Ref.: Rua Estado Do Amazonas/ Rua Lagoa Bonita", "gtfs_id": "750005483", "highway": "bus_stop", "network": "SPTrans", "network:wikidata": "Q7392689", "network:wikipedia": "pt:S\u00e3o Paulo Transporte", "public_transport": "platform", "route_ref": "3053-10;3745-10;3746-10;3746-31;407W-10;5145-10;524M-10;573H-10;N434-11", "shelter": "yes"}}, {"type": "node", "id": 8001685462, "lat": -23.5907896, "lon": -46.505239, "tags": {"addr:city": "S\u00e3o Paulo", "addr:housenumber": "3370", "addr:postcode": "03916-000", "addr:street": "Avenida da Barreira Grande", "bus": "yes", "departures_board": "yes", "description": "Ref.: Rua Estado Do Amazonas/ Rua Lagoa Bonita", "gtfs_id": "750005484", "highway": "bus_stop", "network": "SPTrans", "network:wikidata": "Q7392689", "network:wikipedia": "pt:S\u00e3o Paulo Transporte", "public_transport": "platform", "route_ref": "3053-10;3745-10;3746-10;3746-31;407W-10;5145-10;524M-10;573H-10;N434-11", "shelter": "yes"}}, {"type": "node", "id": 8001685463, "lat": -23.588262, "lon": -46.504278, "tags": {"bus": "yes", "description": "Ref.: Rua Sao Joao Do Paraiso/ Rua Joel Carlson", "gtfs_id": "750005485", "highway": "bus_stop", "name": "Rua Estado Do Amazonas, 403", "network": "SPTRANS", "route_ref": "507T-10"}}, {"type": "node", "id": 8001685464, "lat": -23.5877371, "lon": -46.5039049, "tags": {"bus": "yes", "description": "Ref.: Rua Jose Roberto Pereira/ Rua Estado Do Rio Grande Do Norte", "gtfs_id": "750005486", "highway": "bus_stop", "name": "Rua Estado Do Amazonas, 464", "network": "SPTRANS", "route_ref": "507T-10"}}, {"type": "node", "id": 8001685466, "lat": -23.591764, "lon": -46.502377, "tags": {"bus": "yes", "description": "Ref.: Avenida Luis Pires De Minas/ Rua Matozinhos", "gtfs_id": "750005481", "highway": "bus_stop", "name": "Avenida Da Barreira Grande, 3683", "network": "SPTrans", "network:wikidata": "Q7392689", "public_transport": "platform", "route_ref": "3053-10;3745-10;3746-10;3746-31;407W-10;5145-10;524M-10;573H-10;N434-11"}}, {"type": "node", "id": 8001685467, "lat": -23.5920778, "lon": -46.50224, "tags": {"bus": "yes", "description": "Ref.: Avenida Luis Pires De Minas/ Rua Matozinhos", "gtfs_id": "750005482", "highway": "bus_stop", "name": "Avenida Da Barreira Grande, 3694", "network": "SPTrans", "network:wikidata": "Q7392689", "public_transport": "platform", "route_ref": "3053-10;3745-10;3746-10;3746-31;407W-10;5145-10;524M-10;573H-10;N434-11"}}, {"type": "node", "id": 8001685484, "lat": -23.590796, "lon": -46.501319, "tags": {"bus": "yes", "description": "Ref.: Rua Sao Joao Do Paraiso", "gtfs_id": "750005466", "highway": "bus_stop", "name": "Avenida Lu\u00eds Pires De Minas, 428", "network": "SPTrans", "network:wikidata": "Q7392689", "public_transport": "platform", "route_ref": "364A-10;3745-10;3746-10;3746-31;407W-10;507T-10;5145-10;N434-11"}}, {"type": "node", "id": 8001685486, "lat": -23.590801, "lon": -46.501544, "tags": {"bus": "yes", "description": "Ref.: Rua Pe\u00e7anha", "gtfs_id": "750005467", "highway": "bus_stop", "name": "Avenida Lu\u00eds Pires De Minas, 411", "network": "SPTrans", "network:wikidata": "Q7392689", "public_transport": "platform", "route_ref": "364A-10;3745-10;3746-10;3746-31;407W-10;507T-10;5145-10;N434-11"}}, {"type": "node", "id": 8001685714, "lat": -23.597462, "lon": -46.495636, "tags": {"bus": "yes", "description": "Ref.: Rua Ana Heleno Baldinato/ Rua Ipoema", "gtfs_id": "750006189", "highway": "bus_stop", "name": "Rua Barra Do Caet\u00e9, 218", "network": "SPTRANS", "route_ref": "3054-10;573T-10;573T-31;N532-11"}}, {"type": "node", "id": 8001685746, "lat": -23.5973833, "lon": -46.4955093, "tags": {"bus": "yes", "description": "Ref.: Rua Ana Heleno Baldinato/ Rua Bras Pires", "gtfs_id": "750006190", "highway": "bus_stop", "name": "Rua Barra Do Caet\u00e9, 217", "network": "SPTRANS", "route_ref": "3054-10;573T-10;573T-31;N532-11"}}, {"type": "node", "id": 8043052232, "lat": -23.5875252, "lon": -46.5329664, "tags": {"addr:city": "S\u00e3o Paulo", "addr:housenumber": "2694", "addr:postcode": "03275-000", "addr:street": "Rua Solid\u00f4nio Leite", "bus": "yes", "description": "Ref.: Rua Jo\u00e3o Vicente Brito", "gtfs_id": "7404969", "highway": "bus_stop", "network": "SPTrans", "network:wikidata": "Q7392689", "network:wikipedia": "pt:S\u00e3o Paulo Transporte", "public_transport": "platform", "route_ref": "373T-10;4729-10;514T-10;N536-11"}}, {"type": "node", "id": 8043075256, "lat": -23.59942, "lon": -46.532966, "tags": {"bus": "yes", "departures_board": "no", "description": "Ref.: Rua Lu\u00eds Pereira Da Silva", "gtfs_id": "7405474", "highway": "bus_stop", "name": "Rua Santana de Mangueira, 42", "network": "SPTrans", "network:wikidata": "Q7392689", "public_transport": "platform", "route_ref": "524L-10"}}, {"type": "node", "id": 8043075503, "lat": -23.5936534, "lon": -46.4982974, "tags": {"bus": "yes", "departures_board": "no", "gtfs_id": "7504172", "highway": "bus_stop", "name": "Rua Pontevila, 55", "network": "SPTrans", "network:wikidata": "Q7392689", "public_transport": "platform", "route_ref": "514T-10;N536-11"}}, {"type": "node", "id": 8043075508, "lat": -23.5942449, "lon": -46.4995369, "tags": {"bus": "yes", "description": "Ref.: Avenida Pirapitinga", "gtfs_id": "7504174", "highway": "bus_stop", "name": "Rua Campo Florido, 23", "network": "SPTrans", "network:wikidata": "Q7392689", "public_transport": "platform", "route_ref": "514T-10;N536-11"}}, {"type": "node", "id": 8089578744, "lat": -23.597538, "lon": -46.531311, "tags": {"bus": "yes", "departures_board": "no", "description": "Ref.: Rua Waldomiro Moreno Rodrigues - C/B", "gtfs_id": "780006700", "highway": "bus_stop", "name": "Avenida Vila Ema, 5450", "network": "SPTrans", "network:wikidata": "Q7392689", "public_transport": "platform", "route_ref": "3021-10;3390-10;364A-10;4029-10;574C-10"}}, {"type": "node", "id": 8089578745, "lat": -23.59725, "lon": -46.532791, "tags": {"bus": "yes", "description": "Ref.: Rua Cir\u00edaco Cardoso - B/C", "gtfs_id": "780006701", "highway": "bus_stop", "name": "Avenida Vila Ema, 5265", "network": "SPTRANS", "public_transport": "platform", "route_ref": "3021-10;3390-10;364A-10;4029-10;574C-10"}}, {"type": "node", "id": 8089578746, "lat": -23.597174, "lon": -46.533272, "tags": {"bus": "yes", "description": "Ref.: Rua Cle\u00f3fas Beltran Silvente - C/B", "gtfs_id": "780006702", "highway": "bus_stop", "name": "Avenida Vila Ema, 5226", "network": "SPTRANS", "public_transport": "platform", "route_ref": "3021-10;3390-10;364A-10;4029-10;574C-10"}}, {"type": "node", "id": 8089578813, "lat": -23.596457, "lon": -46.513729, "tags": {"bus": "yes", "description": "Ref.: Rua Antonio Batista De Oliveira/ Rua Marselha", "gtfs_id": "780006304", "highway": "bus_stop", "name": "Rua Gen. Porf\u00edrio Da Paz, 272", "network": "SPTrans", "network:wikidata": "Q7392689", "public_transport": "platform", "route_ref": "N536-11;373T-10;514T-10;574W-10"}}, {"type": "node", "id": 8089578814, "lat": -23.59716, "lon": -46.513457, "tags": {"bus": "yes", "description": "Ref.: Rua Manoel Do Sacramento/ Rua Manchester", "gtfs_id": "780006305", "highway": "bus_stop", "name": "Rua Gen. Porf\u00edrio Da Paz, 321", "network": "SPTrans", "network:wikidata": "Q7392689", "public_transport": "platform", "route_ref": "N536-11;373T-10;514T-10;574W-10"}}, {"type": "node", "id": 8089578815, "lat": -23.595373, "lon": -46.513779, "tags": {"bus": "yes", "description": "Ref.: Rua Gen.porf\u00edrio Da Paz", "gtfs_id": "780006306", "highway": "bus_stop", "name": "Rua Ana Essipova, 38", "network": "SPTrans", "network:wikidata": "Q7392689", "public_transport": "platform", "route_ref": "4729-10"}}, {"type": "node", "id": 8089578816, "lat": -23.59506, "lon": -46.513527, "tags": {"bus": "yes", "description": "Ref.: Rua Da Prata/ Rua Liverpool", "gtfs_id": "780006307", "highway": "bus_stop", "name": "Rua Ana Essipova, 85", "network": "SPTrans", "network:wikidata": "Q7392689", "public_transport": "platform", "route_ref": "4729-10"}}, {"type": "node", "id": 8089578817, "lat": -23.593587, "lon": -46.513754, "tags": {"bus": "yes", "description": "Ref.: Rua Manuel Leoncio Rodrigues/ Rua Genova", "gtfs_id": "780006308", "highway": "bus_stop", "name": "Rua Ana Essipova, 244", "network": "SPTRANS", "public_transport": "platform", "route_ref": "4729-10"}}, {"type": "node", "id": 8089578818, "lat": -23.592155, "lon": -46.513519, "tags": {"bus": "yes", "description": "Ref.: Rua Alexandre Alabiev/ Rua Benjamim Carr", "gtfs_id": "780006309", "highway": "bus_stop", "name": "Rua Ana Essipova, 405", "network": "SPTRANS", "public_transport": "platform", "route_ref": "4729-10"}}, {"type": "node", "id": 8089578819, "lat": -23.5859702, "lon": -46.5187997, "tags": {"bus": "yes", "departures_board": "yes", "description": "Ref.: Rua Dos Correntistas/ Avenida Da Barreira Grande", "gtfs_id": "780006300", "highway": "bus_stop", "name": "Rua Gen. Porf\u00edrio Da Paz, 8", "network": "SPTrans", "network:wikidata": "Q7392689", "network:wikipedia": "pt:S\u00e3o Paulo Transporte", "public_transport": "platform", "route_ref": "N536-11;373T-10;514T-10;574W-10", "shelter": "no"}}, {"type": "node", "id": 8089578820, "lat": -23.58872, "lon": -46.520213, "tags": {"bus": "yes", "description": "Ref.: Rua Da Bolsa/ Rua Dos Cambistas", "gtfs_id": "780006301", "highway": "bus_stop", "name": "Rua Gen. Porf\u00edrio Da Paz, 378", "network": "SPTRANS", "public_transport": "platform", "route_ref": "N536-11;373T-10;514T-10;574W-10"}}, {"type": "node", "id": 8089578822, "lat": -23.5898145, "lon": -46.5199184, "tags": {"bus": "yes", "description": "Ref.: Rua Dos Financeiros/ Rua Da Bolsa", "gtfs_id": "780006302", "highway": "bus_stop", "name": "Rua Gen. Porf\u00edrio Da Paz, 543", "network": "SPTRANS", "public_transport": "platform", "route_ref": "N536-11;373T-10;514T-10;574W-10"}}, {"type": "node", "id": 8089578824, "lat": -23.5901341, "lon": -46.5197704, "tags": {"bus": "yes", "description": "Ref.: Rua Dos Financeiros/ Rua Da Bolsa", "gtfs_id": "780006303", "highway": "bus_stop", "name": "Rua Gen. Porf\u00edrio Da Paz, 564", "network": "SPTRANS", "public_transport": "platform", "route_ref": "N536-11;373T-10;514T-10;574W-10"}}, {"type": "node", "id": 8089578856, "lat": -23.592972, "lon": -46.511658, "tags": {"bus": "yes", "description": "Ref.: Rua Henry Fuseti/ Rua Jean Jadin", "gtfs_id": "780006315", "highway": "bus_stop", "name": "Rua Henrique Estienne, 347", "network": "SPTRANS", "public_transport": "platform", "route_ref": "4729-10"}}, {"type": "node", "id": 8089578857, "lat": -23.593338, "lon": -46.509773, "tags": {"bus": "yes", "description": "Ref.: Rua James Nares/ Rua Jose Gabriel Nunez", "gtfs_id": "780006316", "highway": "bus_stop", "name": "Rua Henrique Estienne, 4", "network": "SPTRANS", "public_transport": "platform", "route_ref": "4729-10"}}, {"type": "node", "id": 8089578858, "lat": -23.594028, "lon": -46.513043, "tags": {"bus": "yes", "description": "Ref.: Rua Joao Da Praia/ Rua Genova", "gtfs_id": "780006317", "highway": "bus_stop", "name": "Rua Benjamin Carr, 87", "network": "SPTRANS", "public_transport": "platform", "route_ref": "3021-10"}}, {"type": "node", "id": 8089578859, "lat": -23.596127, "lon": -46.512695, "tags": {"bus": "yes", "description": "Ref.: Rua Josef Labor/ Rua Maria De Lourdes", "gtfs_id": "780006318", "highway": "bus_stop", "name": "Rua Benjamin Carr, 47", "network": "SPTrans", "network:wikidata": "Q7392689", "public_transport": "platform", "route_ref": "3021-10"}}, {"type": "node", "id": 8089578861, "lat": -23.591545, "lon": -46.516174, "tags": {"bus": "yes", "description": "Ref.: Rua Coronel Petrarca De Mesquita/ Rua Edouard Corbiere", "gtfs_id": "780006319", "highway": "bus_stop", "name": "Rua Doutor Domingos Americano, 431", "network": "SPTRANS", "public_transport": "platform", "route_ref": "3762-10"}}, {"type": "node", "id": 8089578869, "lat": -23.59187, "lon": -46.512763, "tags": {"bus": "yes", "description": "Ref.: Rua Henry Fuseti", "gtfs_id": "780006311", "highway": "bus_stop", "name": "Rua Esteban Araciel, 87", "network": "SPTRANS", "public_transport": "platform", "route_ref": "3021-10"}}, {"type": "node", "id": 8089578870, "lat": -23.591736, "lon": -46.512291, "tags": {"bus": "yes", "description": "Ref.: Rua Esteban/ Rua Joao Da Praia", "gtfs_id": "780006312", "highway": "bus_stop", "name": "Rua Henry Fuseli, 101", "network": "SPTRANS", "public_transport": "platform", "route_ref": "3021-10;4729-10"}}, {"type": "node", "id": 8089578873, "lat": -23.592937, "lon": -46.511906, "tags": {"bus": "yes", "description": "Ref.: Rua Henry Fuseti/ Rua Jean Jadin", "gtfs_id": "780006314", "highway": "bus_stop", "name": "Rua Henrique Estienne, 112", "network": "SPTRANS", "public_transport": "platform", "route_ref": "4729-10"}}, {"type": "node", "id": 8089578906, "lat": -23.5994767, "lon": -46.5010719, "tags": {"bus": "yes", "description": "Ref.: Tr Paracelsus/ Rua Catedral Submersa", "gtfs_id": "780006337", "highway": "bus_stop", "name": "Rua Sinfonias Do Ocaso, 361", "network": "SPTrans", "network:wikidata": "Q7392689", "network:wikipedia": "pt:S\u00e3o Paulo Transporte", "public_transport": "platform", "route_ref": "524M-10"}}, {"type": "node", "id": 8089578910, "lat": -23.5994346, "lon": -46.5002445, "tags": {"bus": "yes", "description": "Ref.: Rua Quatro/ Rua Catedral Submersa", "gtfs_id": "780006338", "highway": "bus_stop", "name": "Avenida Arq. Vilanova Artigas, 1977", "network": "SPTrans", "network:wikidata": "Q7392689", "public_transport": "platform", "route_ref": "N532-11"}}, {"type": "node", "id": 8089578914, "lat": -23.5990541, "lon": -46.4994481, "tags": {"bus": "yes", "description": "Ref.: Rua Quatro/ Rua Catedral Submersa", "gtfs_id": "780006339", "highway": "bus_stop", "name": "Avenida Arq. Vilanova Artigas, 2018", "network": "SPTrans", "network:wikidata": "Q7392689", "public_transport": "platform", "route_ref": "524M-10;N532-11"}}, {"type": "node", "id": 8089578940, "lat": -23.5994613, "lon": -46.5013141, "tags": {"bus": "yes", "description": "Ref.: Rua Sinfonia Do Ocaso/ Pas Servidao Tres", "gtfs_id": "780006335", "highway": "bus_stop", "name": "Tr. Paracelsus, 5", "network": "SPTrans", "network:wikidata": "Q7392689", "network:wikipedia": "pt:S\u00e3o Paulo Transporte", "public_transport": "platform", "route_ref": "364A-10;4033-10;507T-10;5145-10;524M-10;573H-10"}}, {"type": "node", "id": 8089578941, "lat": -23.59745, "lon": -46.500465, "tags": {"bus": "yes", "description": "Ref.: Rua Taru Mirim/ Avenida Do Tanque", "gtfs_id": "780006336", "highway": "bus_stop", "name": "Tr. Paracelsus, 53", "network": "SPTrans", "network:wikidata": "Q7392689", "public_transport": "platform", "route_ref": "364A-10;4033-10;507T-10;524M-10"}}, {"type": "node", "id": 8089578968, "lat": -23.588377, "lon": -46.529762, "tags": {"bus": "yes", "description": "Ref.: Rua \u00c1lvaro Moreira", "gtfs_id": "780006363", "highway": "bus_stop", "name": "Avenida Eng. Feij\u00f3 Bitencourt, 162", "network": "SPTRANS", "public_transport": "platform", "route_ref": "N536-11;373T-10;514T-10"}}, {"type": "node", "id": 8089578969, "lat": -23.586178, "lon": -46.526409, "tags": {"bus": "yes", "description": "Ref.: Rua In\u00e1cio De Loiola", "gtfs_id": "780006364", "highway": "bus_stop", "name": "Avenida Eng. Feij\u00f3 Bitencourt, 568", "network": "SPTRANS", "public_transport": "platform", "route_ref": "N536-11;373T-10;514T-10"}}, {"type": "node", "id": 8089578972, "lat": -23.586002, "lon": -46.526329, "tags": {"bus": "yes", "description": "Ref.: Rua In\u00e1cio De Loiola", "gtfs_id": "780006365", "highway": "bus_stop", "name": "Avenida Eng. Feij\u00f3 Bitencourt, 609", "network": "SPTRANS", "public_transport": "platform", "route_ref": "N536-11;373T-10;514T-10"}}, {"type": "node", "id": 8089578998, "lat": -23.59392, "lon": -46.526478, "tags": {"bus": "yes", "departures_board": "no", "description": "Ref.: Pc Guilherme de Salisbury/ Avenida Egidio Martins", "gtfs_id": "780006356", "highway": "bus_stop", "name": "Avenida Francisco Vieira Bueno, 625", "network": "SPTrans", "network:wikidata": "Q7392689", "public_transport": "platform", "route_ref": "N536-11;373T-10;514T-10"}}, {"type": "node", "id": 8089579000, "lat": -23.593969, "lon": -46.526588, "tags": {"bus": "yes", "departures_board": "no", "description": "Ref.: Pc Guilherme De Salisbury/ Avenida Egidio Martins", "gtfs_id": "780006357", "highway": "bus_stop", "name": "Avenida Francisco Vieira Bueno, 626", "network": "SPTrans", "network:wikidata": "Q7392689", "public_transport": "platform", "route_ref": "N536-11;373T-10"}}, {"type": "node", "id": 8089579002, "lat": -23.592583, "lon": -46.527985, "tags": {"bus": "yes", "departures_board": "no", "description": "Ref.: Rua Frederico Jahn/ Rua Chiquinha Gonzaga", "gtfs_id": "780006358", "highway": "bus_stop", "name": "Avenida Francisco Vieira Bueno, 380", "network": "SPTrans", "network:wikidata": "Q7392689", "public_transport": "platform", "route_ref": "N536-11;373T-10"}}, {"type": "node", "id": 8089579335, "lat": -23.594713, "lon": -46.532894, "tags": {"bus": "yes", "description": "Ref.: Rua Salto Do Lontra/ Rua Guaraquecaba", "gtfs_id": "780006612", "highway": "bus_stop", "name": "Rua Jo\u00e3o Bernardes, 65", "network": "SPTRANS", "public_transport": "platform", "route_ref": "314V-10"}}, {"type": "node", "id": 8089579344, "lat": -23.59668, "lon": -46.533806, "tags": {"bus": "yes", "description": "Ref.: Avenida Vila Ema/ Rua Arraial De Matosinhos", "gtfs_id": "780006610", "highway": "bus_stop", "name": "Rua Jo\u00e3o Bernardes, 285", "network": "SPTRANS", "public_transport": "platform", "route_ref": "314V-10"}}, {"type": "node", "id": 8089579345, "lat": -23.594777, "lon": -46.5330415, "tags": {"bus": "yes", "description": "Ref.: Rua Salto Do Lontra/ Rua Guaraquecaba", "gtfs_id": "780006611", "highway": "bus_stop", "name": "Rua Jo\u00e3o Bernardes, 50", "network": "SPTRANS", "public_transport": "platform", "route_ref": "314V-10"}}, {"type": "node", "id": 8089579352, "lat": -23.597668, "lon": -46.523968, "tags": {"bus": "yes", "description": "Ref.: Rua Carolina Maria De Jesus/ Tr Dolores Lima", "gtfs_id": "780006645", "highway": "bus_stop", "name": "Rua Jos\u00e9 Ant\u00f4nio Fontes, 136", "network": "SPTRANS", "public_transport": "platform", "route_ref": "4033-10"}}, {"type": "node", "id": 8089579360, "lat": -23.59796, "lon": -46.524048, "tags": {"bus": "yes", "description": "Ref.: Rua Carolina Maria De Jesus/ Tr Dolores Lima", "gtfs_id": "780006644", "highway": "bus_stop", "name": "Rua Jos\u00e9 Ant\u00f4nio Fontes, 247", "network": "SPTRANS", "public_transport": "platform", "route_ref": "4033-10"}}, {"type": "node", "id": 8089579405, "lat": -23.594717, "lon": -46.5266, "tags": {"bus": "yes", "departures_board": "no", "description": "Ref.: Rua Padre Atilio Garret/ Avenida Vila Ema", "gtfs_id": "780006673", "highway": "bus_stop", "name": "Rua Doutor Fabio Sa Barreto, 11", "network": "SPTrans", "network:wikidata": "Q7392689", "public_transport": "platform", "route_ref": "414P-10"}}, {"type": "node", "id": 8089579464, "lat": -23.5956651, "lon": -46.524685, "tags": {"bus": "yes", "description": "Ref.: Avenida Sapopemba - C/B", "gtfs_id": "780006697", "highway": "bus_stop", "name": "Avenida Vila Ema, 6138", "network": "SPTrans", "network:wikidata": "Q7392689", "public_transport": "platform", "route_ref": "3021-10;3390-10;364A-10;4029-10;513C-10;513C-31;574C-10"}}, {"type": "node", "id": 8089579467, "lat": -23.596115, "lon": -46.526699, "tags": {"bus": "yes", "departures_board": "no", "description": "Ref.: Rua Francisco Paulino Sobrinho - B/C", "gtfs_id": "780006698", "highway": "bus_stop", "name": "Avenida Vila Ema, 5901", "network": "SPTrans", "network:wikidata": "Q7392689", "public_transport": "platform", "route_ref": "3021-10;3390-10;364A-10;4029-10;414P-10;513C-10;513C-31;574C-10"}}, {"type": "node", "id": 8089579470, "lat": -23.5970997, "lon": -46.5301724, "tags": {"bus": "yes", "description": "Ref.: Rua Shinsei Kamida - B/C", "gtfs_id": "780006699", "highway": "bus_stop", "name": "Avenida Vila Ema, 5541", "network": "SPTRANS", "public_transport": "platform", "route_ref": "3021-10;3390-10;364A-10;4029-10;574C-10"}}, {"type": "node", "id": 8089579559, "lat": -23.5948536, "lon": -46.505541, "tags": {"bench": "no", "bus": "yes", "departures_board": "no", "description": "Ref.: Rua Canoeiros/ Tr Jorge Gomes", "gtfs_id": "780006287", "highway": "bus_stop", "name": "Rua Nova Bras\u00edlia, 88", "network": "SPTrans", "network:wikidata": "Q7392689", "network:wikipedia": "pt:S\u00e3o Paulo Transporte", "public_transport": "platform", "route_ref": "373T-10;4033-10;514T-10;N536-11", "shelter": "no", "wheelchair": "no"}}, {"type": "node", "id": 8089579560, "lat": -23.59684, "lon": -46.507156, "tags": {"bus": "yes", "description": "Ref.: Rua Mara Rosa/ Rua Luis Antonio Da Costa", "gtfs_id": "780006289", "highway": "bus_stop", "name": "Rua Nova Bras\u00edlia, 367", "network": "SPTrans", "network:wikidata": "Q7392689", "network:wikipedia": "pt:S\u00e3o Paulo Transporte", "public_transport": "platform", "route_ref": "373T-10;4033-10;514T-10;N536-11"}}, {"type": "node", "id": 8089579593, "lat": -23.595395, "lon": -46.518266, "tags": {"bus": "yes", "description": "Ref.: Avenida Israel Fonseca/ Rua Borges De Medeiros", "gtfs_id": "780006296", "highway": "bus_stop", "name": "Rua Gen. Porf\u00edrio Da Paz, 1250", "network": "SPTrans", "network:wikidata": "Q7392689", "public_transport": "platform", "route_ref": "N536-11;373T-10;514T-10;574W-10"}}, {"type": "node", "id": 8089579594, "lat": -23.594952, "lon": -46.518517, "tags": {"bus": "yes", "description": "Ref.: Rua Dos Gerentes/ Rua Do Cambio", "gtfs_id": "780006297", "highway": "bus_stop", "name": "Rua Gen. Porf\u00edrio Da Paz, 1171", "network": "SPTrans", "network:wikidata": "Q7392689", "public_transport": "platform", "route_ref": "N536-11;373T-10;514T-10;574W-10"}}, {"type": "node", "id": 8089579595, "lat": -23.592155, "lon": -46.519497, "tags": {"bus": "yes", "description": "Ref.: Tr Margaridas Ao Vento/ Rua Guilherme Studart", "gtfs_id": "780006298", "highway": "bus_stop", "name": "Rua Gen. Porf\u00edrio Da Paz, 815", "network": "SPTRANS", "public_transport": "platform", "route_ref": "N536-11;373T-10;514T-10;574W-10"}}, {"type": "node", "id": 8089579596, "lat": -23.591862, "lon": -46.519516, "tags": {"bus": "yes", "description": "Ref.: Rua Dos Tesoureiros/ Rua Guilherme Studart", "gtfs_id": "780006299", "highway": "bus_stop", "name": "Rua Gen. Porf\u00edrio Da Paz, 778", "network": "SPTRANS", "public_transport": "platform", "route_ref": "N536-11;373T-10;514T-10;574W-10"}}, {"type": "node", "id": 8089579597, "lat": -23.5970908, "lon": -46.5073289, "tags": {"bus": "yes", "description": "Ref.: Rua Mara Rosa/ Rua Luis Antonio Da Costa", "gtfs_id": "780006290", "highway": "bus_stop", "name": "Rua Nova Bras\u00edlia, 408", "network": "SPTrans", "network:wikidata": "Q7392689", "public_transport": "platform", "route_ref": "373T-10;4033-10;514T-10;N536-11"}}, {"type": "node", "id": 8089579598, "lat": -23.59812, "lon": -46.510948, "tags": {"bus": "yes", "description": "Ref.: Rua Manuel Vilalobos/ Rua Hermes Silva", "gtfs_id": "780006291", "highway": "bus_stop", "name": "Rua Nova Bras\u00edlia, 857", "network": "SPTrans", "network:wikidata": "Q7392689", "public_transport": "platform", "route_ref": "373T-10;4033-10;514T-10;N536-11"}}, {"type": "node", "id": 8089579599, "lat": -23.598066, "lon": -46.511506, "tags": {"bus": "yes", "departures_board": "no", "description": "Ref.: Rua Manuel Vilalobos/ Rua Jose De Oliveira China", "gtfs_id": "780006292", "highway": "bus_stop", "name": "Rua Nova Bras\u00edlia, 902", "network": "SPTrans", "network:wikidata": "Q7392689", "public_transport": "platform", "route_ref": "373T-10;4033-10;514T-10;N536-11"}}, {"type": "node", "id": 8089579600, "lat": -23.599382, "lon": -46.513718, "tags": {"bus": "yes", "description": "Ref.: Rua Antonio Batista De Oliveira/ Rua General Porfirio Da Paz", "gtfs_id": "780006293", "highway": "bus_stop", "name": "Rua Gen. Porf\u00edrio Da Paz, 2209", "network": "SPTrans", "network:wikidata": "Q7392689", "public_transport": "platform", "route_ref": "3021-10;4033-10;574W-10"}}, {"type": "node", "id": 8089579601, "lat": -23.599253, "lon": -46.513878, "tags": {"bus": "yes", "description": "Ref.: Rua Antonio Batista De Oliveira/ Rua General Porfirio Da Paz", "gtfs_id": "780006294", "highway": "bus_stop", "name": "Rua Gen. Porf\u00edrio Da Paz, 2208", "network": "SPTrans", "network:wikidata": "Q7392689", "public_transport": "platform", "route_ref": "3021-10;4033-10;574W-10"}}, {"type": "node", "id": 8089580116, "lat": -23.5889035, "lon": -46.5105175, "tags": {"bus": "yes", "description": "Ref.: Rua Bela Vista De Goias/ Rua George Raiger", "gtfs_id": "780005510", "highway": "bus_stop", "name": "Avenida Da Barreira Grande, 2790", "network": "SPTRANS", "public_transport": "platform", "route_ref": "3053-10;3745-10;3746-10;3746-31;507T-10;5145-10;524M-10;573H-10"}}, {"type": "node", "id": 8089580147, "lat": -23.5868716, "lon": -46.5172896, "tags": {"addr:city": "S\u00e3o Paulo", "addr:housenumber": "1970", "addr:postcode": "03916-000", "addr:street": "Avenida da Barreira Grande", "bench": "yes", "bus": "yes", "departures_board": "yes", "description": "Ref.: Rua Raio De Sol/ Avenida Lauro Xerfan", "gtfs_id": "780005531", "highway": "bus_stop", "lit": "yes", "name": "Avenida Da Barreira Grande, 1965", "network": "SPTrans", "network:wikidata": "Q7392689", "network:wikipedia": "pt:S\u00e3o Paulo Transporte", "public_transport": "platform", "route_ref": "3053-10;3745-10;3746-10;3746-31;3762-10;507T-10;5145-10;524M-10;573H-10", "shelter": "yes", "wheelchair": "yes"}}, {"type": "node", "id": 8089580149, "lat": -23.5871145, "lon": -46.5163275, "tags": {"bus": "yes", "description": "Ref.: Rua Pedro De Castro Velho/ Avenida Lauro Xerfan", "gtfs_id": "780005530", "highway": "bus_stop", "name": "Avenida Da Barreira Grande, 2079", "network": "SPTRANS", "public_transport": "platform", "route_ref": "3053-10;3745-10;3746-10;3746-31;3762-10;507T-10;5145-10;524M-10;573H-10"}}, {"type": "node", "id": 8089580152, "lat": -23.5853761, "lon": -46.5194191, "tags": {"addr:city": "S\u00e3o Paulo", "addr:housenumber": "1689", "addr:postcode": "03916-000", "addr:street": "Avenida da Barreira Grande", "addr:suburb": "Vila Bancaria", "bench": "yes", "bus": "yes", "departures_board": "yes", "description": "Ref.: Rua Alger/ Rua Caetano Pero Neto", "gtfs_id": "780005533", "highway": "bus_stop", "lit": "yes", "network": "SPTrans", "network:wikidata": "Q7392689", "network:wikipedia": "pt:S\u00e3o Paulo Transporte", "public_transport": "platform", "route_ref": "N536-11;3053-10;3745-10;3746-10;3746-31;3762-10;507T-10;5145-10;514T-10;524M-10;573H-10;574W-10", "shelter": "yes", "wheelchair": "yes"}}, {"type": "node", "id": 8089580153, "lat": -23.5857483, "lon": -46.5188309, "tags": {"addr:city": "S\u00e3o Paulo", "addr:housenumber": "1710", "addr:postcode": "03916-000", "addr:street": "Avenida da Barreira Grande", "addr:suburb": "Vila Bancaria", "bench": "yes", "bus": "yes", "departures_board": "yes", "description": "Ref.: Rua Castelo Rodrigo/ Rua Garcez Do Nascimento", "gtfs_id": "780005532", "highway": "bus_stop", "lit": "yes", "network": "SPTrans", "network:wikidata": "Q7392689", "network:wikipedia": "pt:S\u00e3o Paulo Transporte", "public_transport": "platform", "route_ref": "N536-11;3053-10;3745-10;3746-10;3746-31;3762-10;507T-10;5145-10;514T-10;524M-10;573H-10;574W-10", "shelter": "yes", "wheelchair": "yes"}}, {"type": "node", "id": 8089580156, "lat": -23.5869016, "lon": -46.513119, "tags": {"bus": "yes", "description": "Ref.: Rua Josue Carmino Bruno/ Rua Alfonso Ferrabosco", "gtfs_id": "780005528", "highway": "bus_stop", "name": "Avenida Da Barreira Grande, 2508", "network": "SPTRANS", "public_transport": "platform", "route_ref": "3053-10;3745-10;3746-10;3746-31;507T-10;5145-10;524M-10;573H-10"}}, {"type": "node", "id": 8089580157, "lat": -23.586691, "lon": -46.513466, "tags": {"bus": "yes", "description": "Ref.: Rua Josue Carmino Bruno/ Rua Alberto Lupo", "gtfs_id": "780005529", "highway": "bus_stop", "name": "Avenida Da Barreira Grande, 2504", "network": "SPTRANS", "public_transport": "platform", "route_ref": "3053-10;3745-10;3746-10;3746-31;507T-10;5145-10;524M-10;573H-10"}}, {"type": "node", "id": 8089580166, "lat": -23.5850181, "lon": -46.5241711, "tags": {"addr:city": "S\u00e3o Paulo", "addr:housenumber": "1156", "addr:postcode": "03916-000", "addr:street": "Avenida da Barreira Grande", "bus": "yes", "departures_board": "yes", "description": "Ref.: Rua Acaron/ Rua Arambare", "gtfs_id": "780005556", "highway": "bus_stop", "name": "Avenida Da Barreira Grande, 1156", "network": "SPTrans", "network:wikidata": "Q7392689", "network:wikipedia": "pt:S\u00e3o Paulo Transporte", "public_transport": "platform", "route_ref": "3053-10;3134-10;3729-10;3745-10;3746-10;3746-31;407A-10;5145-10;514T-10;573H-10;N536-11", "shelter": "no"}}, {"type": "node", "id": 8089580170, "lat": -23.5849102, "lon": -46.5207028, "tags": {"addr:city": "S\u00e3o Paulo", "addr:housenumber": "1538", "addr:postcode": "03916-000", "addr:street": "Avenida da Barreira Grande", "bus": "yes", "departures_board": "yes", "description": "Ref.: Rua Engenheiro Pinto Martins/ Avenida Inconfidencia Mineira", "gtfs_id": "780005553", "highway": "bus_stop", "name": "Avenida da Barreira Grande, 1537", "network": "SPTrans", "network:wikidata": "Q7392689", "network:wikipedia": "pt:S\u00e3o Paulo Transporte", "public_transport": "platform", "route_ref": "3053-10;3134-10;3729-10;3745-10;3746-10;3746-31;407A-10;5145-10;514T-10;573H-10;N536-11"}}, {"type": "node", "id": 8089580173, "lat": -23.5848659, "lon": -46.5237062, "tags": {"addr:city": "S\u00e3o Paulo", "addr:housenumber": "1211", "addr:postcode": "03916-000", "addr:street": "Avenida da Barreira Grande", "bench": "yes", "bus": "yes", "departures_board": "yes", "description": "Ref.: Rua Sylvio Pesseti/ Rua Acaron", "gtfs_id": "780005555", "highway": "bus_stop", "lit": "yes", "network": "SPTrans", "network:wikidata": "Q7392689", "network:wikipedia": "pt:S\u00e3o Paulo Transporte", "public_transport": "platform", "route_ref": "3053-10;3134-10;3729-10;3745-10;3746-10;3746-31;407A-10;5145-10;514T-10;573H-10;N536-11", "shelter": "yes", "wheelchair": "yes"}}, {"type": "node", "id": 8089580174, "lat": -23.5847706, "lon": -46.5206735, "tags": {"addr:city": "S\u00e3o Paulo", "addr:housenumber": "1517", "addr:postcode": "03916-000", "addr:street": "Avenida da Barreira Grande", "bench": "no", "bus": "yes", "departures_board": "yes", "description": "Ref.: Rua Professor Jose de Moura Moniz/ Rua Padre Miguelinho", "gtfs_id": "780005554", "highway": "bus_stop", "name": "Avenida da Barreira Grande, 1517", "network": "SPTrans", "network:wikidata": "Q7392689", "network:wikipedia": "pt:S\u00e3o Paulo Transporte", "public_transport": "platform", "route_ref": "3053-10;3134-10;3729-10;3745-10;3746-10;3746-31;407A-10;5145-10;514T-10;573H-10;N536-11", "shelter": "no", "wheelchair": "no"}}, {"type": "node", "id": 8089580196, "lat": -23.5851604, "lon": -46.5271705, "tags": {"bus": "yes", "departures_board": "yes", "description": "Ref.: Rua Manoel Ferreira Pires/ Rua Pedro Vitorato", "gtfs_id": "780005573", "highway": "bus_stop", "name": "Avenida Da Barreira Grande, 834", "network": "SPTrans", "network:wikidata": "Q7392689", "network:wikipedia": "pt:S\u00e3o Paulo Transporte", "public_transport": "platform", "route_ref": "3053-10;3134-10;3729-10;3746-10;3746-31;407A-10;5145-10;573H-10", "shelter": "no"}}, {"type": "node", "id": 8089580198, "lat": -23.5844909, "lon": -46.527799, "tags": {"addr:city": "S\u00e3o Paulo", "addr:housenumber": "741", "addr:postcode": "03386-000", "addr:street": "Avenida da Barreira Grande", "bench": "yes", "bus": "yes", "departures_board": "yes", "description": "Ref.: Rua Manoel Ferreira Pires/ Rua Pedro Vitorato", "gtfs_id": "780005574", "highway": "bus_stop", "lit": "yes", "network": "SPTrans", "network:wikidata": "Q7392689", "network:wikipedia": "pt:S\u00e3o Paulo Transporte", "public_transport": "platform", "route_ref": "3053-10;3134-10;3161-10;3729-10;3746-10;3746-31;407A-10;5145-10;573H-10", "shelter": "yes", "wheelchair": "yes"}}, {"type": "node", "id": 8089580206, "lat": -23.5838047, "lon": -46.5327903, "tags": {"addr:city": "S\u00e3o Paulo", "addr:housenumber": "186", "addr:street": "Avenida da Barreira Grande", "bus": "yes", "departures_board": "yes", "description": "Ref.: Tr Maria Da Conceicao Maia/ Rua Arsenio Dos Santos", "gtfs_id": "780005590", "highway": "bus_stop", "network": "SPTrans", "network:wikidata": "Q7392689", "network:wikipedia": "pt:S\u00e3o Paulo Transporte", "public_transport": "platform", "route_ref": "3053-10;3134-10;3161-10;3729-10;3746-10;3746-31;407A-10;5145-10;573H-10"}}, {"type": "node", "id": 8089580212, "lat": -23.5835985, "lon": -46.532597, "tags": {"bus": "yes", "description": "Ref.: Tr Maria Da Conceicao Maia/ Rua Ernesto Dos Santos", "gtfs_id": "780005589", "highway": "bus_stop", "name": "Avenida Da Barreira Grande, 209", "network": "SPTrans", "network:wikidata": "Q7392689", "public_transport": "platform", "route_ref": "3053-10;3134-10;3161-10;3729-10;3746-10;3746-31;407A-10;5145-10;573H-10"}}, {"type": "node", "id": 8089580217, "lat": -23.5838122, "lon": -46.5297095, "tags": {"bus": "yes", "description": "Ref.: Rua Davina Coutinho Guimaraes/ Tr Julio Dos Santos", "gtfs_id": "780005588", "highway": "bus_stop", "name": "Avenida Da Barreira Grande, 535", "network": "SPTrans", "network:wikidata": "Q7392689", "public_transport": "platform", "route_ref": "3053-10;3134-10;3161-10;3729-10;3746-10;3746-31;407A-10;5145-10;573H-10"}}, {"type": "node", "id": 8089580219, "lat": -23.5840993, "lon": -46.5291788, "tags": {"addr:city": "S\u00e3o Paulo", "addr:housenumber": "592", "addr:postcode": "03386-000", "addr:street": "Avenida da Barreira Grande", "bench": "yes", "bus": "yes", "departures_board": "yes", "description": "Ref.: Rua Davina Coutinho Guimaraes/ Rua Jose Luis Ribeiro", "gtfs_id": "780005587", "highway": "bus_stop", "lit": "yes", "network": "SPTrans", "network:wikidata": "Q7392689", "network:wikipedia": "pt:S\u00e3o Paulo Transporte", "public_transport": "platform", "route_ref": "3053-10;3134-10;3161-10;3729-10;3746-10;3746-31;407A-10;5145-10;573H-10", "shelter": "yes", "wheelchair": "yes"}}, {"type": "node", "id": 8089580369, "lat": -23.5984942, "lon": -46.5289856, "tags": {"bus": "yes", "description": "Ref.: Rua Correa Da Camara/ Rua Ritapolis", "gtfs_id": "780012783", "highway": "bus_stop", "name": "Rua Sta. Maria Do Cambuc\u00e1, 287", "network": "SPTrans", "network:wikidata": "Q7392689", "public_transport": "platform", "route_ref": "414P-10;513C-10;513C-31"}}, {"type": "node", "id": 8089580370, "lat": -23.5972058, "lon": -46.5280429, "tags": {"bus": "yes", "description": "Ref.: Rua Azul/ Rua Aparecido Carlos Ferreira Correa", "gtfs_id": "780012785", "highway": "bus_stop", "name": "Rua Sta. Maria Do Cambuc\u00e1, 101", "network": "SPTRANS", "public_transport": "platform", "route_ref": "414P-10;513C-10;513C-31"}}, {"type": "node", "id": 8149400383, "lat": -23.5856894, "lon": -46.5015121, "tags": {"bus": "yes", "description": "Ref.: Rua Pastor Agenor Caldeira Diniz", "gtfs_id": "7504727", "highway": "bus_stop", "name": "Rua Central De Santa Helena, 66", "network": "SPTRANS", "route_ref": "507T-10"}}, {"type": "node", "id": 8149400621, "lat": -23.597328, "lon": -46.5091384, "tags": {"bus": "yes", "description": "Ref.: Rua Luis Antonio Da Costa", "gtfs_id": "7804420", "highway": "bus_stop", "name": "Rua Nova Bras\u00edlia, 626", "network": "SPTrans", "network:wikidata": "Q7392689", "public_transport": "platform", "route_ref": "373T-10;4033-10;514T-10;N536-11"}}, {"type": "node", "id": 8149400622, "lat": -23.5974404, "lon": -46.50901, "tags": {"bench": "no", "bus": "yes", "departures_board": "no", "description": "Ref.: Rua Primeiro Sorriso", "gtfs_id": "7804421", "highway": "bus_stop", "name": "Rua Nova Bras\u00edlia, 613", "network": "SPTrans", "network:wikidata": "Q7392689", "public_transport": "platform", "route_ref": "373T-10;4033-10;514T-10;N536-11", "shelter": "no", "wheelchair": "no"}}, {"type": "node", "id": 8149400624, "lat": -23.5979, "lon": -46.51245, "tags": {"bus": "yes", "description": "Ref.: Rua Lorenzo Pranzini X Rua Benjamin Carr", "gtfs_id": "7804418", "highway": "bus_stop", "name": "Rua Visconde De Sousa Franco, 27", "network": "SPTrans", "network:wikidata": "Q7392689", "public_transport": "platform", "route_ref": "3021-10"}}, {"type": "node", "id": 8149400626, "lat": -23.5957216, "lon": -46.5122074, "tags": {"bus": "yes", "gtfs_id": "7804415", "highway": "bus_stop", "name": "Rua Juliano Cartari, 39", "network": "SPTrans", "network:wikidata": "Q7392689", "public_transport": "platform", "route_ref": "3021-10"}}, {"type": "node", "id": 8149400641, "lat": -23.591708, "lon": -46.500229, "tags": {"bus": "yes", "description": "Ref.: Rua Campo Florido", "gtfs_id": "7504814", "highway": "bus_stop", "name": "Avenida Da Barreira Grande, 3969", "network": "SPTrans", "network:wikidata": "Q7392689", "public_transport": "platform", "route_ref": "3053-10"}}, {"type": "node", "id": 8149400948, "lat": -23.59103, "lon": -46.5045675, "tags": {"bus": "yes", "description": "Ref.: Rua Estado Do Amazonas", "gtfs_id": "7504705", "highway": "bus_stop", "name": "Avenida Da Barreira Grande, 3328", "network": "SPTRANS", "public_transport": "platform", "route_ref": "3053-10;3745-10;3746-10;3746-31;407W-10;5145-10;524M-10;573H-10;N434-11"}}, {"type": "node", "id": 8149400971, "lat": -23.5844803, "lon": -46.4988004, "tags": {"bus": "yes", "description": "Ref.: Rua Pastor Agenor Caldeira Diniz", "gtfs_id": "7504711", "highway": "bus_stop", "name": "Avenida Lu\u00eds Pires De Minas, 1212", "network": "SPTRANS", "public_transport": "platform", "route_ref": "N434-11;364A-10"}}, {"type": "node", "id": 8149400973, "lat": -23.593479, "lon": -46.502614, "tags": {"bus": "yes", "description": "Ref.: Tv Flor Da Manha", "gtfs_id": "7504710", "highway": "bus_stop", "name": "Avenida Lu\u00eds Pires De Minas, 77", "network": "SPTrans", "network:wikidata": "Q7392689", "public_transport": "platform", "route_ref": "364A-10;3746-10;3746-31;507T-10;5145-10;524M-10;573H-10"}}, {"type": "node", "id": 8149401150, "lat": -23.5939436, "lon": -46.511845, "tags": {"bus": "yes", "description": "Ref.: Rua Jim Clark", "gtfs_id": "7805036", "highway": "bus_stop", "name": "Rua Henry Fuseli, 139", "network": "SPTRANS", "route_ref": "3021-10"}}, {"type": "node", "id": 8149401425, "lat": -23.587022, "lon": -46.528133, "tags": {"bus": "yes", "description": "Ref.: Rua Marcolino Fagundes", "gtfs_id": "7804662", "highway": "bus_stop", "name": "Avenida Eng. Feij\u00f3 Bitencourt, 424", "network": "SPTRANS", "public_transport": "platform", "route_ref": "N536-11;373T-10;514T-10"}}, {"type": "node", "id": 8149401426, "lat": -23.5872279, "lon": -46.5289309, "tags": {"bus": "yes", "description": "Ref.: Rua Meireles Reis Filho", "gtfs_id": "7804661", "highway": "bus_stop", "name": "Avenida Eng. Feij\u00f3 Bitencourt, 349", "network": "SPTRANS", "public_transport": "platform", "route_ref": "N536-11;373T-10;514T-10"}}, {"type": "node", "id": 8149401595, "lat": -23.5863364, "lon": -46.5187622, "tags": {"bus": "yes", "description": "Ref.: Avenida Da Barreira Grande / Rua Dos Cambistas", "gtfs_id": "7805134", "highway": "bus_stop", "name": "Rua Gen. Porf\u00edrio Da Paz, 57", "network": "SPTRANS", "public_transport": "platform", "route_ref": "N536-11;373T-10;514T-10;574W-10"}}, {"type": "node", "id": 8149401600, "lat": -23.5885991, "lon": -46.5199299, "tags": {"bus": "yes", "description": "Ref.: Rua Da Bolsa/r Dos Correntistas", "gtfs_id": "7805136", "highway": "bus_stop", "name": "Rua Gen. Porf\u00edrio Da Paz, 339", "network": "SPTRANS", "public_transport": "platform", "route_ref": "N536-11;373T-10;514T-10;574W-10"}}, {"type": "node", "id": 8149401606, "lat": -23.589403, "lon": -46.516564, "tags": {"bus": "yes", "description": "Ref.: Rua Doutor Domingos Americana", "gtfs_id": "7805132", "highway": "bus_stop", "name": "Rua Pedro De Castro Velho, 234", "network": "SPTRANS", "route_ref": "3762-10"}}, {"type": "node", "id": 8149401619, "lat": -23.589056, "lon": -46.530435, "tags": {"bus": "yes", "description": "Ref.: Rua Eng\u00ba Albano De Azevedo", "gtfs_id": "7805128", "highway": "bus_stop", "name": "Avenida Eng. Feij\u00f3 Bitencourt, 80", "network": "SPTRANS", "public_transport": "platform", "route_ref": "N536-11;373T-10;514T-10"}}, {"type": "node", "id": 8149401632, "lat": -23.592666, "lon": -46.508551, "tags": {"bus": "yes", "gtfs_id": "7805157", "highway": "bus_stop", "name": "Rua Ant\u00f4nio Bonporti, 244", "network": "SPTRANS", "route_ref": "4729-10"}}, {"type": "node", "id": 8149401637, "lat": -23.598202, "lon": -46.512901, "tags": {"bus": "yes", "description": "Ref.: Rua Nova Brasilia", "gtfs_id": "7805154", "highway": "bus_stop", "name": "Rua Visconde De Sousa Franco, 30", "network": "SPTrans", "network:wikidata": "Q7392689", "public_transport": "platform", "route_ref": "3021-10"}}, {"type": "node", "id": 8149401690, "lat": -23.5923907, "lon": -46.5132616, "tags": {"bus": "yes", "description": "Ref.: Rua Estebam Araciel", "gtfs_id": "7805170", "highway": "bus_stop", "name": "Rua Benjamin Carr, 589", "network": "SPTRANS", "route_ref": "3021-10;4729-10"}}, {"type": "node", "id": 8149401692, "lat": -23.592257, "lon": -46.512339, "tags": {"bus": "yes", "gtfs_id": "7805171", "highway": "bus_stop", "name": "Rua Jo\u00e3o Da Praia, 101", "network": "SPTRANS", "route_ref": "4729-10"}}, {"type": "node", "id": 8149401722, "lat": -23.5965284, "lon": -46.515759, "tags": {"bus": "yes", "description": "Ref.: Rua Pedro De Castro Velho", "gtfs_id": "7805166", "highway": "bus_stop", "name": "Rua Gen. Porf\u00edrio Da Paz, 1563", "network": "SPTrans", "network:wikidata": "Q7392689", "public_transport": "platform", "route_ref": "N536-11;373T-10;514T-10;574W-10"}}, {"type": "node", "id": 8149401768, "lat": -23.5911806, "lon": -46.5075233, "tags": {"bus": "yes", "description": "Ref.: Rua Luis Parisotto", "gtfs_id": "7805185", "highway": "bus_stop", "name": "Rua Ant\u00f4nio Bonporti, 92", "network": "SPTRANS", "route_ref": "4729-10"}}, {"type": "node", "id": 8149401775, "lat": -23.592362, "lon": -46.508417, "tags": {"bus": "yes", "description": "Ref.: Rua Ezio Donati", "gtfs_id": "7805188", "highway": "bus_stop", "name": "Rua Ant\u00f4nio Bonporti, 196", "network": "SPTRANS", "route_ref": "4729-10"}}, {"type": "node", "id": 8149401777, "lat": -23.5908975, "lon": -46.5070245, "tags": {"bus": "yes", "description": "Avenida Arraias Do Araguaia Ref.: Avenida Barreira Grande", "gtfs_id": "7805183", "highway": "bus_stop", "name": "Avenida Arraias Do Araguaia", "network": "SPTrans", "network:wikidata": "Q7392689", "network:wikipedia": "pt:S\u00e3o Paulo Transporte", "public_transport": "platform", "route_ref": "4729-10"}}, {"type": "node", "id": 8149401779, "lat": -23.5911618, "lon": -46.5073962, "tags": {"bus": "yes", "description": "Ref.: Rua Luis Parisotto", "gtfs_id": "7805184", "highway": "bus_stop", "name": "Rua Ant\u00f4nio Bonporti, 84", "network": "SPTRANS", "route_ref": "4729-10"}}, {"type": "node", "id": 8149401828, "lat": -23.587283, "lon": -46.495711, "tags": {"bus": "yes", "description": "Ref.: Rua Central Santa Helena", "gtfs_id": "7504872", "highway": "bus_stop", "name": "Rua Estado De Pernambuco, 477", "network": "SPTRANS", "public_transport": "platform", "route_ref": "3053-10"}}, {"type": "node", "id": 8149401862, "lat": -23.5936652, "lon": -46.4985412, "tags": {"bus": "yes", "departures_board": "no", "description": "Rua Frei Inoc\u00eancio, 405 Ref.: Tp Da Linha 373t-10", "gtfs_id": "7504852", "highway": "bus_stop", "name": "Rua Frei Inoc\u00eancio, 405", "network": "SPTrans", "network:wikidata": "Q7392689", "public_transport": "platform", "route_ref": "373T-10"}}, {"type": "node", "id": 8149401865, "lat": -23.585231, "lon": -46.499307, "tags": {"bus": "yes", "description": "Ref.: Rua Pirangu\u00e7u", "gtfs_id": "7504855", "highway": "bus_stop", "name": "Avenida Lu\u00eds Pires De Minas, 1073", "network": "SPTRANS", "public_transport": "platform", "route_ref": "N434-11;364A-10"}}, {"type": "node", "id": 8149401922, "lat": -23.5950968, "lon": -46.5067178, "tags": {"bus": "yes", "description": "Ref.: Rua Xavier Sampaio", "gtfs_id": "7504895", "highway": "bus_stop", "name": "Avenida Arraias Do Araguaia, 130", "network": "SPTrans", "network:wikidata": "Q7392689", "public_transport": "platform", "route_ref": "4729-10"}}, {"type": "node", "id": 8149402009, "lat": -23.5988542, "lon": -46.5294628, "tags": {"bus": "yes", "description": "Ref.: Rua Rit\u00e1polis", "gtfs_id": "7804306", "highway": "bus_stop", "name": "Rua Sta. Maria Do Cambuc\u00e1, 332", "network": "SPTrans", "network:wikidata": "Q7392689", "public_transport": "platform", "route_ref": "414P-10;513C-10;513C-31"}}, {"type": "node", "id": 8149402017, "lat": -23.5966287, "lon": -46.5279259, "tags": {"bus": "yes", "description": "Ref.: Rua Santa Maria Do Cambuc\u00e1 - C/B", "gtfs_id": "7804302", "highway": "bus_stop", "name": "Avenida Vila Ema, 5752", "network": "SPTrans", "network:wikidata": "Q7392689", "public_transport": "platform", "route_ref": "3021-10;3390-10;364A-10;4029-10;574C-10"}}, {"type": "node", "id": 8149402231, "lat": -23.5966238, "lon": -46.515656, "tags": {"bus": "yes", "description": "Ref.: Rua Vicente Da Silva", "gtfs_id": "7804356", "highway": "bus_stop", "name": "Rua Gen. Porf\u00edrio Da Paz, 1568", "network": "SPTrans", "network:wikidata": "Q7392689", "public_transport": "platform", "route_ref": "373T-10;4729-10;514T-10;574W-10;N536-11"}}, {"type": "node", "id": 8149402343, "lat": -23.5951606, "lon": -46.5056089, "tags": {"bus": "yes", "departures_board": "yes", "description": "Ref.: Rua Canoeiros", "gtfs_id": "7804393", "highway": "bus_stop", "name": "Rua Nova Bras\u00edlia, 103", "network": "SPTrans", "network:wikidata": "Q7392689", "network:wikipedia": "pt:S\u00e3o Paulo Transporte", "public_transport": "platform", "route_ref": "373T-10;4033-10;514T-10;N536-11", "shelter": "no"}}, {"type": "node", "id": 8223106262, "lat": -23.5761421, "lon": -46.529743, "tags": {"bus": "yes", "description": "Ref.: Rua S\u00e9timo Peacci", "gtfs_id": "8704588", "highway": "bus_stop", "name": "Rua Aurora Das Dores, 470", "network": "SPTrans", "network:wikidata": "Q7392689", "public_transport": "platform", "route_ref": "3029-10;3139-10;351F-10;3762-10;407F-10;407W-10;407Y-10;574W-10;575C-10"}}, {"type": "node", "id": 8223106264, "lat": -23.576412, "lon": -46.5275628, "tags": {"addr:city": "S\u00e3o Paulo", "addr:housenumber": "33", "addr:postcode": "03361-010", "addr:street": "Avenida Cipriano Rodrigues", "addr:suburb": "Vila Formosa", "bus": "yes", "departures_board": "yes", "description": "Ref.: Rua Mercedes Miguel", "gtfs_id": "8704591", "highway": "bus_stop", "operator": "SPTrans", "public_transport": "platform", "route_ref": "3029-10;3762-10;407F-10;407W-10;407Y-10;574W-10;575C-10;N434-11", "shelter": "no", "wheelchair": "yes"}}, {"type": "node", "id": 8223106756, "lat": -23.5753051, "lon": -46.5323696, "tags": {"bus": "yes", "description": "Ref.: Rua Marmeleiro", "gtfs_id": "8704850", "highway": "bus_stop", "name": "Rua Aurora Das Dores, 142", "network": "SPTrans", "network:wikidata": "Q7392689", "public_transport": "platform", "route_ref": "3029-10;3139-10;351F-10;3762-10;407F-10;407W-10;407Y-10;574W-10;575C-10"}}, {"type": "node", "id": 8223106776, "lat": -23.580075, "lon": -46.526119, "tags": {"bus": "yes", "description": "Ref.: Rua Manoel Ferreira Pires / Rua Helio Coelho", "gtfs_id": "8709772", "highway": "bus_stop", "name": "Rua Com. Ferreira De Souza, 269", "network": "SPTRANS", "route_ref": "3046-10"}}, {"type": "node", "id": 8223106910, "lat": -23.570895, "lon": -46.533327, "tags": {"bus": "yes", "description": "Ref.: Avenida Homero Batista", "gtfs_id": "8709709", "highway": "bus_stop", "name": "Rua Nsa. Sra. Das Dores, 502", "network": "SPTRANS", "route_ref": "3745-10"}}, {"type": "node", "id": 8223106915, "lat": -23.570309, "lon": -46.533804, "tags": {"bus": "yes", "description": "Ref.: Avenida Homero Batista", "gtfs_id": "8709708", "highway": "bus_stop", "name": "Rua Nsa. Sra. Das Dores, 439", "network": "SPTRANS", "route_ref": "3745-10"}}, {"type": "node", "id": 8223106933, "lat": -23.5787257, "lon": -46.5271461, "tags": {"bus": "yes", "description": "Ref.: Rua Manoel Ferreira Pires", "gtfs_id": "8709713", "highway": "bus_stop", "name": "Rua Carvalho Dos Santos, 223", "network": "SPTRANS", "public_transport": "platform", "route_ref": "3046-10;575C-10"}}, {"type": "node", "id": 8223106945, "lat": -23.579443, "lon": -46.528694, "tags": {"bus": "yes", "description": "Ref.: Rua Santa Terezinha", "gtfs_id": "8709720", "highway": "bus_stop", "name": "Rua Joaquim Peixoto, 22", "network": "SPTRANS", "route_ref": "3046-10"}}, {"type": "node", "id": 8223107015, "lat": -23.5715012, "lon": -46.5331085, "tags": {"bus": "yes", "departures_board": "no", "description": "Ref.: Rua Inhapim / Rua Nossa Senhora das Dores", "gtfs_id": "8709768", "highway": "bus_stop", "name": "Rua Homero Batista, 697", "network": "SPTrans", "network:wikidata": "Q7392689", "public_transport": "platform", "route_ref": "3745-10"}}, {"type": "node", "id": 8223107017, "lat": -23.579255, "lon": -46.528366, "tags": {"bus": "yes", "description": "Ref.: Rua Teresinha", "gtfs_id": "8709769", "highway": "bus_stop", "name": "Rua Com. Ferreira De Souza, 27", "network": "SPTRANS", "route_ref": "3046-10"}}, {"type": "node", "id": 8223107022, "lat": -23.58094, "lon": -46.526136, "tags": {"bus": "yes", "description": "Ref.: Rua Sargento Claudiner Evaristo Dias/ Rua Quatro De Dezembro", "gtfs_id": "870005576", "highway": "bus_stop", "name": "Rua Manoel Ferreira Pires", "network": "SPTRANS", "public_transport": "platform", "route_ref": "575C-10"}}, {"type": "node", "id": 8223107054, "lat": -23.580698, "lon": -46.531489, "tags": {"bus": "yes", "description": "Ref.: Rua Francisco Dias Rocha/ Rua Caetano Do Amaral", "gtfs_id": "870005586", "highway": "bus_stop", "name": "Rua Luzer Cogan", "network": "SPTRANS", "route_ref": "3046-10"}}, {"type": "node", "id": 8223107055, "lat": -23.580788, "lon": -46.533909, "tags": {"bus": "yes", "description": "Ref.: Rua Rio Espera/ Rua Maestro Di Negri", "gtfs_id": "870005583", "highway": "bus_stop", "name": "Avenida Ant\u00f4nio Buono, 273", "network": "SPTRANS", "route_ref": "3046-10"}}, {"type": "node", "id": 8223107057, "lat": -23.58075, "lon": -46.53157, "tags": {"bus": "yes", "description": "Ref.: Rua Sao Geraldo Da Piedade/ Rua Luzer Cogan", "gtfs_id": "870005582", "highway": "bus_stop", "name": "Rua Francisco Dias Rocha, 240", "network": "SPTRANS", "route_ref": "3046-10"}}, {"type": "node", "id": 8223107058, "lat": -23.579857, "lon": -46.529461, "tags": {"bus": "yes", "description": "Ref.: Rua Constantino Fusco/ Rua Irineu Vila Nova", "gtfs_id": "870005580", "highway": "bus_stop", "name": "Rua Joaquim Peixoto, 135", "network": "SPTRANS", "route_ref": "3046-10"}}, {"type": "node", "id": 8223107297, "lat": -23.5644466, "lon": -46.5338517, "tags": {"bus": "yes", "departures_board": "no", "description": "Ref.: Rua Muniz Barreiros", "gtfs_id": "870008594", "highway": "bus_stop", "name": "Avenida Flor de Vila Formosa, 346", "network": "SPTrans", "network:wikidata": "Q7392689", "network:wikipedia": "pt:S\u00e3o Paulo Transporte", "public_transport": "platform", "route_ref": "N433-11;3763-10"}}, {"type": "node", "id": 8223107305, "lat": -23.5741251, "lon": -46.5335294, "tags": {"bus": "yes", "description": "Ref.: Rua Aurora Das Dores/ Rua Alves De Almeida", "gtfs_id": "870008567", "highway": "bus_stop", "name": "Rua Curuena, 130", "network": "SPTrans", "network:wikidata": "Q7392689", "public_transport": "platform", "route_ref": "3029-10;3139-10;351F-10;3762-10;407F-10;407W-10;407Y-10;574W-10;575C-10"}}, {"type": "node", "id": 8251761717, "lat": -23.5762307, "lon": -46.5278258, "tags": {"addr:city": "S\u00e3o Paulo", "addr:housenumber": "27C", "addr:postcode": "03361-010", "addr:street": "Avenida Cipriano Rodrigues", "bus": "yes", "departures_board": "yes", "description": "Ref.: Rua Diomar Ackel", "gtfs_id": "404590", "highway": "bus_stop", "name": "Avenida Cipriano Rodrigues, 149", "network": "SPTRANS", "operator": "SPTrans", "public_transport": "platform", "route_ref": "3029-10;3762-10;407F-10;407W-10;407Y-10;574W-10;575C-10;N434-11", "shelter": "no", "wheelchair": "yes"}}, {"type": "node", "id": 8251783499, "lat": -23.5770272, "lon": -46.5259276, "tags": {"addr:city": "S\u00e3o Paulo", "addr:housenumber": "901", "addr:postcode": "03361-010", "addr:street": "Avenida Cipriano Rodrigues", "addr:suburb": "Vila Formosa", "bus": "yes", "departures_board": "yes", "description": "Ref.: R Aurora Das Dores", "gtfs_id": "404592", "highway": "bus_stop", "name": "Avenida Cipriano Rodrigues, 908", "network": "SPTRANS", "operator": "SPTrans", "public_transport": "platform", "route_ref": "3029-10;3762-10;407F-10;407W-10;407Y-10;574W-10;575C-10;N434-11", "shelter": "no", "wheelchair": "yes"}}, {"type": "node", "id": 8308806513, "lat": -23.5714408, "lon": -46.5258007, "tags": {"bus": "yes", "description": "Ref.: Rua Correia Faria/ Rua Oliveira Catrambi", "gtfs_id": "40005600", "highway": "bus_stop", "name": "Avenida Mons. Ant\u00f4nio De Castro, 420", "network": "SPTrans", "network:wikidata": "Q7392689", "public_transport": "platform", "route_ref": "N434-11;3139-10;351F-10;3745-10;574J-10"}}, {"type": "node", "id": 8308806514, "lat": -23.5712827, "lon": -46.5251848, "tags": {"bus": "yes", "description": "Ref.: Rua Oliveira Catrambi/ Avenida Escragnolle Doria", "gtfs_id": "40005601", "highway": "bus_stop", "name": "Avenida Mons. Ant\u00f4nio De Castro, 479", "network": "SPTrans", "network:wikidata": "Q7392689", "public_transport": "platform", "route_ref": "N434-11;3139-10;351F-10;3745-10;574J-10"}}, {"type": "node", "id": 8308806537, "lat": -23.5825075, "lon": -46.5188411, "tags": {"addr:city": "S\u00e3o Paulo", "addr:housenumber": "320", "addr:street": "Avenida Inconfid\u00eancia Mineira", "bus": "yes", "description": "Ref.: Rua Alfaro/ Rua Alger", "gtfs_id": "40005536", "highway": "bus_stop", "name": "Avenida Inconfid\u00eancia Mineira, 320", "network": "SPTrans", "network:wikidata": "Q7392689", "public_transport": "platform", "route_ref": "3134-10;3729-10;3762-10;407A-10;507T-10;524M-10;574W-10"}}, {"type": "node", "id": 8308806538, "lat": -23.588131, "lon": -46.51126, "tags": {"bus": "yes", "description": "Ref.: Rua Francisco Salzillo/ Rua Couraca", "gtfs_id": "40005527", "highway": "bus_stop", "name": "Avenida Da Barreira Grande, 2941", "network": "SPTRANS", "public_transport": "platform", "route_ref": "3053-10;3745-10;3746-10;3746-31;507T-10;5145-10;524M-10;573H-10"}}, {"type": "node", "id": 8308806541, "lat": -23.58489, "lon": -46.506389, "tags": {"bus": "yes", "description": "Ref.: Rua Costa De Lavos/ Rua Coronel Panfilo", "gtfs_id": "40005504", "highway": "bus_stop", "name": "Rua Pedro Rabelo, 632", "network": "SPTRANS", "route_ref": "407W-10"}}, {"type": "node", "id": 8308806542, "lat": -23.5853153, "lon": -46.506373, "tags": {"bus": "yes", "description": "Ref.: Linha 3029-10 - Rua Jonas Ranter/ Rua Henrique Matras", "gtfs_id": "40005509", "highway": "bus_stop", "name": "Rua Am\u00e9lia Vanso Magnoli, 16", "network": "SPTrans", "network:wikidata": "Q7392689", "network:wikipedia": "pt:S\u00e3o Paulo Transporte", "public_transport": "platform", "route_ref": "3029-10"}}, {"type": "node", "id": 8308806543, "lat": -23.582149, "lon": -46.50661, "tags": {"bus": "yes", "description": "Ref.: Rua D Avila Reboucas/ Rua Escanio Cerqueira", "gtfs_id": "40005501", "highway": "bus_stop", "name": "Rua Pedro Rabelo, 250", "network": "SPTRANS", "route_ref": "407W-10"}}, {"type": "node", "id": 8308806544, "lat": -23.580901, "lon": -46.507272, "tags": {"bus": "yes", "description": "Ref.: Rua Engenheiro Cicero Vidigal/ Pc Candido Mendes De Almeida", "gtfs_id": "40005500", "highway": "bus_stop", "name": "Rua Pedro Rabelo, 33", "network": "SPTRANS", "route_ref": "407W-10"}}, {"type": "node", "id": 8308806546, "lat": -23.58383, "lon": -46.505181, "tags": {"bus": "yes", "description": "Ref.: Rua Desembargador Amaral Vieira/ Rua Coronel Panfilo", "gtfs_id": "40005503", "highway": "bus_stop", "name": "Rua Pedro Rabelo, 52", "network": "SPTRANS", "route_ref": "407W-10"}}, {"type": "node", "id": 8308806547, "lat": -23.5833934, "lon": -46.5050615, "tags": {"bus": "yes", "description": "Ref.: Rua Desembargador Amaral Vieira/ Rua Acurama", "gtfs_id": "40005502", "highway": "bus_stop", "name": "Rua Pedro Rabelo, 481", "network": "SPTRANS", "route_ref": "407W-10;N434-11"}}, {"type": "node", "id": 8308806550, "lat": -23.5811602, "lon": -46.523687, "tags": {"bus": "yes", "departures_board": "yes", "description": "Ref.: Rua Antonio Lebel/ Rua Sargento Claudiner Evaristo Dias", "gtfs_id": "40005570", "highway": "bus_stop", "name": "Rua Abilene", "network": "SPTrans", "network:wikidata": "Q7392689", "public_transport": "platform", "route_ref": "3745-10", "shelter": "no"}}, {"type": "node", "id": 8308806551, "lat": -23.5847759, "lon": -46.5253229, "tags": {"bus": "yes", "description": "Ref.: Rua Luis Marin Dos Santos/ Rua Santo Adon", "gtfs_id": "40005572", "highway": "bus_stop", "name": "Avenida Da Barreira Grande", "network": "SPTRANS", "public_transport": "platform", "route_ref": "3053-10;3134-10;3729-10;373T-10;3746-10;3746-31;407A-10;5145-10;514T-10;573H-10;N536-11"}}, {"type": "node", "id": 8308806552, "lat": -23.584607, "lon": -46.525491, "tags": {"bus": "yes", "description": "Ref.: Rua Antonio Onofre Cidade/ Rua Joao Galli", "gtfs_id": "40005571", "highway": "bus_stop", "name": "Rua Lu\u00eds Marin Dos Santos, 35", "network": "SPTRANS", "route_ref": "3161-10;3745-10"}}, {"type": "node", "id": 8308806553, "lat": -23.57962, "lon": -46.525288, "tags": {"bus": "yes", "description": "Ref.: Rua Comendador Ferreira De Souza/ Rua Carvalho Dos Santos", "gtfs_id": "40005578", "highway": "bus_stop", "name": "Rua Manoel Ferreira Pires, 603", "network": "SPTRANS", "route_ref": "3046-10"}}, {"type": "node", "id": 8308806554, "lat": -23.580175, "lon": -46.52548, "tags": {"bus": "yes", "description": "Rua Manoel Ferreira Pires, 581 Ref.: Rua Comendador Ferreira De Souza/ Rua Carvalho Dos Santos", "gtfs_id": "40005577", "highway": "bus_stop", "name": "Rua Manoel Ferreira Pires, 581", "network": "SPTRANS", "route_ref": "3046-10"}}, {"type": "node", "id": 8308806557, "lat": -23.577186, "lon": -46.520732, "tags": {"bus": "yes", "description": "Ref.: Rua Cl\u00e1udio Henrique De Paula", "gtfs_id": "40005561", "highway": "bus_stop", "name": "Avenida Aguiar Da Beira, 917", "network": "SPTRANS", "route_ref": "3745-10"}}, {"type": "node", "id": 8308806558, "lat": -23.5788851, "lon": -46.5219838, "tags": {"bus": "yes", "description": "Ref.: Rua Claudio Henrique De Paula/ Rua Lourenco Silva Araujo E Amazonas", "gtfs_id": "40005560", "highway": "bus_stop", "name": "Avenida Aguiar Da Beira, 14", "network": "SPTrans", "network:wikidata": "Q7392689", "public_transport": "platform", "route_ref": "3745-10"}}, {"type": "node", "id": 8308806559, "lat": -23.572748, "lon": -46.519665, "tags": {"bus": "yes", "description": "Ref.: Rua Antonio Neto Caldeira/ Rua Evaristo Pereira Escorsa", "gtfs_id": "40005563", "highway": "bus_stop", "name": "Avenida Aguiar Da Beira, 2", "network": "SPTRANS", "route_ref": "3745-10"}}, {"type": "node", "id": 8308806560, "lat": -23.5756617, "lon": -46.5201989, "tags": {"bus": "yes", "description": "Ref.: Rua Canto De Ninar/ Rua Presidente Bernardes", "gtfs_id": "40005562", "highway": "bus_stop", "name": "Avenida Aguiar Da Beira", "network": "SPTRANS", "route_ref": "3745-10"}}, {"type": "node", "id": 8308806561, "lat": -23.5703765, "lon": -46.5191808, "tags": {"bus": "yes", "description": "Ref.: Rua Coronel Joao De Oliveira Melo/ Rua Jose Lopes De Toledo", "gtfs_id": "40005565", "highway": "bus_stop", "name": "Avenida Aguiar Da Beira, 83", "network": "SPTRANS", "route_ref": "3745-10"}}, {"type": "node", "id": 8308806562, "lat": -23.570405, "lon": -46.518927, "tags": {"bus": "yes", "description": "Ref.: Rua Coronel Joao De Oliveira Melo/ Rua Jose Lopes De Toledo", "gtfs_id": "40005564", "highway": "bus_stop", "name": "Avenida Aguiar Da Beira, 83", "network": "SPTRANS", "route_ref": "3745-10"}}, {"type": "node", "id": 8308806563, "lat": -23.575992, "lon": -46.5204571, "tags": {"bus": "yes", "description": "Ref.: Rua Bactoria/ Avenida Cipriano Rodrigues", "gtfs_id": "40005567", "highway": "bus_stop", "name": "Avenida Aguiar Da Beira", "network": "SPTRANS", "route_ref": "3745-10"}}, {"type": "node", "id": 8308806564, "lat": -23.57426, "lon": -46.520226, "tags": {"bus": "yes", "description": "Ref.: Rua Manuel Figueiredo", "gtfs_id": "40005566", "highway": "bus_stop", "name": "Avenida Aguiar Da Beira", "network": "SPTRANS", "route_ref": "3745-10"}}, {"type": "node", "id": 8308806565, "lat": -23.5792891, "lon": -46.5226338, "tags": {"bus": "yes", "departures_board": "yes", "description": "Ref.: Rua Izis Dias De Oliveira/ Rua Claudio Henrique De Paula", "gtfs_id": "40005569", "highway": "bus_stop", "name": "Rua Abilene", "network": "SPTrans", "network:wikidata": "Q7392689", "public_transport": "platform", "route_ref": "3745-10"}}, {"type": "node", "id": 8308806566, "lat": -23.577394, "lon": -46.521233, "tags": {"bus": "yes", "description": "Ref.: Rua Estanislau Bonk Filho/ Rua Doutor Alvares Teixeira", "gtfs_id": "40005568", "highway": "bus_stop", "name": "Avenida Aguiar Da Beira, 30", "network": "SPTRANS", "route_ref": "3745-10"}}, {"type": "node", "id": 8308806567, "lat": -23.5808176, "lon": -46.5230674, "tags": {"bus": "yes", "departures_board": "yes", "description": "Ref.: Rua Antonio Lebel/ Rua Bartolomeu Abril", "gtfs_id": "40005559", "highway": "bus_stop", "name": "Rua Arambare, 34", "network": "SPTrans", "network:wikidata": "Q7392689", "public_transport": "platform", "route_ref": "3745-10", "shelter": "no"}}, {"type": "node", "id": 8308806571, "lat": -23.583489, "lon": -46.524286, "tags": {"bus": "yes", "description": "Ref.: Rua Acangipa/ Rua Campos Do Mondego", "gtfs_id": "40005558", "highway": "bus_stop", "name": "Rua Arambare, 15", "network": "SPTRANS", "route_ref": "3745-10"}}, {"type": "node", "id": 8308806572, "lat": -23.5846435, "lon": -46.5249442, "tags": {"bus": "yes", "description": "Ref.: Avenida Da Barreira Grande/ Rua Luis Marin Dos Santos", "gtfs_id": "40005557", "highway": "bus_stop", "name": "Rua Sto. Adon, 82", "network": "SPTRANS", "route_ref": "3745-10"}}, {"type": "node", "id": 8308806575, "lat": -23.5777571, "lon": -46.5167413, "tags": {"addr:city": "S\u00e3o Paulo", "addr:housenumber": "846", "addr:street": "Avenida Inconfid\u00eancia Mineira", "bus": "yes", "description": "Ref.: Rua Carlos De Toledo Mello/ Rua Padre Jose De Oliveira Rolim", "gtfs_id": "40005541", "highway": "bus_stop", "network": "SPTrans", "network:wikidata": "Q7392689", "public_transport": "platform", "route_ref": "3134-10;3729-10;3762-10;407A-10;507T-10;524M-10;574W-10"}}, {"type": "node", "id": 8308806576, "lat": -23.5782175, "lon": -46.5173181, "tags": {"addr:city": "S\u00e3o Paulo", "addr:housenumber": "817", "addr:street": "Avenida Inconfid\u00eancia Mineira", "bus": "yes", "departures_board": "yes", "description": "Ref.: Rua Inacio De Alvarenga Peixoto/ Rua Antonio Maximiano Rodrigues", "gtfs_id": "40005540", "highway": "bus_stop", "network": "SPTrans", "network:wikidata": "Q7392689", "public_transport": "platform", "route_ref": "3134-10;3729-10;3762-10;407A-10;507T-10;524M-10;574W-10", "shelter": "no"}}, {"type": "node", "id": 8308806577, "lat": -23.5756947, "lon": -46.5148892, "tags": {"addr:city": "S\u00e3o Paulo", "addr:housenumber": "1058", "addr:street": "Avenida Inconfid\u00eancia Mineira", "addr:suburb": "Vila Antonieta", "bus": "yes", "departures_board": "yes", "description": "Ref.: Rua Jeju/ Rua Jose Lopes De Toledo", "gtfs_id": "40005543", "highway": "bus_stop", "name": "Avenida Inconfid\u00eancia Mineira, 1058", "network": "SPTrans", "network:wikidata": "Q7392689", "public_transport": "platform", "route_ref": "3134-10;3729-10;407A-10;407Y-10;507T-10;524M-10", "shelter": "no"}}, {"type": "node", "id": 8308806578, "lat": -23.5768007, "lon": -46.5163587, "tags": {"bus": "yes", "departures_board": "no", "description": "Ref.: Avenida Dos Nacionalistas/ Rua Antonio Neto Caldeira", "gtfs_id": "40005542", "highway": "bus_stop", "name": "Avenida Inconfid\u00eancia Mineira, 1009", "network": "SPTrans", "network:wikidata": "Q7392689", "public_transport": "platform", "route_ref": "3134-10;3729-10;407A-10;407Y-10;507T-10;524M-10"}}, {"type": "node", "id": 8308806580, "lat": -23.5742257, "lon": -46.5132974, "tags": {"addr:city": "S\u00e3o Paulo", "addr:housenumber": "1422", "addr:street": "Avenida Inconfid\u00eancia Mineira", "bus": "yes", "description": "Ref.: Rua Petrobras/ Rua Coronel Joao De Oliveira Melo", "gtfs_id": "40005547", "highway": "bus_stop", "name": "Avenida Inconfid\u00eancia Mineira, 1422", "network": "SPTrans", "network:wikidata": "Q7392689", "public_transport": "platform", "route_ref": "3134-10;3729-10;407A-10;407Y-10;507T-10;524M-10"}}, {"type": "node", "id": 8308806582, "lat": -23.5808164, "lon": -46.5182252, "tags": {"addr:city": "S\u00e3o Paulo", "addr:housenumber": "524", "addr:street": "Avenida Inconfid\u00eancia Mineira", "bus": "yes", "departures_board": "yes", "description": "Ref.: Tr Ocaso No Mar/ Rua Claudio Henrique De Paula", "gtfs_id": "40005538", "highway": "bus_stop", "network": "SPTrans", "network:wikidata": "Q7392689", "public_transport": "platform", "route_ref": "3134-10;3729-10;3762-10;407A-10;507T-10;524M-10;574W-10", "shelter": "yes"}}, {"type": "node", "id": 8308806583, "lat": -23.5817341, "lon": -46.5186681, "tags": {"addr:city": "S\u00e3o Paulo", "addr:housenumber": "409", "addr:street": "Avenida Inconfid\u00eancia Mineira", "bus": "yes", "description": "Ref.: Rua Miguel Bastos Soares/ Rua Azival", "gtfs_id": "40005537", "highway": "bus_stop", "network": "SPTrans", "network:wikidata": "Q7392689", "public_transport": "platform", "route_ref": "3134-10;3729-10;3762-10;407A-10;507T-10;524M-10;574W-10"}}, {"type": "node", "id": 8308806584, "lat": -23.5798368, "lon": -46.5180586, "tags": {"addr:city": "S\u00e3o Paulo", "addr:housenumber": "631", "addr:street": "Avenida Inconfid\u00eancia Mineira", "bus": "yes", "departures_board": "yes", "description": "Ref.: Rua Claudio Henrique De Paula/ Rua Tomas Antonio Gonzaga", "gtfs_id": "40005539", "highway": "bus_stop", "network": "SPTrans", "network:wikidata": "Q7392689", "public_transport": "platform", "route_ref": "3134-10;3729-10;3762-10;407A-10;507T-10;524M-10;574W-10", "shelter": "no"}}, {"type": "node", "id": 8308806588, "lat": -23.586905, "lon": -46.510444, "tags": {"bus": "yes", "description": "Ref.: Rua Eduardo Palmerio/ Rua Sebastiao Marchesoni", "gtfs_id": "40005493", "highway": "bus_stop", "name": "Rua Tuma Maluly, 279", "network": "SPTRANS", "public_transport": "platform", "route_ref": "N434-11;3029-10;407W-10"}}, {"type": "node", "id": 8308806590, "lat": -23.585287, "lon": -46.510818, "tags": {"bus": "yes", "description": "Ref.: Rua Domingos Costa/ Rua Evania De Souza Gomes", "gtfs_id": "40005495", "highway": "bus_stop", "name": "Rua Tuma Maluly, 461", "network": "SPTRANS", "public_transport": "platform", "route_ref": "N434-11;3029-10;407W-10"}}, {"type": "node", "id": 8308806592, "lat": -23.5830765, "lon": -46.5096519, "tags": {"bus": "yes", "description": "Ref.: Rua Maria Laura Figueiredo/ Rua Costa De Lavos", "gtfs_id": "40005497", "highway": "bus_stop", "name": "Rua Aconchi, 280", "network": "SPTRANS", "public_transport": "platform", "route_ref": "3029-10"}}, {"type": "node", "id": 8308806594, "lat": -23.584596, "lon": -46.510352, "tags": {"bus": "yes", "description": "Ref.: Rua Barra Do Rio Abaixo/ Rua Alto Alecrim", "gtfs_id": "40005496", "highway": "bus_stop", "name": "Rua Adoniro Augusto De Paula, 16", "network": "SPTRANS", "public_transport": "platform", "route_ref": "N434-11;3029-10;407W-10"}}, {"type": "node", "id": 8308806596, "lat": -23.582575, "lon": -46.509731, "tags": {"bus": "yes", "description": "Ref.: Rua Maria Laura Figueiredo/ Rua Francisco Alves De Carvalho", "gtfs_id": "40005498", "highway": "bus_stop", "name": "Rua Nello Selmi Dei, 230", "network": "SPTRANS", "public_transport": "platform", "route_ref": "N434-11;3029-10"}}, {"type": "node", "id": 8308806637, "lat": -23.5753833, "lon": -46.52844, "tags": {"bus": "yes", "description": "Ref.: Rua Abdo Salem/ Rua Walter Imbra Dos Santos", "gtfs_id": "40005594", "highway": "bus_stop", "name": "Rua Caravela Rosa, 50", "network": "SPTrans", "network:wikidata": "Q7392689", "public_transport": "platform", "route_ref": "N434-11;3139-10;351F-10"}}, {"type": "node", "id": 8308806639, "lat": -23.577985, "lon": -46.524771, "tags": {"bus": "yes", "description": "Ref.: Rua Lourenco Silva Araujo E Amazonas/ Rua Claudio Henrique De Paula", "gtfs_id": "40005593", "highway": "bus_stop", "name": "Rua Manoel Ferreira Pires, 768", "network": "SPTRANS", "public_transport": "platform", "route_ref": "3046-10;575C-10"}}, {"type": "node", "id": 8308806640, "lat": -23.5741699, "lon": -46.5275515, "tags": {"bus": "yes", "description": "Ref.: Rua Walter Imbra Dos Santos/ Rua Cesario Melantonio", "gtfs_id": "40005596", "highway": "bus_stop", "name": "Rua Abdo Salem", "network": "SPTrans", "network:wikidata": "Q7392689", "public_transport": "platform", "route_ref": "N434-11;3139-10;351F-10"}}, {"type": "node", "id": 8308806641, "lat": -23.5747655, "lon": -46.5282628, "tags": {"bus": "yes", "description": "Ref.: Rua Capela De Pedras/ Rua Barinel", "gtfs_id": "40005595", "highway": "bus_stop", "name": "Rua Walter Imbra Dos Santos, 103", "network": "SPTrans", "network:wikidata": "Q7392689", "public_transport": "platform", "route_ref": "N434-11;3139-10;351F-10"}}, {"type": "node", "id": 8308806642, "lat": -23.5720786, "lon": -46.5268785, "tags": {"bus": "yes", "description": "Ref.: Rua Vitor Prestes/ Rua Braulio Brito", "gtfs_id": "40005598", "highway": "bus_stop", "name": "Rua Abdo Salem, 20", "network": "SPTrans", "network:wikidata": "Q7392689", "public_transport": "platform", "route_ref": "N434-11;3139-10;351F-10"}}, {"type": "node", "id": 8308806643, "lat": -23.5732206, "lon": -46.5276805, "tags": {"bus": "yes", "description": "Ref.: Rua Professor Cicero De Sa Ramalho/ Rua Tatuacu", "gtfs_id": "40005597", "highway": "bus_stop", "name": "Rua Abdo Salem, 142", "network": "SPTrans", "network:wikidata": "Q7392689", "public_transport": "platform", "route_ref": "N434-11;3139-10;351F-10"}}, {"type": "node", "id": 8308806644, "lat": -23.5715075, "lon": -46.5272041, "tags": {"bus": "yes", "description": "Ref.: Rua Doutor Joao Jorge Sabino/ Avenida Monsenhor Antonio De Castro", "gtfs_id": "40005599", "highway": "bus_stop", "name": "Rua Visconde De Jerumim, 100", "network": "SPTrans", "network:wikidata": "Q7392689", "public_transport": "platform", "route_ref": "N434-11;3139-10;351F-10"}}, {"type": "node", "id": 8308806709, "lat": -23.5651246, "lon": -46.5084449, "tags": {"addr:city": "S\u00e3o Paulo", "addr:housenumber": "334", "addr:street": "Avenida Odilon Pires", "bus": "yes", "description": "Ref.: Rua Inhana/ Rua Almirantado", "gtfs_id": "40008540", "highway": "bus_stop", "network": "SPTrans", "network:wikidata": "Q7392689", "public_transport": "platform", "route_ref": "3098-10"}}, {"type": "node", "id": 8308806710, "lat": -23.5727864, "lon": -46.5051842, "tags": {"addr:city": "S\u00e3o Paulo", "addr:housenumber": "46", "addr:postcode": "03572-000", "addr:street": "Avenida dos Latinos", "bus": "yes", "departures_board": "yes", "description": "Ref.: Avenida Aricanduva/ Avenida Rio Das Pedras", "gtfs_id": "40008541", "highway": "bus_stop", "network": "SPTrans", "network:wikidata": "Q7392689", "network:wikipedia": "pt:S\u00e3o Paulo Transporte", "public_transport": "platform", "route_ref": "364A-10;3778-10;407Y-10", "shelter": "no"}}, {"type": "node", "id": 8308806711, "lat": -23.5782238, "lon": -46.5047683, "tags": {"bus": "yes", "description": "Ref.: Rua Alto De Santa Helena/ Avenida Rio Das Pedras", "gtfs_id": "40008543", "highway": "bus_stop", "name": "Rua Dos Fonsecas, 531", "network": "SPTRANS", "route_ref": "407F-10"}}, {"type": "node", "id": 8308806712, "lat": -23.574412, "lon": -46.520833, "tags": {"bus": "yes", "description": "Ref.: Rua Antonio Acras Filho/ Avenida Aguiar Da Beira", "gtfs_id": "40008545", "highway": "bus_stop", "name": "Rua Manuel Figueiredo, 339", "network": "SPTRANS", "route_ref": "3745-10"}}, {"type": "node", "id": 8308806713, "lat": -23.573445, "lon": -46.52326, "tags": {"bus": "yes", "description": "Ref.: Rua Quedas Do Iguacu/ Rua Correia De Lacerda", "gtfs_id": "40008547", "highway": "bus_stop", "name": "Rua Manuel Figueiredo, 61", "network": "SPTRANS", "route_ref": "3745-10"}}, {"type": "node", "id": 8308806714, "lat": -23.5696365, "lon": -46.5245022, "tags": {"addr:city": "S\u00e3o Paulo", "addr:housenumber": "75", "addr:street": "Avenida Dom Azeredo Coutinho", "bus": "yes", "departures_board": "no", "description": "Ref.: Avenida Alberto Camus/ Avenida Escragnolle Doria", "gtfs_id": "40008548", "highway": "bus_stop", "name": "Avenida D. Azeredo Coutinho, 60", "network": "SPTrans", "network:wikidata": "Q7392689", "public_transport": "platform", "route_ref": "N434-11;3139-10;351F-10;574J-10", "shelter": "yes"}}, {"type": "node", "id": 8308806733, "lat": -23.5654475, "lon": -46.5088001, "tags": {"addr:city": "S\u00e3o Paulo", "addr:housenumber": "274", "addr:street": "Avenida Odilon Pires", "bus": "yes", "departures_board": "yes", "description": "Ref.: Rua Almirantado/ Rua Vicente La Giudice", "gtfs_id": "40008539", "highway": "bus_stop", "network": "SPTrans", "network:wikidata": "Q7392689", "public_transport": "platform", "route_ref": "3032-10;3729-10;407A-10;524M-10", "shelter": "yes"}}, {"type": "node", "id": 8327561846, "lat": -23.598885, "lon": -46.53212, "tags": {"bus": "yes", "departures_board": "no", "description": "Ref.: Rua Januario Cicco/ Rua Ciriaco Cardoso", "gtfs_id": "740012755", "highway": "bus_stop", "name": "Avenida Professor Luiz Ign\u00e1cio Anhaia Mello, 7200", "network": "SPTrans", "network:wikidata": "Q7392689", "public_transport": "platform", "route_ref": "5110-10;5110-24;5110-41;5143-10;N501-11"}}, {"type": "node", "id": 8327562069, "lat": -23.5869634, "lon": -46.533984, "tags": {"addr:city": "S\u00e3o Paulo", "addr:housenumber": "2613", "addr:postcode": "03275-000", "addr:street": "Rua Solid\u00f4nio Leite", "bus": "yes", "description": "Ref.: Pc Virgilio Lucio/ Rua Helio Tomas", "gtfs_id": "740006526", "highway": "bus_stop", "name": "Rua Solid\u00f4nio Leite, 2613", "network": "SPTrans", "network:wikidata": "Q7392689", "public_transport": "platform", "route_ref": "373T-10;4729-10;514T-10;N536-11"}}, {"type": "node", "id": 8327562277, "lat": -23.5990797, "lon": -46.5304436, "tags": {"bus": "yes", "description": "Ref.: Rua Serrolandia/ Rua Jose Carlos Simoes De Falco", "gtfs_id": "740012770", "highway": "bus_stop", "name": "Avenida Prof. Luiz Ign\u00e1cio Anhaia Mello, 7361", "network": "SPTRANS", "public_transport": "platform", "route_ref": "5110-10;5110-21;5110-23;5110-24;5110-41;5143-10;N501-11"}}, {"type": "node", "id": 8340396146, "lat": -23.575143, "lon": -46.496168, "tags": {"bus": "yes", "description": "Ref.: Rua Astolfo Marques/ Rua Januario Da Costa", "gtfs_id": "240007285", "highway": "bus_stop", "name": "Rua Ernani Fornari, 25", "network": "SPTRANS", "route_ref": "3778-10"}}, {"type": "node", "id": 8340396152, "lat": -23.5727262, "lon": -46.4997468, "tags": {"bus": "yes", "description": "Ref.: Rua Meridionais/ Rua Carapana", "gtfs_id": "240007289", "highway": "bus_stop", "name": "Avenida Dos Latinos, 608", "network": "SPTrans", "network:wikidata": "Q7392689", "public_transport": "platform", "route_ref": "3020-10;3778-10;407Y-10"}}, {"type": "node", "id": 8340396157, "lat": -23.5730701, "lon": -46.4976349, "tags": {"addr:city": "S\u00e3o Paulo", "addr:housenumber": "850", "addr:postcode": "03572-000", "addr:street": "Avenida dos Latinos", "bus": "yes", "departures_board": "yes", "description": "Ref.: Rua Troporiz/ Vel Dez", "gtfs_id": "240007287", "highway": "bus_stop", "network": "SPTrans", "network:wikidata": "Q7392689", "public_transport": "platform", "route_ref": "3020-10;3778-10;407Y-10", "shelter": "no"}}, {"type": "node", "id": 8340396171, "lat": -23.572451, "lon": -46.50257, "tags": {"addr:city": "S\u00e3o Paulo", "addr:housenumber": "428", "addr:postcode": "03572-000", "addr:street": "Avenida dos Latinos", "bus": "yes", "departures_board": "yes", "description": "Ref.: Rua Campo Da Vinha/ Rua Olga Fadel Abarca", "gtfs_id": "240007290", "highway": "bus_stop", "network": "SPTrans", "network:wikidata": "Q7392689", "public_transport": "platform", "route_ref": "3020-10;3778-10;407Y-10", "shelter": "no"}}, {"type": "node", "id": 8340396224, "lat": -23.5646719, "lon": -46.5063849, "tags": {"bus": "yes", "description": "Ref.: Avenida Aricanduva/ Rua Francesco Melzi", "gtfs_id": "240007309", "highway": "bus_stop", "name": "Avenida Principal Leste", "network": "SPTrans", "network:wikidata": "Q7392689", "public_transport": "platform", "route_ref": "3023-10;3027-10;3032-10;3134-10;3791-10;4030-10;524M-10"}}, {"type": "node", "id": 8340396230, "lat": -23.5641628, "lon": -46.5035033, "tags": {"bus": "yes", "description": "Ref.: Avenida Aricanduva/ Rua Francesco Melzi", "gtfs_id": "240007300", "highway": "bus_stop", "name": "Avenida Principal Leste", "network": "SPTrans", "network:wikidata": "Q7392689", "public_transport": "platform", "route_ref": "3020-10;3023-10;3027-10;3032-10;3134-10;364A-10;3721-10;3729-10;3731-10;3737-10;3791-10;4030-10;407A-10;524M-10"}}, {"type": "node", "id": 8340396234, "lat": -23.564045, "lon": -46.505288, "tags": {"bus": "yes", "description": "Ref.: Avenida Principal Do Shopping Aricanduva", "gtfs_id": "240007302", "highway": "bus_stop", "name": "Rua Marengo", "network": "SPTRANS", "route_ref": "3729-10;3737-10"}}, {"type": "node", "id": 8378413762, "lat": -23.5798563, "lon": -46.5100948, "tags": {"bus": "yes", "description": "Ref.: Rua Aparecida De S\u00e3o Manoel", "gtfs_id": "404729", "highway": "bus_stop", "name": "Avenida Pst. Cicero Canuto De Lima, 249", "network": "SPTrans", "network:wikidata": "Q7392689", "public_transport": "platform", "route_ref": "3029-10;407F-10;407W-10;N434-11"}}, {"type": "node", "id": 8378413763, "lat": -23.580063, "lon": -46.504954, "tags": {"bus": "yes", "description": "Ref.: Rua Miguel Da Gama", "gtfs_id": "404724", "highway": "bus_stop", "name": "Avenida Pst. Cicero Canuto De Lima, 762", "network": "SPTRANS", "route_ref": "407F-10"}}, {"type": "node", "id": 8378413765, "lat": -23.5769549, "lon": -46.5160561, "tags": {"addr:city": "S\u00e3o Paulo", "addr:housenumber": "459", "addr:postcode": "03901-010", "addr:street": "Avenida dos Nacionalistas", "bus": "yes", "description": "Ref.: Avenida Inconfidencia Mineira", "gtfs_id": "404602", "highway": "bus_stop", "network": "SPTrans", "network:wikidata": "Q7392689", "public_transport": "platform", "route_ref": "3029-10;407F-10;407W-10;N434-11"}}, {"type": "node", "id": 8378413767, "lat": -23.573251, "lon": -46.523695, "tags": {"bus": "yes", "description": "Ref.: Rua Correia Lacerda", "gtfs_id": "409060", "highway": "bus_stop", "name": "Rua Manuel Figueiredo, 42", "network": "SPTRANS", "route_ref": "3745-10"}}, {"type": "node", "id": 8378413769, "lat": -23.571969, "lon": -46.523548, "tags": {"bus": "yes", "description": "Ref.: Rua Forte Do Calv\u00e1rio/ Rua Correia De Lacerda", "gtfs_id": "409061", "highway": "bus_stop", "name": "Avenida Mons. Ant\u00f4nio De Castro, 685", "network": "SPTRANS", "route_ref": "3745-10"}}, {"type": "node", "id": 8378413771, "lat": -23.582085, "lon": -46.506931, "tags": {"bus": "yes", "description": "Ref.: Rua D'avila Rebou\u00e7as", "gtfs_id": "409067", "highway": "bus_stop", "name": "Rua Pedro Rabelo, 209", "network": "SPTRANS", "route_ref": "407W-10;N434-11"}}, {"type": "node", "id": 8378413772, "lat": -23.571502, "lon": -46.532016, "tags": {"bus": "yes", "description": "Ref.: Avenida Jo\u00e3o XxII / Avenida Homero Batista", "gtfs_id": "409068", "highway": "bus_stop", "name": "Rua Nsa. Sra. Das Dores, 637", "network": "SPTRANS", "route_ref": "3745-10"}}, {"type": "node", "id": 8378413773, "lat": -23.588034, "lon": -46.50893, "tags": {"bus": "yes", "description": "Ref.: Avenida Barreira Grande/ Rua Frederico Qu\u00e9rcia", "gtfs_id": "409063", "highway": "bus_stop", "name": "Rua Am\u00e9lia Vanso Magnoli, 120", "network": "SPTRANS", "public_transport": "platform", "route_ref": "3029-10"}}, {"type": "node", "id": 8378413774, "lat": -23.578603, "lon": -46.5233, "tags": {"bus": "yes", "gtfs_id": "409065", "highway": "bus_stop", "name": "Rua Ailton Negr\u00e3o Fazzio, 124", "network": "SPTRANS", "route_ref": "3046-10"}}, {"type": "node", "id": 8378413776, "lat": -23.5793951, "lon": -46.5123568, "tags": {"bus": "yes", "description": "Ref.: Rluciara", "gtfs_id": "404733", "highway": "bus_stop", "name": "Avenida Pst. Cicero Canuto De Lima, 10", "network": "SPTRANS", "public_transport": "platform", "route_ref": "3029-10;407F-10;407W-10;N434-11"}}, {"type": "node", "id": 8378413783, "lat": -23.579529, "lon": -46.50797, "tags": {"bus": "yes", "description": "Ref.: Rua Bugio Vermelho / Rua Padre Cicero Canuto De Lima", "gtfs_id": "404735", "highway": "bus_stop", "name": "Rua Dos Fonsecas, 171", "network": "SPTRANS", "route_ref": "407F-10"}}, {"type": "node", "id": 8378413785, "lat": -23.585432, "lon": -46.507579, "tags": {"bus": "yes", "description": "Ref.: Rua Eduardo Palm\u00e9rio", "gtfs_id": "409070", "highway": "bus_stop", "name": "Rua Am\u00e9lia Vanso Magnoli, 310", "network": "SPTRANS", "public_transport": "platform", "route_ref": "3029-10"}}, {"type": "node", "id": 8378413787, "lat": -23.5875602, "lon": -46.5064148, "tags": {"bus": "yes", "description": "Ref.: Rua Jos\u00e9 De Sarabia", "gtfs_id": "409071", "highway": "bus_stop", "name": "Rua Rufino Fernandes Inivarri, 69", "network": "SPTRANS", "public_transport": "platform", "route_ref": "3029-10"}}, {"type": "node", "id": 8378413803, "lat": -23.5738486, "lon": -46.5317371, "tags": {"bus": "yes", "description": "Ref.: Rua Felicio Pereira/ Avenida Joao XxIII", "gtfs_id": "40008570", "highway": "bus_stop", "name": "Avenida Cipriano Rodrigues, 240", "network": "SPTrans", "network:wikidata": "Q7392689", "public_transport": "platform", "route_ref": "3029-10;3139-10;351F-10;3762-10;407F-10;407W-10;407Y-10;574W-10;575C-10"}}, {"type": "node", "id": 8378413815, "lat": -23.577761, "lon": -46.5145952, "tags": {"addr:city": "S\u00e3o Paulo", "addr:housenumber": "646", "addr:postcode": "03901-010", "addr:street": "Avenida dos Nacionalistas", "bus": "yes", "description": "Ref.: Rua Ricardo Gumbleton Daunt", "gtfs_id": "404643", "highway": "bus_stop", "network": "SPTrans", "network:wikidata": "Q7392689", "public_transport": "platform", "route_ref": "3029-10;407F-10;407W-10;N434-11"}}, {"type": "node", "id": 8378419524, "lat": -23.5642523, "lon": -46.5086038, "tags": {"bus": "yes", "description": "Avenida Aricanduva, 5102 Ref.: Avenida Ademar Pereira De Barros/ Avenida Odilon Pires", "gtfs_id": "40012658", "highway": "bus_stop", "name": "Ponto 1", "network": "SPTrans", "network:wikidata": "Q7392689", "public_transport": "platform", "route_ref": "N402-11;3098-10;3731-10;3737-10;3761-10;3773-10;3791-10;407E-10;407G-10;407K-10;4311-10;524M-10"}}, {"type": "node", "id": 8378419543, "lat": -23.5720719, "lon": -46.5046101, "tags": {"bus": "yes", "description": "Ref.: Avenida Dos Latinos/ Avenida Marapanim", "gtfs_id": "40012662", "highway": "bus_stop", "name": "Avenida Aricanduva, 6532", "network": "SPTrans", "network:wikidata": "Q7392689", "network:wikipedia": "pt:S\u00e3o Paulo Transporte", "public_transport": "platform", "route_ref": "N402-11;3020-10;3027-10;3098-10;364A-10;3761-10;3773-10;407E-10;407G-10;407K-10;407N-10;4210-10;4311-10;4313-10"}}, {"type": "node", "id": 8378419545, "lat": -23.569304, "lon": -46.504838, "tags": {"bus": "yes", "description": "Ref.: Rua Fonte Da Espinheira/ Rua Akron", "gtfs_id": "40012661", "highway": "bus_stop", "name": "Avenida Aricanduva, 5576", "network": "SPTRANS", "public_transport": "platform", "route_ref": "N402-11;3020-10;3023-10;3027-10;3098-10;3134-10;364A-10;3761-10;3773-10;407E-10;407G-10;407K-10;407N-10;4210-10;4311-10;4313-10"}}, {"type": "node", "id": 8378419548, "lat": -23.575642, "lon": -46.502995, "tags": {"bus": "yes", "description": "Ref.: Avenida Dos Latinos/ Rua Arraias Do Araguaia", "gtfs_id": "40012663", "highway": "bus_stop", "name": "Avenida Aricanduva, 6080", "network": "SPTRANS", "public_transport": "platform", "route_ref": "N402-11;3020-10;3027-10;3098-10;364A-10;3761-10;3773-10;3778-10;407E-10;407G-10;407K-10;407N-10;407Y-10;4210-10;4311-10;4313-10"}}, {"type": "node", "id": 8378419551, "lat": -23.5889, "lon": -46.509993, "tags": {"bus": "yes", "description": "Ref.: Avenida Barreira Grande", "gtfs_id": "409027", "highway": "bus_stop", "name": "Rua Tuma Maluly, 87", "network": "SPTRANS", "public_transport": "platform", "route_ref": "N434-11;3029-10;407W-10"}}, {"type": "node", "id": 8378419554, "lat": -23.5672981, "lon": -46.5069272, "tags": {"bus": "yes", "departures_board": "yes", "description": "Ref.: Avenida Francisco Jose Resende/ Avenida Odilon Pires", "gtfs_id": "40012660", "highway": "bus_stop", "name": "Avenida Aricanduva, 5376", "network": "SPTrans", "network:wikidata": "Q7392689", "public_transport": "platform", "route_ref": "N402-11;3020-10;3023-10;3027-10;3032-10;3098-10;3134-10;364A-10;3761-10;3773-10;4030-10;407A-10;407E-10;407G-10;407K-10;407N-10;4210-10;4311-10;4313-10", "shelter": "yes"}}, {"type": "node", "id": 8378419591, "lat": -23.5656058, "lon": -46.5079014, "tags": {"bus": "yes", "departures_board": "yes", "description": "Avenida Aricanduva, 5200 Ref.: Avenida Principal", "gtfs_id": "409048", "highway": "bus_stop", "name": "Parada 2", "network": "SPTrans", "network:wikidata": "Q7392689", "public_transport": "platform", "route_ref": "407N-10;4210-10;4313-10;N402-11"}}, {"type": "node", "id": 8378419603, "lat": -23.5680027, "lon": -46.5071566, "tags": {"bus": "yes", "gtfs_id": "409051", "highway": "bus_stop", "name": "Avenida Francisco Jos\u00e9 Rezende, 138", "network": "SPTrans", "network:wikidata": "Q7392689", "public_transport": "platform", "route_ref": "3023-10;3134-10;4030-10"}}, {"type": "node", "id": 8378419607, "lat": -23.580389, "lon": -46.509825, "tags": {"bus": "yes", "description": "Ref.: Pra\u00e7a Eul\u00e1lio De Carvalho", "gtfs_id": "409058", "highway": "bus_stop", "name": "Rua Nello Selmi Dei, 44", "network": "SPTRANS", "public_transport": "platform", "route_ref": "N434-11;3029-10"}}, {"type": "node", "id": 8378419608, "lat": -23.5656176, "lon": -46.5092491, "tags": {"addr:city": "S\u00e3o Paulo", "addr:housenumber": "235", "addr:street": "Avenida Odilon Pires", "bus": "yes", "departures_board": "yes", "gtfs_id": "409052", "highway": "bus_stop", "network": "SPTrans", "network:wikidata": "Q7392689", "public_transport": "platform", "route_ref": "3729-10;524M-10", "shelter": "no"}}, {"type": "node", "id": 8378419609, "lat": -23.58364, "lon": -46.525041, "tags": {"bus": "yes", "gtfs_id": "409054", "highway": "bus_stop", "name": "Rua Jo\u00e3o Galli, 45", "network": "SPTRANS", "route_ref": "3161-10"}}, {"type": "node", "id": 8378419622, "lat": -23.5643761, "lon": -46.5235411, "tags": {"addr:city": "S\u00e3o Paulo", "addr:housenumber": "2226", "addr:street": "Avenida Jo\u00e3o XXIII", "bus": "yes", "departures_board": "yes", "description": "Ref.: Rua Barao De Eschwege/ Rua Oliveira Coutinho", "gtfs_id": "40012586", "highway": "bus_stop", "network": "SPTrans", "network:wikidata": "Q7392689", "public_transport": "platform", "route_ref": "N401-11;2100-10;233C-10;407R-10"}}, {"type": "node", "id": 8378419650, "lat": -23.571981, "lon": -46.523664, "tags": {"bus": "yes", "description": "Ref.: Rua Forte Do Carvalho", "gtfs_id": "404584", "highway": "bus_stop", "name": "Avenida Mons. Ant\u00f4nio De Castro, 676", "network": "SPTRANS", "route_ref": "3745-10"}}, {"type": "node", "id": 8378419669, "lat": -23.5766054, "lon": -46.5170292, "tags": {"addr:city": "S\u00e3o Paulo", "addr:housenumber": "347", "addr:postcode": "03901-010", "addr:street": "Avenida dos Nacionalistas", "bus": "yes", "description": "Ref.: Rua Manoel Luiz De Vergueiro", "gtfs_id": "404598", "highway": "bus_stop", "network": "SPTrans", "network:wikidata": "Q7392689", "public_transport": "platform", "route_ref": "3029-10;3762-10;407F-10;407W-10;407Y-10;574W-10;N434-11"}}, {"type": "node", "id": 8378419670, "lat": -23.5763701, "lon": -46.5213781, "tags": {"bus": "yes", "description": "Ref.: Rua Floriza", "gtfs_id": "404597", "highway": "bus_stop", "name": "Avenida Cipriano Rodrigues, 127", "network": "SPTrans", "network:wikidata": "Q7392689", "public_transport": "platform", "route_ref": "3029-10;3762-10;407F-10;407W-10;407Y-10;574W-10;N434-11"}}, {"type": "node", "id": 8378419671, "lat": -23.576888, "lon": -46.5238, "tags": {"bus": "yes", "description": "Ref.: Rua Manoel Moreira Lopes", "gtfs_id": "404595", "highway": "bus_stop", "name": "Avenida Cipriano Rodrigues, 1160", "network": "SPTRANS", "public_transport": "platform", "route_ref": "3029-10;3762-10;407F-10;407W-10;407Y-10;574W-10;N434-11"}}, {"type": "node", "id": 8378419676, "lat": -23.5743113, "lon": -46.5048754, "tags": {"bus": "yes", "description": "Ref.: Rua Alto Da Conceicao/ Rua Gedivaldo Calixto De Souza", "gtfs_id": "40012303", "highway": "bus_stop", "name": "Avenida Rio Das Pedras, 2943", "network": "SPTrans", "network:wikidata": "Q7392689", "network:wikipedia": "pt:S\u00e3o Paulo Transporte", "public_transport": "platform", "route_ref": "2290-10;2290-21;3023-10;342M-10;364A-10;4002-10;4008-10;4010-10;4014-10;4030-10;407J-10;573T-10;573T-31;N404-11"}}, {"type": "node", "id": 8378419678, "lat": -23.5782875, "lon": -46.5029592, "tags": {"addr:city": "S\u00e3o Paulo", "addr:housenumber": "2919", "addr:street": "Avenida Rio das Pedras", "bus": "yes", "departures_board": "yes", "description": "Ref.: Rua Alzira Maruyama/ Rua Dos Fonsecas", "gtfs_id": "40012302", "highway": "bus_stop", "network": "SPTrans", "network:wikidata": "Q7392689", "public_transport": "platform", "route_ref": "2290-10;2290-21;3023-10;342M-10;364A-10;4002-10;4008-10;4010-10;4014-10;4030-10;407F-10;407J-10;573T-10;573T-31;N404-11"}}, {"type": "node", "id": 8378419680, "lat": -23.571667, "lon": -46.506172, "tags": {"addr:city": "S\u00e3o Paulo", "addr:housenumber": "2147", "addr:street": "Avenida Rio das Pedras", "bus": "yes", "departures_board": "yes", "description": "Ref.: Rua Lateral/ Avenida Marapanim", "gtfs_id": "40012304", "highway": "bus_stop", "network": "SPTrans", "network:wikidata": "Q7392689", "public_transport": "platform", "route_ref": "2290-10;2290-21;3023-10;342M-10;3778-10;4002-10;4008-10;4010-10;4014-10;4030-10;407J-10;407Y-10;573T-10;573T-31;N404-11"}}, {"type": "node", "id": 8378419765, "lat": -23.56603, "lon": -46.525977, "tags": {"bus": "yes", "description": "Ref.: Rua Soares Coimbra/ Rua Luiz Burgaim", "gtfs_id": "40012589", "highway": "bus_stop", "name": "Avenida Jo\u00e3o XxIII, 1930", "network": "SPTRANS", "public_transport": "platform", "route_ref": "N401-11;2100-10;233C-10;407R-10"}}, {"type": "node", "id": 8378419766, "lat": -23.565637, "lon": -46.525598, "tags": {"bus": "yes", "description": "Ref.: Rua Soares Coimbra/ Rua Alves Carneiro", "gtfs_id": "40012588", "highway": "bus_stop", "name": "Avenida Jo\u00e3o XxIII, 1982", "network": "SPTRANS", "public_transport": "platform", "route_ref": "N401-11;2100-10;233C-10;407R-10"}}, {"type": "node", "id": 8378419783, "lat": -23.572081, "lon": -46.532092, "tags": {"bus": "yes", "description": "Ref.: Rua Nossa Senhora Das Dores/ Rua Medeiros Furtado", "gtfs_id": "40012598", "highway": "bus_stop", "name": "Avenida Jo\u00e3o XxIII, 961", "network": "SPTRANS", "public_transport": "platform", "route_ref": "574J-10;N401-11;2100-10;233C-10;407R-10"}}, {"type": "node", "id": 8378419832, "lat": -23.5721381, "lon": -46.5062121, "tags": {"addr:city": "S\u00e3o Paulo", "addr:housenumber": "2224", "addr:street": "Avenida Rio das Pedras", "bus": "yes", "departures_board": "yes", "description": "Ref.: Rua Oscar Siebel/ Rua Lateral", "gtfs_id": "40012293", "highway": "bus_stop", "network": "SPTrans", "network:wikidata": "Q7392689", "public_transport": "platform", "route_ref": "2290-10;3023-10;342M-10;3778-10;4002-10;4008-10;4010-10;4014-10;4030-10;407J-10;407Y-10;573T-10;573T-31;N404-11"}}, {"type": "node", "id": 8378419851, "lat": -23.5788164, "lon": -46.5029824, "tags": {"addr:city": "S\u00e3o Paulo", "addr:housenumber": "2984", "addr:street": "Avenida Rio das Pedras", "bus": "yes", "departures_board": "yes", "description": "Ref.: Rua Alzira Maruyama/ Rua David Candido Vieira", "gtfs_id": "40012295", "highway": "bus_stop", "network": "SPTrans", "network:wikidata": "Q7392689", "public_transport": "platform", "route_ref": "2290-10;3023-10;342M-10;364A-10;4002-10;4008-10;4010-10;4014-10;4030-10;407J-10;573T-10;573T-31;N404-11"}}, {"type": "node", "id": 8378419852, "lat": -23.5759067, "lon": -46.5043922, "tags": {"addr:city": "S\u00e3o Paulo", "addr:housenumber": "2626", "addr:street": "Avenida Rio das Pedras", "bus": "yes", "departures_board": "yes", "description": "Ref.: Rua Doutor Edgard Magalhaes Noronha/ Rua Professor Ulysses Lemos Torres", "gtfs_id": "40012294", "highway": "bus_stop", "network": "SPTrans", "network:wikidata": "Q7392689", "public_transport": "platform", "route_ref": "2290-10;3023-10;342M-10;364A-10;4002-10;4008-10;4010-10;4014-10;4030-10;407J-10;573T-10;573T-31;N404-11"}}, {"type": "node", "id": 8378419933, "lat": -23.569976, "lon": -46.528901, "tags": {"bus": "yes", "description": "Ref.: Avenida Monsenhor Antonio Castro", "gtfs_id": "408989", "highway": "bus_stop", "name": "Avenida Jo\u00e3o XxIII, 1386", "network": "SPTRANS", "public_transport": "platform", "route_ref": "N401-11;2100-10;233C-10;407R-10"}}, {"type": "node", "id": 8378419939, "lat": -23.579997, "lon": -46.507414, "tags": {"bus": "yes", "description": "Ref.: Igreja Universal", "gtfs_id": "408997", "highway": "bus_stop", "name": "Avenida Pst. Cicero Canuto De Lima, 489", "network": "SPTRANS", "public_transport": "platform", "route_ref": "N434-11;3029-10;407W-10"}}, {"type": "node", "id": 8378420041, "lat": -23.5708383, "lon": -46.52783, "tags": {"addr:city": "S\u00e3o Paulo", "addr:housenumber": "177", "addr:postcode": "03461-000", "addr:street": "Avenida Monsenhor Ant\u00f4nio Castro", "bus": "yes", "departures_board": "yes", "description": "Ref.: Rua Antonio Jussieu/ Rua Jose Arimateia", "gtfs_id": "40008565", "highway": "bus_stop", "network": "SPTrans", "network:wikidata": "Q7392689", "public_transport": "platform", "route_ref": "3745-10;574J-10"}}, {"type": "node", "id": 8378420044, "lat": -23.5747426, "lon": -46.5299281, "tags": {"bus": "yes", "description": "Ref.: Rua Joaquim Jorge Ribeiro/ Rua Felicio Pereira", "gtfs_id": "40008569", "highway": "bus_stop", "name": "Avenida Cipriano Rodrigues, 417", "network": "SPTrans", "network:wikidata": "Q7392689", "public_transport": "platform", "route_ref": "3029-10;3139-10;351F-10;3762-10;407F-10;407W-10;407Y-10;574W-10;575C-10"}}, {"type": "node", "id": 8378420069, "lat": -23.568828, "lon": -46.524141, "tags": {"bus": "yes", "description": "Ref.: Rua Marques Do Lavradio/ Avenida Escragnolle Doria", "gtfs_id": "40008557", "highway": "bus_stop", "name": "Avenida Alberto Camus, 340", "network": "SPTRANS", "route_ref": "3139-10"}}, {"type": "node", "id": 8402950860, "lat": -23.578459, "lon": -46.496807, "tags": {"bus": "yes", "description": "Ref.: Rua Ijucapirama/ Rua Igarape Azul", "gtfs_id": "240012629", "highway": "bus_stop", "name": "Avenida Aricanduva, 6759", "network": "SPTRANS", "public_transport": "platform", "route_ref": "3027-10;3098-10;3761-10;3773-10;407E-10;407G-10;407K-10;407N-10;4210-10;4311-10;4313-10;N402-11"}}, {"type": "node", "id": 8402950871, "lat": -23.565637, "lon": -46.507066, "tags": {"bus": "yes", "description": "Ref.: Avenida Principal/ Avenida Gualtar", "gtfs_id": "240012633", "highway": "bus_stop", "name": "Avenida Aricanduva, 5555", "network": "SPTRANS", "public_transport": "platform", "route_ref": "3098-10;3761-10;3773-10;407E-10;407G-10;407K-10;407N-10;4210-10;4311-10;4313-10;N402-11"}}, {"type": "node", "id": 8402950872, "lat": -23.5697109, "lon": -46.5039434, "tags": {"addr:city": "S\u00e3o Paulo", "addr:housenumber": "5831", "addr:postcode": "03527-000", "addr:street": "Avenida Aricanduva", "bench": "yes", "bus": "yes", "departures_board": "yes", "description": "Ref.: Avenida Dos Latinos/ Avenida Gualtar", "gtfs_id": "240012632", "highway": "bus_stop", "lit": "yes", "network": "SPTrans", "network:wikidata": "Q7392689", "network:wikipedia": "pt:S\u00e3o Paulo Transporte", "operator": "SPTrans", "public_transport": "platform", "route_ref": "N402-11;3020-10;3027-10;3098-10;364A-10;3761-10;3773-10;407E-10;407G-10;407K-10;407N-10;4210-10;4311-10;4313-10", "wheelchair": "yes"}}, {"type": "node", "id": 8402950875, "lat": -23.5730075, "lon": -46.5037725, "tags": {"addr:city": "S\u00e3o Paulo", "addr:housenumber": "6001", "addr:postcode": "03527-000", "addr:street": "Avenida Aricanduva", "bench": "yes", "bus": "yes", "departures_board": "yes", "description": "Ref.: Avenida Dos Latinos/ Avenida Matapi", "gtfs_id": "240012631", "highway": "bus_stop", "lit": "yes", "network": "SPTrans", "network:wikidata": "Q7392689", "network:wikipedia": "pt:S\u00e3o Paulo Transporte", "operator": "SPTrans", "public_transport": "platform", "route_ref": "N402-11;3020-10;3027-10;3098-10;364A-10;3761-10;3773-10;3778-10;407E-10;407G-10;407K-10;407N-10;407Y-10;4210-10;4311-10;4313-10", "shelter": "yes", "wheelchair": "yes"}}, {"type": "node", "id": 8402950876, "lat": -23.5763804, "lon": -46.5015125, "tags": {"bus": "yes", "description": "Ref.: Rua Ijucapirama/ Avenida Matapi", "gtfs_id": "240012630", "highway": "bus_stop", "name": "Avenida Aricanduva, 6949", "network": "SPTRANS", "public_transport": "platform", "route_ref": "3027-10;3098-10;3761-10;3773-10;407E-10;407G-10;407K-10;407N-10;4210-10;4311-10;4313-10;N402-11"}}, {"type": "node", "id": 8402950895, "lat": -23.563828, "lon": -46.495772, "tags": {"bus": "yes", "description": "Ref.: Vel Doze/ Rua Pedro Barbosa", "gtfs_id": "240007416", "highway": "bus_stop", "name": "Rua Pedro De Mena, 121", "network": "SPTRANS", "route_ref": "N440-11;3032-10;342C-10;3721-10;4312-10"}}, {"type": "node", "id": 8402950903, "lat": -23.566821, "lon": -46.495518, "tags": {"bus": "yes", "description": "Ref.: Rua Pardal Mallet/ Rua Ernesto Paixao", "gtfs_id": "240007428", "highway": "bus_stop", "name": "Rua Murucupi, 60", "network": "SPTRANS", "route_ref": "3721-10"}}, {"type": "node", "id": 8402950905, "lat": -23.565123, "lon": -46.496015, "tags": {"bus": "yes", "description": "Ref.: Rua Jaguarucu/ Rua Tabuacas", "gtfs_id": "240007422", "highway": "bus_stop", "name": "Rua Alonso De Mena, 201", "network": "SPTRANS", "route_ref": "N440-11;3032-10;342C-10;3721-10;4312-10"}}, {"type": "node", "id": 8402950907, "lat": -23.56423, "lon": -46.49716, "tags": {"bus": "yes", "description": "Ref.: Rua Pedro De Mena/ Rua Gamil", "gtfs_id": "240007420", "highway": "bus_stop", "name": "Rua P\u00e3o De A\u00e7\u00facar, 382", "network": "SPTRANS", "route_ref": "N440-11;3032-10;342C-10;3721-10;4312-10"}}, {"type": "node", "id": 8402950908, "lat": -23.5656996, "lon": -46.4950151, "tags": {"addr:city": "S\u00e3o Paulo", "addr:housenumber": "589", "addr:postcode": "03579-000", "addr:street": "Rua Bom Jesus do Monte", "addr:suburb": "Jardim Mar\u00edlia", "bus": "yes", "departures_board": "yes", "description": "Ref.: Rua Senembi/ Rua Murucupi", "gtfs_id": "240007426", "highway": "bus_stop", "network": "SPTrans", "network:wikidata": "Q7392689", "public_transport": "platform", "route_ref": "3721-10;4312-10", "shelter": "no"}}, {"type": "node", "id": 8500240557, "lat": -23.5646216, "lon": -46.5133364, "tags": {"addr:city": "S\u00e3o Paulo", "addr:housenumber": "1069", "addr:postcode": "03453-000", "addr:street": "Avenida Rio das Pedras"}}, {"type": "node", "id": 8500240558, "lat": -23.5645482, "lon": -46.5134214, "tags": {"addr:city": "S\u00e3o Paulo", "addr:housenumber": "1067", "addr:postcode": "03453-000", "addr:street": "Avenida Rio das Pedras"}}, {"type": "node", "id": 8500240560, "lat": -23.5644922, "lon": -46.5134727, "tags": {"addr:city": "S\u00e3o Paulo", "addr:housenumber": "1055", "addr:postcode": "03453-000", "addr:street": "Avenida Rio das Pedras"}}, {"type": "node", "id": 8500240561, "lat": -23.564468, "lon": -46.5134982, "tags": {"addr:city": "S\u00e3o Paulo", "addr:housenumber": "1051", "addr:postcode": "03453-000", "addr:street": "Avenida Rio das Pedras"}}, {"type": "node", "id": 8503460034, "lat": -23.572464, "lon": -46.50043, "tags": {"addr:city": "S\u00e3o Paulo", "addr:housenumber": "569", "addr:postcode": "03572-000", "addr:street": "Avenida dos Latinos", "bus": "yes", "departures_board": "yes", "description": "Ref.: R Carapana", "gtfs_id": "2404633", "highway": "bus_stop", "network": "SPTrans", "network:wikidata": "Q7392689", "public_transport": "platform", "route_ref": "3020-10;3778-10;407Y-10", "shelter": "no"}}, {"type": "node", "id": 9043972746, "lat": -23.5899139, "lon": -46.5074742, "tags": {"addr:city": "S\u00e3o Paulo", "bus": "yes", "gtfs_id": "7805159", "highway": "bus_stop", "name": "Avenida Da Barreira Grande, 3098", "network": "SPTrans", "public_transport": "platform", "route_ref": "3053-10;3745-10;3746-10;3746-31;407W-10;507T-10;5145-10;524M-10;573H-10;N434-11", "wheelchair": "yes"}}, {"type": "node", "id": 9043972800, "lat": -23.59279, "lon": -46.499734, "tags": {"addr:city": "S\u00e3o Paulo", "bus": "yes", "gtfs_id": "7504175", "gtfs_stop_desc": "Ref.: R Rochedo de Minas", "highway": "bus_stop", "name": "Rua Campo Florido, 158", "network": "SPTrans", "network:wikidata": "Q7392689", "public_transport": "platform", "route_ref": "514T-10;N536-11", "wheelchair": "yes"}}, {"type": "node", "id": 9044062945, "lat": -23.598348, "lon": -46.506779, "tags": {"addr:city": "S\u00e3o Paulo", "bus": "yes", "gtfs_id": "7805225", "gtfs_stop_desc": "Ref.: Rua Nova Gales do Sul", "highway": "bus_stop", "name": "Rua Mara Rosa, 242", "network": "SPTrans", "network:wikidata": "Q7392689", "public_transport": "platform", "route_ref": "364A-10", "wheelchair": "yes"}}, {"type": "node", "id": 9080791314, "lat": -23.5884628, "lon": -46.50999}, {"type": "node", "id": 9080791315, "lat": -23.5891749, "lon": -46.5088977}, {"type": "node", "id": 9334371079, "lat": -23.5646041, "lon": -46.4998007, "tags": {"highway": "bus_stop", "public_transport": "platform"}}, {"type": "node", "id": 9388234093, "lat": -23.5968962, "lon": -46.5069433, "tags": {"bus": "yes", "departures_board": "yes", "highway": "bus_stop", "network": "SPTrans", "network:wikidata": "Q7392689", "network:wikipedia": "pt:S\u00e3o Paulo Transporte", "public_transport": "platform", "shelter": "no"}}, {"type": "node", "id": 9388234095, "lat": -23.596698, "lon": -46.5069041, "tags": {"bus": "yes", "departures_board": "yes", "highway": "bus_stop", "network": "SPTrans", "network:wikidata": "Q7392689", "network:wikipedia": "pt:S\u00e3o Paulo Transporte", "public_transport": "platform", "shelter": "no"}}, {"type": "node", "id": 9568898819, "lat": -23.5868827, "lon": -46.5164838}, {"type": "node", "id": 9568898820, "lat": -23.5868994, "lon": -46.5163928}, {"type": "node", "id": 9568898821, "lat": -23.5869494, "lon": -46.51641}, {"type": "node", "id": 9568898822, "lat": -23.5869374, "lon": -46.5164737}, {"type": "node", "id": 9568898823, "lat": -23.5869105, "lon": -46.5164939}, {"type": "node", "id": 10544639465, "lat": -23.5697709, "lon": -46.5243684, "tags": {"addr:city": "S\u00e3o Paulo", "addr:housenumber": "60", "addr:street": "Avenida Dom Azeredo Coutinho", "bus": "yes", "departures_board": "yes", "highway": "bus_stop", "network": "SPTrans", "network:wikidata": "Q7392689", "public_transport": "platform", "shelter": "yes"}}, {"type": "node", "id": 10545037108, "lat": -23.5648551, "lon": -46.5214151, "tags": {"addr:city": "S\u00e3o Paulo", "addr:housenumber": "511", "addr:postcode": "03471-130", "addr:street": "Rua Ol\u00edmpio de Campos", "bus": "yes", "departures_board": "yes", "highway": "bus_stop", "network": "SPTrans", "network:wikidata": "Q7392689", "public_transport": "platform", "shelter": "no"}}, {"type": "node", "id": 10674798745, "lat": -23.5716717, "lon": -46.5107821}, {"type": "node", "id": 10674798746, "lat": -23.5716073, "lon": -46.5107074}, {"type": "node", "id": 10674798754, "lat": -23.5738484, "lon": -46.5130857, "tags": {"addr:city": "S\u00e3o Paulo", "addr:housenumber": "1471", "addr:street": "Avenida Inconfid\u00eancia Mineira", "bus": "yes", "departures_board": "yes", "highway": "bus_stop", "network": "SPTrans", "network:wikidata": "Q7392689", "public_transport": "platform", "shelter": "no"}}, {"type": "node", "id": 10674798780, "lat": -23.5753528, "lon": -46.5147346, "tags": {"addr:city": "S\u00e3o Paulo", "addr:housenumber": "1231", "addr:street": "Avenida Inconfid\u00eancia Mineira", "addr:suburb": "Vila Antonieta", "bus": "yes", "departures_board": "yes", "highway": "bus_stop", "network": "SPTrans", "network:wikidata": "Q7392689", "public_transport": "platform", "shelter": "no"}}, {"type": "node", "id": 10674799720, "lat": -23.5845168, "lon": -46.5196943, "tags": {"addr:city": "S\u00e3o Paulo", "addr:housenumber": "81", "addr:street": "Avenida Inconfid\u00eancia Mineira", "bus": "yes", "departures_board": "yes", "highway": "bus_stop", "network": "SPTrans", "network:wikidata": "Q7392689", "public_transport": "platform", "shelter": "no"}}, {"type": "node", "id": 10679180432, "lat": -23.5668935, "lon": -46.5104124, "tags": {"addr:city": "S\u00e3o Paulo", "addr:housenumber": "68", "addr:street": "Avenida Odilon Pires", "bus": "yes", "departures_board": "yes", "highway": "bus_stop", "network": "SPTrans", "network:wikidata": "Q7392689", "public_transport": "platform", "shelter": "no"}}, {"type": "node", "id": 10936964610, "lat": -23.5644462, "lon": -46.5056715, "tags": {"addr:city": "S\u00e3o Paulo", "addr:housenumber": "5555", "addr:postcode": "03523-020", "addr:street": "Avenida Aricanduva", "entrance": "yes"}}, {"type": "node", "id": 10936966280, "lat": -23.5643521, "lon": -46.5053627}, {"type": "node", "id": 10936966281, "lat": -23.5642669, "lon": -46.5052942}, {"type": "node", "id": 10936966282, "lat": -23.5641881, "lon": -46.5052925}, {"type": "node", "id": 10936966283, "lat": -23.5635897, "lon": -46.5055347}, {"type": "node", "id": 10936966284, "lat": -23.5632261, "lon": -46.505647}, {"type": "node", "id": 10936966285, "lat": -23.5630556, "lon": -46.505733}, {"type": "node", "id": 10936966286, "lat": -23.5629575, "lon": -46.5058014}, {"type": "node", "id": 10936966287, "lat": -23.5622159, "lon": -46.5064156}, {"type": "node", "id": 10936966288, "lat": -23.5621403, "lon": -46.5065437}, {"type": "node", "id": 10936966289, "lat": -23.5621773, "lon": -46.5067807}, {"type": "node", "id": 10936966290, "lat": -23.5623156, "lon": -46.5070685}, {"type": "node", "id": 10936966291, "lat": -23.5624315, "lon": -46.5072598}, {"type": "node", "id": 10936966292, "lat": -23.5625811, "lon": -46.507516}, {"type": "node", "id": 10936966293, "lat": -23.5630299, "lon": -46.5080407}, {"type": "node", "id": 10936966294, "lat": -23.5632036, "lon": -46.5078986}, {"type": "node", "id": 10936966295, "lat": -23.5632326, "lon": -46.5078722}, {"type": "node", "id": 10936966296, "lat": -23.5646353, "lon": -46.5062928}, {"type": "node", "id": 10936966297, "lat": -23.5628664, "lon": -46.5058744}, {"type": "node", "id": 10936966298, "lat": -23.5645136, "lon": -46.5058931}, {"type": "node", "id": 10936966299, "lat": -23.5644078, "lon": -46.5055454}, {"type": "node", "id": 10940911626, "lat": -23.5990453, "lon": -46.4992922}, {"type": "node", "id": 10940911627, "lat": -23.5991268, "lon": -46.4993702}, {"type": "node", "id": 10940911628, "lat": -23.5990791, "lon": -46.4994325}, {"type": "node", "id": 11442889262, "lat": -23.5892781, "lon": -46.509563}, {"type": "node", "id": 13258354612, "lat": -23.5882775, "lon": -46.5003141, "tags": {"bus": "yes", "departures_board": "no", "gtfs_id": "750005469", "highway": "bus_stop", "name": "Avenida Lu\u00eds Pires de Minas", "network": "SPTrans", "network:wikidata": "Q7392689", "public_transport": "platform", "route_ref": "3745-10"}}, {"type": "way", "id": 560560604, "nodes": [5405937597, 5405937598, 5405937599, 5405937600, 5405937601, 5405937602, 5405937597], "tags": {"addr:city": "S\u00e3o Paulo", "addr:housenumber": "78", "addr:postcode": "03386-090", "addr:street": "Rua Manoel Ferreira Pires", "addr:suburb": "Jardim Galli", "name": "Higa", "opening_hours": "Mo-Sa 08:00-20:30;Su 08:00-14:00", "shop": "supermarket"}}, {"type": "way", "id": 681392468, "nodes": [6718833947, 6380994756, 6718833946, 6718833945, 6718833944, 6718833947], "tags": {"building": "yes", "height": "7.694", "shop": "bakery", "source": "pmsp"}}, {"type": "way", "id": 714801723, "nodes": [6718748018, 6718748017, 6718748016, 6718748015, 6718748018]}, {"type": "way", "id": 714801724, "nodes": [6718721659, 6718749046, 6718749043, 6718748024, 6718748023, 8500240557, 6718748022, 6718748021, 8500240558, 6718748020, 6718748019, 8500240560, 8500240561, 6718748029, 6718748025, 6718748033, 6718748030, 6718721658, 6718721659]}, {"type": "way", "id": 739157831, "nodes": [9080791314, 6920659814, 6920659813, 6920659812, 6920659811, 11442889262, 6920659810, 6920659809, 6920659808, 9080791315], "tags": {"barrier": "fence"}}, {"type": "way", "id": 981833071, "nodes": [6920659806, 6920659815, 9080791314]}, {"type": "way", "id": 981833072, "nodes": [9080791315, 6920659807, 6920659806]}, {"type": "way", "id": 1039087499, "nodes": [9568898819, 9568898820, 9568898821, 9568898822, 9568898823, 9568898819], "tags": {"addr:city": "S\u00e3o Paulo", "addr:housenumber": "2057", "addr:postcode": "03916-000", "addr:street": "Avenida da Barreira Grande", "name": "Cardal P\u00e3es e Do\u00e7es", "shop": "bakery"}}, {"type": "way", "id": 1147199057, "nodes": [10674798745, 10674798746, 6718844916, 6718844915, 6718844914, 10674798745], "tags": {"addr:city": "S\u00e3o Paulo", "addr:housenumber": "1811", "addr:street": "Avenida Inconfid\u00eancia Mineira", "name": "Padaria C\u00e9lia", "shop": "bakery"}}, {"type": "way", "id": 1147733998, "nodes": [6718901232, 6718909225, 6718910086, 6718910085, 5405905231, 5405905232, 5405905234, 6718732744, 6718909230, 6718901232], "tags": {"addr:city": "S\u00e3o Paulo", "addr:housenumber": "1679", "addr:postcode": "03911-000", "addr:street": "Avenida da Barreira Grande", "addr:suburb": "Vila Rica", "name": "Supermercado Novo Sucesso", "opening_hours": "Mo-Sa 08:00-20:00;Su 08:00-13:00", "shop": "supermarket"}}, {"type": "way", "id": 1177252404, "nodes": [10936966297, 6722368369, 6722368370, 10936966287, 10936966288, 10936966289, 10936966290, 10936966291, 10936966292, 10936966293, 10936966294, 10936966295, 438704618, 438714761], "tags": {"barrier": "wall"}}, {"type": "way", "id": 1177252405, "nodes": [10936966299, 10936966280, 10936966281, 10936966282, 438714765, 10936966283, 10936966284, 10936966285, 10936966286, 10936966297], "tags": {"barrier": "fence"}}, {"type": "way", "id": 1177252406, "nodes": [438714761, 10936966296, 10936966298], "tags": {"barrier": "fence"}}, {"type": "way", "id": 1177252407, "nodes": [10936966298, 10936964610, 10936966299], "tags": {"barrier": "gate"}}, {"type": "way", "id": 1177720476, "nodes": [10940911626, 10940911627, 10940911628, 5888964688, 10940911626], "tags": {"addr:city": "S\u00e3o Paulo", "addr:housenumber": "10", "addr:street": "Avenida Arquiteto Vilanova Artigas", "name": "Artigas P\u00e3es e Do\u00e7es", "shop": "bakery"}}, {"type": "relation", "id": 9933785, "members": [{"type": "way", "ref": 714801724, "role": "outer"}, {"type": "way", "ref": 714801723, "role": "inner"}], "tags": {"addr:city": "S\u00e3o Paulo", "addr:housenumber": "1069", "addr:postcode": "03453-000", "addr:street": "Avenida Rio das Pedras", "addr:suburb": "Jardim Aricanduva", "building": "yes", "height": "8.325", "name": "Muito Sabor Padaria e Confeitaria", "shop": "bakery", "source": "pmsp", "type": "multipolygon"}}, {"type": "relation", "id": 13192359, "members": [{"type": "way", "ref": 739157831, "role": "outer"}, {"type": "way", "ref": 981833072, "role": "outer"}, {"type": "way", "ref": 981833071, "role": "outer"}], "tags": {"addr:city": "S\u00e3o Paulo", "addr:housenumber": "2905", "addr:postcode": "03916-000", "addr:street": "Avenida da Barreira Grande", "addr:suburb": "Vila Banc\u00e1ria", "barrier": "wall", "contact:facebook": "https://www.facebook.com/supermercadosnagumo", "contact:instagram": "https://www.instagram.com/supermercados_nagumo", "contact:twitter": "https://twitter.com/nagumo", "contact:youtube": "https://www.youtube.com/channel/UCw84_S2C9HfcogPjrvko1nw", "name": "Supermecardo Naguno", "opening_hours": "Mo-Sa 08:30-21:00; Su 08:30-14:00; PH 08:30-14:00", "phone": "+55 11 4090-1650", "shop": "supermarket", "type": "multipolygon", "website": "https://www.nagumo.com.br"}}, {"type": "relation", "id": 15917395, "members": [{"type": "way", "ref": 1177252404, "role": "outer"}, {"type": "way", "ref": 1177252406, "role": "outer"}, {"type": "way", "ref": 1177252407, "role": "outer"}, {"type": "way", "ref": 1177252405, "role": "outer"}], "tags": {"addr:city": "S\u00e3o Paulo", "addr:housenumber": "5555", "addr:postcode": "03523-020", "addr:street": "Avenida Aricanduva", "addr:suburb": "Vila Matilde", "brand": "Assa\u00ed Atacadista", "brand:wikidata": "Q28679415", "brand:wikipedia": "pt:Assa\u00ed Atacadista", "contact:phone": "+55 11 2723-2351;+55 11 2723-2352", "email": "loja144.televendas@assai.com.br", "loc_name": "Assa\u00ed Aricanduva", "name": "Assa\u00ed Atacadista", "opening_hours": "Mo-Sa 07:00-22:00; Su,PH 08:-18:00", "phone": "+55 11 2723-2350", "reg_name": "Loja 144", "shop": "supermarket", "source": "pmsp", "type": "multipolygon", "website": "https://www.assai.com.br/", "wholesale": "yes"}}]}