{"version": 0.6, "generator": "Overpass API 0.7.62.8 e802775f", "osm3s": {"timestamp_osm_base": "2025-12-04T23:17:11Z", "copyright": "The data included in this document is from www.openstreetmap.org. The data is made available under ODbL."}, "elements": [{"type": "node", "id": 309848547, "lat": 48.9242568, "lon": 2.1873905, "tags": {"addr:housenumber": "11", "addr:postcode": "78800", "addr:street": "Place Michelet", "brand": "Netto", "brand:wikidata": "Q2720988", "name": "Netto", "opening_hours": "Mo-Sa 08:00-20:30; Su 08:30-13:00", "operator": "Netto", "phone": "+33 1 61 04 44 00", "shop": "supermarket", "website": "https://magasin.netto.fr/533-netto-houilles", "wheelchair": "yes"}}, {"type": "node", "id": 605019705, "lat": 48.9107645, "lon": 2.2211037, "tags": {"addr:city": "Nanterre", "addr:postcode": "92000", "addr:street": "Place des Muguets", "brand": "ALDI", "brand:wikidata": "Q41171373", "check_date": "2025-04-21", "name": "ALDI", "old_name": "ED;Dia", "opening_hours": "Mo-Sa 08:30-20:00; Su 08:30-12:30", "operator": "Aldi", "shop": "supermarket", "website": "https://www.aldi.fr/magasins-et-horaires-d-ouverture.html/l/nanterre/place-des-muguets/3435214", "wheelchair": "yes"}}, {"type": "node", "id": 839251058, "lat": 48.9409638, "lon": 2.229767}, {"type": "node", "id": 839286737, "lat": 48.9330368, "lon": 2.2331805}, {"type": "node", "id": 839311620, "lat": 48.9328597, "lon": 2.2338085}, {"type": "node", "id": 839320574, "lat": 48.9409922, "lon": 2.2298198}, {"type": "node", "id": 839369261, "lat": 48.9331719, "lon": 2.2334649}, {"type": "node", "id": 839373799, "lat": 48.9410973, "lon": 2.2300063}, {"type": "node", "id": 839414081, "lat": 48.9412567, "lon": 2.2294904}, {"type": "node", "id": 839420128, "lat": 48.941426, "lon": 2.2295836}, {"type": "node", "id": 839431392, "lat": 48.9410139, "lon": 2.2298579}, {"type": "node", "id": 839447948, "lat": 48.941325, "lon": 2.2294048}, {"type": "node", "id": 839510205, "lat": 48.941335, "lon": 2.229701}, {"type": "node", "id": 839526389, "lat": 48.9327246, "lon": 2.2335241}, {"type": "node", "id": 839555547, "lat": 48.9412029, "lon": 2.2294635}, {"type": "node", "id": 839573796, "lat": 48.9412339, "lon": 2.2295204}, {"type": "node", "id": 839584975, "lat": 48.9413819, "lon": 2.2295051}, {"type": "node", "id": 891766209, "lat": 48.9310143, "lon": 2.2111279}, {"type": "node", "id": 891766763, "lat": 48.9310374, "lon": 2.2109797}, {"type": "node", "id": 891767051, "lat": 48.931037, "lon": 2.2115581}, {"type": "node", "id": 891767513, "lat": 48.9267999, "lon": 2.2132748}, {"type": "node", "id": 891768257, "lat": 48.9314457, "lon": 2.2115963}, {"type": "node", "id": 891769644, "lat": 48.931277, "lon": 2.2117556}, {"type": "node", "id": 891770034, "lat": 48.931181, "lon": 2.2118131}, {"type": "node", "id": 891771576, "lat": 48.9266456, "lon": 2.2134497}, {"type": "node", "id": 891771613, "lat": 48.931023, "lon": 2.2110368}, {"type": "node", "id": 891772644, "lat": 48.9309609, "lon": 2.2111819}, {"type": "node", "id": 891773209, "lat": 48.9268793, "lon": 2.2133107}, {"type": "node", "id": 891774705, "lat": 48.931191, "lon": 2.2118371}, {"type": "node", "id": 891775175, "lat": 48.9266971, "lon": 2.2135136}, {"type": "node", "id": 891776229, "lat": 48.9313465, "lon": 2.2116899}, {"type": "node", "id": 891776794, "lat": 48.9311178, "lon": 2.2109011}, {"type": "node", "id": 891776915, "lat": 48.93124, "lon": 2.2117908}, {"type": "node", "id": 891777507, "lat": 48.9309592, "lon": 2.211152}, {"type": "node", "id": 891777993, "lat": 48.9310093, "lon": 2.2110069}, {"type": "node", "id": 891780696, "lat": 48.926548, "lon": 2.2135604}, {"type": "node", "id": 891780738, "lat": 48.9310059, "lon": 2.2111363}, {"type": "node", "id": 891781668, "lat": 48.9310457, "lon": 2.2115499}, {"type": "node", "id": 891782112, "lat": 48.9267831, "lon": 2.2132939}, {"type": "node", "id": 891782340, "lat": 48.9309981, "lon": 2.2111444}, {"type": "node", "id": 891783407, "lat": 48.931163, "lon": 2.210904}, {"type": "node", "id": 891783720, "lat": 48.931066, "lon": 2.2115994}, {"type": "node", "id": 891784386, "lat": 48.9265797, "lon": 2.2136441}, {"type": "node", "id": 891785341, "lat": 48.9311308, "lon": 2.2109313}, {"type": "node", "id": 891786005, "lat": 48.9309516, "lon": 2.2111597}, {"type": "node", "id": 891786535, "lat": 48.9309912, "lon": 2.2110677}, {"type": "node", "id": 891786703, "lat": 48.9309881, "lon": 2.2111223}, {"type": "node", "id": 891787357, "lat": 48.9309058, "lon": 2.2112375}, {"type": "node", "id": 891787751, "lat": 48.9268485, "lon": 2.2132196}, {"type": "node", "id": 891788489, "lat": 48.9314274, "lon": 2.2116136}, {"type": "node", "id": 900729079, "lat": 48.9261663, "lon": 2.2137149}, {"type": "node", "id": 900729398, "lat": 48.926175, "lon": 2.2142941}, {"type": "node", "id": 900729914, "lat": 48.9260782, "lon": 2.2137159}, {"type": "node", "id": 900730672, "lat": 48.9262727, "lon": 2.2138517}, {"type": "node", "id": 900732306, "lat": 48.926063, "lon": 2.2140031}, {"type": "node", "id": 900732764, "lat": 48.9263836, "lon": 2.2141363}, {"type": "node", "id": 900733520, "lat": 48.9264028, "lon": 2.2137239}, {"type": "node", "id": 900733925, "lat": 48.9261452, "lon": 2.2136565}, {"type": "node", "id": 900734700, "lat": 48.9260445, "lon": 2.2136264}, {"type": "node", "id": 900735334, "lat": 48.9261841, "lon": 2.2143183}, {"type": "node", "id": 900736478, "lat": 48.9262304, "lon": 2.2138933}, {"type": "node", "id": 900736737, "lat": 48.9261002, "lon": 2.2140996}, {"type": "node", "id": 900737027, "lat": 48.9265142, "lon": 2.214017}, {"type": "node", "id": 900737591, "lat": 48.9263094, "lon": 2.2138156}, {"type": "node", "id": 900737907, "lat": 48.9261402, "lon": 2.2136602}, {"type": "node", "id": 900738502, "lat": 48.9260306, "lon": 2.2135891}, {"type": "node", "id": 900738870, "lat": 48.9259512, "lon": 2.2137125}, {"type": "node", "id": 900739291, "lat": 48.9263462, "lon": 2.2141704}, {"type": "node", "id": 900740233, "lat": 48.926504, "lon": 2.2139917}, {"type": "node", "id": 913961013, "lat": 48.9215294, "lon": 2.2296381}, {"type": "node", "id": 913968378, "lat": 48.9211542, "lon": 2.2299246}, {"type": "node", "id": 913969228, "lat": 48.9213759, "lon": 2.2292722}, {"type": "node", "id": 913970908, "lat": 48.9214776, "lon": 2.2292872}, {"type": "node", "id": 913971245, "lat": 48.921023, "lon": 2.229616}, {"type": "node", "id": 913979051, "lat": 48.9213883, "lon": 2.2293007}, {"type": "node", "id": 1447016188, "lat": 48.9208888, "lon": 2.1859964}, {"type": "node", "id": 1447016425, "lat": 48.9209043, "lon": 2.1860921}, {"type": "node", "id": 1447016459, "lat": 48.9209095, "lon": 2.1860878}, {"type": "node", "id": 1447016544, "lat": 48.9209184, "lon": 2.1859799}, {"type": "node", "id": 1447016745, "lat": 48.9209354, "lon": 2.1859704}, {"type": "node", "id": 1447016825, "lat": 48.9209511, "lon": 2.1862807}, {"type": "node", "id": 1447016940, "lat": 48.9209706, "lon": 2.1862692}, {"type": "node", "id": 1447017010, "lat": 48.9209854, "lon": 2.186336}, {"type": "node", "id": 1447017988, "lat": 48.9210925, "lon": 2.1858829}, {"type": "node", "id": 1447018144, "lat": 48.9211025, "lon": 2.1858773}, {"type": "node", "id": 1447018934, "lat": 48.9211651, "lon": 2.1858425}, {"type": "node", "id": 1447021050, "lat": 48.9213224, "lon": 2.1857547}, {"type": "node", "id": 1447022632, "lat": 48.921429, "lon": 2.1861067}, {"type": "node", "id": 1447036868, "lat": 48.9227382, "lon": 2.204435}, {"type": "node", "id": 1447037498, "lat": 48.9228155, "lon": 2.2047268}, {"type": "node", "id": 1447037800, "lat": 48.9226703, "lon": 2.2042499}, {"type": "node", "id": 1447038002, "lat": 48.922725, "lon": 2.2044444}, {"type": "node", "id": 1447042917, "lat": 48.923399, "lon": 2.2043678}, {"type": "node", "id": 1447043127, "lat": 48.9234265, "lon": 2.2043507}, {"type": "node", "id": 1447043572, "lat": 48.9234688, "lon": 2.204326}, {"type": "node", "id": 1447043813, "lat": 48.9234754, "lon": 2.2037642}, {"type": "node", "id": 1447044378, "lat": 48.9236024, "lon": 2.2042473}, {"type": "node", "id": 1447046731, "lat": 48.9240223, "lon": 2.2002846}, {"type": "node", "id": 1447046859, "lat": 48.9240505, "lon": 2.2004177}, {"type": "node", "id": 1447047007, "lat": 48.9240848, "lon": 2.2002534}, {"type": "node", "id": 1447047369, "lat": 48.9241393, "lon": 2.2003747}, {"type": "node", "id": 1447047409, "lat": 48.924144, "lon": 2.2003964}, {"type": "node", "id": 1447048059, "lat": 48.9242521, "lon": 2.2003318}, {"type": "node", "id": 1447048065, "lat": 48.9242542, "lon": 2.2003487}, {"type": "node", "id": 1447048478, "lat": 48.9242856, "lon": 2.2003187}, {"type": "node", "id": 1447048500, "lat": 48.9242891, "lon": 2.2001511}, {"type": "node", "id": 1447048512, "lat": 48.924291, "lon": 2.200311}, {"type": "node", "id": 1447048566, "lat": 48.9243044, "lon": 2.2002368}, {"type": "node", "id": 1447048583, "lat": 48.9243083, "lon": 2.20031}, {"type": "node", "id": 1447048627, "lat": 48.9243219, "lon": 2.2001355}, {"type": "node", "id": 1447048651, "lat": 48.9243271, "lon": 2.2002282}, {"type": "node", "id": 1780800750, "lat": 48.9243805, "lon": 2.1880052, "tags": {"addr:postcode": "78800", "brand": "La Vie Claire", "brand:wikidata": "Q3213589", "brand:wikipedia": "fr:La Vie claire", "bulk_purchase": "yes", "name": "La Vie Claire", "opening_hours": "Mo-Sa 09:30-19:30; Su 10:00-13:00", "organic": "only", "phone": "+33 1 39 14 13 30", "ref:FR:SIRET": "63200001401553", "shop": "supermarket", "website": "https://www.lavieclaire.com/magasin-bio/houilles.html"}}, {"type": "node", "id": 3423155655, "lat": 48.9213754, "lon": 2.1859304}, {"type": "node", "id": 3423155667, "lat": 48.9310852, "lon": 2.2116476}, {"type": "node", "id": 3423155668, "lat": 48.9311049, "lon": 2.2116293}, {"type": "node", "id": 3677161707, "lat": 48.9214658, "lon": 2.1981195, "tags": {"addr:city": "Houilles", "addr:housenumber": "89", "addr:postcode": "78800", "addr:street": "Boulevard Jean Jaur\u00e8s", "brand": "E. Leclerc", "brand:wikidata": "Q1273376", "brand:wikipedia": "fr:E.Leclerc", "name": "E. Leclerc", "opening_hours": "Mo-Fr 09:00-20:30; Sa 08:30-20:30", "phone": "+33 1 61 30 70 00", "shop": "supermarket", "website": "http://www.e-leclerc.com/houilles"}}, {"type": "node", "id": 4406990925, "lat": 48.9124492, "lon": 2.2251551, "tags": {"diet:halal": "yes", "name": "Hyper Halal", "ref:FR:SIRET": "80976888000019", "shop": "supermarket", "source": "survey 2016", "toilets:wheelchair": "no", "wheelchair": "yes"}}, {"type": "node", "id": 5294644348, "lat": 48.9083829, "lon": 2.2378676, "tags": {"brand": "Franprix", "brand:wikidata": "Q2420096", "brand:wikipedia": "fr:Franprix", "name": "Franprix", "opening_hours": "Mo-Sa 08:30-21:00; Su 09:00-13:00", "shop": "supermarket", "wheelchair": "yes"}}, {"type": "node", "id": 5810155806, "lat": 48.9159691, "lon": 2.2264561, "tags": {"name": "HAL Fresh", "shop": "supermarket"}}, {"type": "node", "id": 5869348882, "lat": 48.9077262, "lon": 2.238856, "tags": {"brand": "Intermarch\u00e9", "brand:wikidata": "Q3153200", "brand:wikipedia": "fr:Intermarch\u00e9", "name": "Intermarch\u00e9", "opening_hours": "Mo-Sa 08:15-21:00; Su 09:00-13:00", "operator": "Groupement des Mousquetaires", "shop": "supermarket"}}, {"type": "node", "id": 5879604939, "lat": 48.9263529, "lon": 2.2141643}, {"type": "node", "id": 7110900149, "lat": 48.9212076, "lon": 2.2299426}, {"type": "node", "id": 7110900150, "lat": 48.9214094, "lon": 2.2293527}, {"type": "node", "id": 7110900151, "lat": 48.9214559, "lon": 2.2292355}, {"type": "node", "id": 9135399620, "lat": 48.9104622, "lon": 2.2350097, "tags": {"brand": "G20", "brand:wikidata": "Q3504731", "brand:wikipedia": "fr:Supermarch\u00e9s G20", "check_date": "2024-12-27", "name": "G20", "opening_hours": "Mo-Sa 07:30-22:00; PH,Su 09:00-22:00", "shop": "supermarket"}}, {"type": "node", "id": 9197143824, "lat": 48.9330579, "lon": 2.2332249, "tags": {"entrance": "main"}}, {"type": "node", "id": 9388000648, "lat": 48.9290243, "lon": 2.2164005, "tags": {"addr:city": "Bezons", "addr:housenumber": "12", "addr:postcode": "95870", "addr:street": "Mail Martin Luther King", "brand": "Carrefour Market", "brand:wikidata": "Q2689639", "brand:wikipedia": "fr:Carrefour Market", "name": "Carrefour Market", "opening_hours": "Mo-Sa 08:30-21:00; Su 09:00-12:30", "phone": "+33 1 34 11 45 60", "shop": "supermarket", "website": "https://www.carrefour.fr/magasin/market-bezons"}}, {"type": "way", "id": 70344955, "nodes": [839447948, 839414081, 839573796, 839555547, 839251058, 839320574, 839431392, 839373799, 839510205, 839420128, 839584975, 839447948], "tags": {"addr:street": "Boulevard du G\u00e9n\u00e9ral Leclerc", "brand": "Lidl", "brand:wikidata": "Q151954", "building": "yes", "check_date": "2025-06-23", "name": "Lidl", "opening_hours": "Mo-Sa 08:30-20:00; Su 08:30-12:15", "phone": "+33 1 88 24 70 70", "shop": "supermarket", "source": "cadastre-dgi-fr source : Direction G\u00e9n\u00e9rale des Imp\u00f4ts - Cadastre. Mise \u00e0 jour : 2010", "website": "https://www.lidl.fr/s/fr-FR/supermarches/argenteuil/boulevard-du-general-leclerc/"}}, {"type": "way", "id": 70362049, "nodes": [839369261, 9197143824, 839286737, 839526389, 839311620, 839369261], "tags": {"brand": "Aldi", "brand:wikidata": "Q41171373", "building": "retail", "check_date": "2025-04-11", "mapillary": "929364937842615", "name": "Aldi", "opening_hours": "Mo-Sa 08:00-20:30; Su 08:30-12:30", "shop": "supermarket", "source": "cadastre-dgi-fr source : Direction G\u00e9n\u00e9rale des Imp\u00f4ts - Cadastre. Mise \u00e0 jour : 2010", "website": "https://www.aldi.fr/magasins-et-horaires-d-ouverture.html/l/argenteuil/189-193-rue-henri-barbusse/3435697"}}, {"type": "way", "id": 75520837, "nodes": [891773209, 891787751, 891767513, 891782112, 891771576, 891780696, 891784386, 891775175, 891773209], "tags": {"addr:city": "Bezons", "addr:housenumber": "76", "addr:postcode": "95870", "addr:street": "Rue \u00c9douard Vaillant", "brand": "G20", "brand:wikidata": "Q3504731", "brand:wikipedia": "fr:Supermarch\u00e9s G20", "building": "retail", "name": "G20", "operator": "Groupe G20", "shop": "supermarket", "source": "cadastre-dgi-fr source : Direction G\u00e9n\u00e9rale des Imp\u00f4ts - Cadastre. Mise \u00e0 jour : 2010", "source:shop": "survey", "wheelchair": "yes"}}, {"type": "way", "id": 75521876, "nodes": [891770034, 891774705, 891776915, 891769644, 891776229, 891788489, 891768257, 891783407, 891785341, 891776794, 891766763, 891777993, 891771613, 891786535, 891766209, 891780738, 891782340, 891786703, 891777507, 891786005, 891772644, 891787357, 891767051, 891781668, 891783720, 3423155667, 3423155668, 891770034], "tags": {"addr:housenumber": "75", "addr:street": "Avenue Gabriel P\u00e9ri", "brand": "Intermarch\u00e9 Super", "brand:wikidata": "Q98278038", "brand:wikipedia": "fr:Intermarch\u00e9", "building": "retail", "name": "Intermarch\u00e9 Super", "operator": "Groupement des Mousquetaires", "shop": "supermarket", "source": "cadastre-dgi-fr source : Direction G\u00e9n\u00e9rale des Imp\u00f4ts - Cadastre. Mise \u00e0 jour : 2010"}}, {"type": "way", "id": 76372836, "nodes": [900738870, 900732306, 900736737, 900729398, 900735334, 900739291, 5879604939, 900732764, 900737027, 900740233, 900733520, 900737591, 900730672, 900736478, 900729079, 900733925, 900737907, 900729914, 900734700, 900738502, 900738870], "tags": {"addr:city": "Bezons", "addr:postcode": "95870", "addr:street": "Rue \u00c9douard Vaillant", "brand": "Carrefour Contact", "brand:wikidata": "Q2940188", "brand:wikipedia": "fr:Carrefour Contact", "building": "retail", "name": "Carrefour Contact", "opening_hours": "Mo-Sa 08:00-20:00; Su 09:00-13:00", "phone": "+33 1 39 81 53 86", "shop": "supermarket", "source": "cadastre-dgi-fr source : Direction G\u00e9n\u00e9rale des Imp\u00f4ts - Cadastre. Mise \u00e0 jour : 2010", "source:shop": "survey", "website": "https://www.carrefour.fr/magasin/contact-bezons"}}, {"type": "way", "id": 77701458, "nodes": [913970908, 7110900151, 913979051, 913969228, 913971245, 913968378, 7110900149, 913961013, 7110900150, 913970908], "tags": {"brand": "Lidl", "brand:wikidata": "Q151954", "brand:wikipedia": "fr:Lidl", "building": "retail", "name": "Lidl", "opening_hours": "Mo-Sa 09:00-20:00", "ref:FR:SIRET": "34326262221756", "shop": "supermarket", "source": "cadastre-dgi-fr source : Direction G\u00e9n\u00e9rale des Imp\u00f4ts - Cadastre. Mise \u00e0 jour : 2020", "wheelchair": "yes"}}, {"type": "way", "id": 131515418, "nodes": [1447016188, 1447016459, 1447016425, 1447016825, 1447016940, 1447017010, 1447022632, 3423155655, 1447021050, 1447018934, 1447018144, 1447017988, 1447016745, 1447016544, 1447016188], "tags": {"addr:housenumber": "14", "addr:postcode": "78800", "addr:street": "Avenue Charles de Gaulle", "brand": "Intermarch\u00e9 Express", "brand:wikidata": "Q98278043", "brand:wikipedia": "fr:Intermarch\u00e9", "building": "retail", "name": "Intermarch\u00e9 Express", "opening_hours": "Mo-Sa 08:30-20:30; Su 09:00-13:00", "operator": "Groupement des Mousquetaires", "shop": "supermarket", "source": "cadastre-dgi-fr source : Direction G\u00e9n\u00e9rale des Imp\u00f4ts - Cadastre. Mise \u00e0 jour : 2011", "wheelchair": "yes"}}, {"type": "way", "id": 131515869, "nodes": [1447046731, 1447046859, 1447047369, 1447047409, 1447048065, 1447048059, 1447048478, 1447048512, 1447048583, 1447048566, 1447048651, 1447048627, 1447048500, 1447047007, 1447046731], "tags": {"building": "retail", "name": "Portug'Halle Service", "shop": "supermarket", "source": "cadastre-dgi-fr source : Direction G\u00e9n\u00e9rale des Imp\u00f4ts - Cadastre. Mise \u00e0 jour : 2011"}}, {"type": "way", "id": 131516147, "nodes": [1447037800, 1447038002, 1447036868, 1447037498, 1447042917, 1447043127, 1447043572, 1447044378, 1447043813, 1447037800], "tags": {"branch": "Houilles", "brand": "Auchan Supermarch\u00e9", "brand:wikidata": "Q105857776", "building": "retail", "building:levels": "1", "name": "Auchan Supermarch\u00e9", "opening_hours": "Mo-Fr 09:00-21:00, Sa 08:30-21:00, Su 09:00-13:00", "operator": "Auchan Supermarch\u00e9", "roof:levels": "0", "shop": "supermarket", "source": "cadastre-dgi-fr source : Direction G\u00e9n\u00e9rale des Imp\u00f4ts - Cadastre. Mise \u00e0 jour : 2011"}}]}