{"version": 0.6, "generator": "Overpass API 0.7.62.8 e802775f", "osm3s": {"timestamp_osm_base": "2025-12-03T20:33:45Z", "copyright": "The data included in this document is from www.openstreetmap.org. The data is made available under ODbL."}, "elements": [{"type": "node", "id": 202822347, "lat": 48.875847, "lon": 2.3239479}, {"type": "node", "id": 260016094, "lat": 48.8435771, "lon": 2.3052604, "tags": {"addr:city": "Paris", "addr:housenumber": "76", "addr:postcode": "75015", "addr:street": "Rue Lecourbe", "branch": "Lecourbe", "brand": "Monoprix", "brand:wikidata": "Q3321241", "brand:wikipedia": "fr:Monoprix (France)", "contact:city": "Paris", "contact:housenumber": "76", "contact:postcode": "75015", "contact:street": "Rue Lecourbe", "fax": "+33 1 47 83 84 73", "name": "Monoprix", "opening_hours": "09:00-21:45; Su 09:00-20:00", "operator": "Monoprix", "phone": "+33 1 42 73 03 30", "shop": "supermarket", "website": "https://www.monoprix.fr/48.html", "wheelchair": "yes"}}, {"type": "node", "id": 283225860, "lat": 48.8579464, "lon": 2.3012012, "tags": {"brand": "G20", "brand:wikidata": "Q3504731", "brand:wikipedia": "fr:Supermarch\u00e9s G20", "name": "G20", "operator": "G20", "shop": "supermarket"}}, {"type": "node", "id": 325682977, "lat": 48.8534094, "lon": 2.3325318, "tags": {"brand": "Monoprix", "brand:wikidata": "Q3321241", "brand:wikipedia": "fr:Monoprix (France)", "check_date": "2024-07-02", "name": "Monoprix", "opening_hours": "Mo-Sa 08:00-23:40; Su 09:00-20:00", "operator": "Groupe Casino", "shop": "supermarket", "website": "https://www.monoprix.fr/816.html"}}, {"type": "node", "id": 546475287, "lat": 48.8744523, "lon": 2.3285538, "tags": {"brand": "Monoprix", "brand:wikidata": "Q3321241", "brand:wikipedia": "en:Monoprix", "check_date": "2025-03-04", "drink:club-mate": "bottled", "layer": "-1", "level": "-1", "name": "Monoprix", "opening_hours": "Mo-Sa 08:00-22:00; Su 10:00-20:00", "operator": "Groupe Casino", "payment:cash": "yes", "payment:coins": "yes", "payment:credit_cards": "yes", "phone": "+33 1 44 53 79 79", "shop": "supermarket", "website": "https://www.monoprix.fr/7.html", "wheelchair": "yes"}}, {"type": "node", "id": 583211403, "lat": 48.8471183, "lon": 2.3177609, "tags": {"brand": "G20", "brand:wikidata": "Q3504731", "name": "G20", "operator": "G20", "shop": "supermarket", "wheelchair": "yes"}}, {"type": "node", "id": 653880473, "lat": 48.8447404, "lon": 2.3092568, "tags": {"contact:city": "Paris", "contact:housenumber": "24", "contact:postcode": "75015", "contact:street": "Rue Lecourbe", "dog": "no", "name": "mon-march\u00e9.fr", "opening_hours": "Mo-Sa 08:30-22:00, Su 08:30-12:30", "shop": "supermarket", "website": "https://www.mon-marche.fr"}}, {"type": "node", "id": 682364953, "lat": 48.8663061, "lon": 2.3318256, "tags": {"brand": "Auchan", "brand:wikidata": "Q758603", "name": "My Auchan", "opening_hours": "Mo-Sa 08:00-21:00; Su 09:00-20:00", "operator": "Auchan", "ref:FR:SIRET": "82193739800021", "shop": "supermarket", "source": "cadastre-dgi-fr source : Direction G\u00e9n\u00e9rale des Imp\u00f4ts - Cadastre. Mise \u00e0 jour : 2010", "wheelchair": "yes"}}, {"type": "node", "id": 721107315, "lat": 48.8467549, "lon": 2.3419742, "tags": {"addr:city": "Paris", "addr:housenumber": "1", "addr:postcode": "75005", "addr:street": "Rue Le Goff", "bulk_purchase": "limited", "check_date:opening_hours": "2025-03-03", "delivery": "yes", "internet_access": "no", "level": "0", "name": "Le Retour \u00e0 la Terre Rive Gauche", "note": "Double adresse : 12, rue Malebranche", "opening_hours": "Mo-Sa 10:00-20:00", "operator": "BIO LE GOFF", "organic": "only", "payment:credit_cards": "yes", "payment:debit_cards": "yes", "phone": "+33 1 56 81 10 37", "shop": "supermarket", "source": "www.biocoop.fr", "toilets": "no", "website": "https://www.leretouralaterre.fr/magasins/rive-gauche", "wheelchair": "yes"}}, {"type": "node", "id": 790027756, "lat": 48.8758732, "lon": 2.3241047}, {"type": "node", "id": 790027831, "lat": 48.8758662, "lon": 2.3241069}, {"type": "node", "id": 806037304, "lat": 48.8429406, "lon": 2.3381647, "tags": {"addr:housenumber": "78", "addr:postcode": "75006", "addr:street": "Boulevard Saint-Michel", "brand": "Naturalia", "brand:wikidata": "Q3337081", "bulk_purchase": "yes", "email": "assas@naturalia.fr", "name": "Naturalia", "opening_hours": "Mo-Sa 09:00-20:45, Su 09:00-12:45", "organic": "only", "phone": "+33 1 56 81 68 10", "ref:FR:SIRET": "30247464802504", "ref:vatin": "FR14302474648", "shop": "supermarket", "website": "https://magasins.naturalia.fr/naturalia/fr/store/france/ile-de-france/paris/paris/saintmichel-assas/4081", "wheelchair": "yes"}}, {"type": "node", "id": 814805814, "lat": 48.8743843, "lon": 2.3197499, "tags": {"addr:city": "Paris", "addr:housenumber": "26", "addr:postcode": "75008", "addr:street": "Rue d'Astorg", "air_conditioning": "yes", "branch": "Saint-Augustin", "brand": "Monoprix", "brand:wikidata": "Q3321241", "brand:wikipedia": "en:Monoprix", "check_date": "2024-09-15", "fax": "+33 1 40 98 00 39", "name": "Monoprix", "opening_hours": "Mo-Sa 08:00-20:45; Su 09:00-19:45", "operator": "Groupe Casino", "payment:cash": "yes", "payment:contactless": "yes", "payment:credit_cards": "yes", "payment:debit_cards": "yes", "payment:google_pay": "yes", "phone": "+33 1 40 98 00 30", "shop": "supermarket", "source": "survey", "website": "https://www.monoprix.fr/42.html"}}, {"type": "node", "id": 828785017, "lat": 48.8707106, "lon": 2.3061618, "tags": {"brand": "Monoprix", "brand:wikidata": "Q3321241", "brand:wikipedia": "en:Monoprix", "contact:fax": "+33 1 53 77 65 69", "contact:housenumber": "52", "contact:phone": "+33 1 53 77 65 65", "contact:street": "Avenue des Champs-\u00c9lys\u00e9es", "name": "Monoprix", "opening_hours": "Mo-Sa 09:00-00:00; Su 10:00-22:00", "operator": "Groupe Casino", "shop": "supermarket", "website": "https://www.monoprix.fr/39.html", "wheelchair": "yes"}}, {"type": "node", "id": 829051438, "lat": 48.8708827, "lon": 2.3072093}, {"type": "node", "id": 829051450, "lat": 48.8709895, "lon": 2.3068634}, {"type": "node", "id": 829051505, "lat": 48.8708704, "lon": 2.3069782}, {"type": "node", "id": 829051650, "lat": 48.8708938, "lon": 2.3069551}, {"type": "node", "id": 829051696, "lat": 48.8711884, "lon": 2.3069092}, {"type": "node", "id": 829051704, "lat": 48.8709723, "lon": 2.30688}, {"type": "node", "id": 829051718, "lat": 48.8710788, "lon": 2.3067774}, {"type": "node", "id": 829051736, "lat": 48.8708102, "lon": 2.3070362}, {"type": "node", "id": 829051758, "lat": 48.8711165, "lon": 2.3067401}, {"type": "node", "id": 829051904, "lat": 48.8708092, "lon": 2.3070369}, {"type": "node", "id": 840927416, "lat": 48.8711514, "lon": 2.3068221, "tags": {"addr:housenumber": "107", "source": "cadastre-dgi-fr source : Direction G\u00e9n\u00e9rale des Imp\u00f4ts - Cadastre. Mise \u00e0 jour : 2010"}}, {"type": "node", "id": 864856974, "lat": 48.8417832, "lon": 2.3170834, "tags": {"brand": "Casino", "brand:wikidata": "Q89029184", "name": "Casino", "opening_hours": "Mo-Sa 08:30-21:00", "operator": "Casino", "shop": "supermarket"}}, {"type": "node", "id": 865211216, "lat": 48.8636746, "lon": 2.3463358, "tags": {"addr:city": "Paris", "addr:floor": "0", "addr:housenumber": "11/13", "addr:postcode": "75001", "addr:street": "Rue Montorgueil", "brand": "Naturalia", "brand:wikidata": "Q3337081", "brand:wikipedia": "fr:Naturalia", "check_date": "2025-08-01", "check_date:opening_hours": "2025-05-14", "contact:phone": "+33 1 55 80 77 81", "contact:website": "https://naturalia.fr/", "level": "0", "name": "Naturalia", "opening_hours": "Mo-Sa 09:00-20:45; Su 09:00-19:30", "operator": "Groupe Casino", "organic": "only", "ref:FR:SIRET": "30247464800201", "shop": "supermarket", "wheelchair": "yes"}}, {"type": "node", "id": 929138936, "lat": 48.8414593, "lon": 2.3230345}, {"type": "node", "id": 929139418, "lat": 48.8410023, "lon": 2.3224674}, {"type": "node", "id": 929139722, "lat": 48.8414594, "lon": 2.3229118}, {"type": "node", "id": 929140604, "lat": 48.8410935, "lon": 2.3221341}, {"type": "node", "id": 929140697, "lat": 48.8415474, "lon": 2.3230778}, {"type": "node", "id": 929140858, "lat": 48.8414601, "lon": 2.322596}, {"type": "node", "id": 929140885, "lat": 48.8412044, "lon": 2.3219356}, {"type": "node", "id": 929141140, "lat": 48.8411672, "lon": 2.3228738}, {"type": "node", "id": 929141428, "lat": 48.841043, "lon": 2.3228914}, {"type": "node", "id": 929141541, "lat": 48.8414586, "lon": 2.3230918}, {"type": "node", "id": 929141951, "lat": 48.8410098, "lon": 2.3221939}, {"type": "node", "id": 929142222, "lat": 48.8410227, "lon": 2.3221651}, {"type": "node", "id": 929142403, "lat": 48.8414598, "lon": 2.3229896}, {"type": "node", "id": 929142710, "lat": 48.8414597, "lon": 2.3224696}, {"type": "node", "id": 929142724, "lat": 48.8414597, "lon": 2.3225662}, {"type": "node", "id": 929143209, "lat": 48.8414579, "lon": 2.3232083}, {"type": "node", "id": 929143547, "lat": 48.8414601, "lon": 2.3226926}, {"type": "node", "id": 929143628, "lat": 48.8410134, "lon": 2.3225821}, {"type": "node", "id": 929143753, "lat": 48.8410179, "lon": 2.3222427}, {"type": "node", "id": 929144076, "lat": 48.8410066, "lon": 2.3222469}, {"type": "node", "id": 929144084, "lat": 48.8415875, "lon": 2.3229659}, {"type": "node", "id": 929144115, "lat": 48.8410093, "lon": 2.3222697}, {"type": "node", "id": 929144129, "lat": 48.8413823, "lon": 2.3234084}, {"type": "node", "id": 929144420, "lat": 48.8414998, "lon": 2.3229402}, {"type": "node", "id": 929144433, "lat": 48.8415313, "lon": 2.3223361}, {"type": "node", "id": 929144509, "lat": 48.8411432, "lon": 2.3233494}, {"type": "node", "id": 929144740, "lat": 48.8414601, "lon": 2.3225075}, {"type": "node", "id": 929144958, "lat": 48.8414925, "lon": 2.3230364}, {"type": "node", "id": 929145141, "lat": 48.8410157, "lon": 2.322337}, {"type": "node", "id": 929145586, "lat": 48.8414463, "lon": 2.3233598}, {"type": "node", "id": 929145600, "lat": 48.8410225, "lon": 2.3224532}, {"type": "node", "id": 929145904, "lat": 48.8414984, "lon": 2.323018}, {"type": "node", "id": 929146345, "lat": 48.8414598, "lon": 2.3225705}, {"type": "node", "id": 929146399, "lat": 48.8410247, "lon": 2.3221619}, {"type": "node", "id": 929146824, "lat": 48.8414915, "lon": 2.3232339}, {"type": "node", "id": 1163571474, "lat": 48.8489245, "lon": 2.2975729, "tags": {"brand": "Monoprix", "brand:wikidata": "Q3321241", "brand:wikipedia": "en:Monoprix", "check_date": "2024-04-11", "contact:city": "Paris", "contact:housenumber": "2;4", "contact:postcode": "75015", "contact:street": "Rue du Commerce", "name": "Monoprix", "opening_hours": "Mo-Sa 08:00-21:45; Su 08:00-20:00", "operator": "Groupe Casino", "phone": "+33 1 45 79 94 86", "shop": "supermarket", "website": "https://www.monoprix.fr/787.html", "wheelchair": "yes"}}, {"type": "node", "id": 1286613939, "lat": 48.8457545, "lon": 2.3127119, "tags": {"addr:housenumber": "106;108", "addr:street": "Rue de S\u00e8vres", "brand": "G20", "brand:wikidata": "Q3504731", "brand:wikipedia": "fr:Supermarch\u00e9s G20", "check_date": "2025-10-02", "name": "G20", "opening_hours": "Mo-Sa 08:00-22:00; Su 09:00-22:00", "operator": "G20", "phone": "+33 1 43 06 50 50", "shop": "supermarket", "wheelchair": "yes"}}, {"type": "node", "id": 1477602786, "lat": 48.865499, "lon": 2.3352849, "tags": {"check_date": "2025-12-01", "check_date:opening_hours": "2025-12-01", "contact:city": "Paris", "contact:housenumber": "8", "contact:phone": "+33 1 58 62 49 09", "contact:postcode": "75001", "contact:street": "Rue Sainte-Anne", "cuisine": "korean;japanese", "description": "Supermarch\u00e9 cor\u00e9en vendant \u00e9galement des produits japonais", "name": "K-mart", "opening_hours": "Mo-Su 10:00-21:00", "shop": "supermarket", "source": "survey", "website": "https://www.k-mart.fr/opera", "wheelchair": "yes"}}, {"type": "node", "id": 1549569240, "lat": 48.8758485, "lon": 2.3239613}, {"type": "node", "id": 1549569260, "lat": 48.8758628, "lon": 2.3240776}, {"type": "node", "id": 1569045985, "lat": 48.8664526, "lon": 2.333868, "tags": {"brand": "Monoprix", "brand:wikidata": "Q3321241", "brand:wikipedia": "en:Monoprix", "check_date": "2023-08-07", "contact:city": "Paris", "contact:housenumber": "23", "contact:postcode": "75001", "contact:street": "Avenue de l'Op\u00e9ra", "name": "Monoprix", "note": "Rajouter piano en libre service", "opening_hours": "Mo-Sa 08:00-22:00; Su 09:30-21:00", "operator": "Groupe Casino", "payment:mastercard": "yes", "payment:visa": "yes", "phone": "+33 1 42 61 78 08", "shop": "supermarket", "website": "https://www.monoprix.fr/766.html", "wheelchair": "yes"}}, {"type": "node", "id": 1670553045, "lat": 48.8550011, "lon": 2.3062259, "tags": {"brand": "Naturalia", "brand:wikidata": "Q3337081", "brand:wikipedia": "fr:Naturalia", "name": "Naturalia", "opening_hours": "Mo-Sa 09:00-20:45; Su 09:30-12:45", "operator": "Groupe Casino", "organic": "only", "phone": "+33 1 45 51 10 10", "ref:FR:SIRET": "30247464800136", "shop": "supermarket", "source": "survey", "website": "https://naturalia.fr/"}}, {"type": "node", "id": 1795299679, "lat": 48.8414189, "lon": 2.3233806, "tags": {"entrance": "main"}}, {"type": "node", "id": 1795309754, "lat": 48.8413872, "lon": 2.3221595, "tags": {"entrance": "main"}}, {"type": "node", "id": 2126361727, "lat": 48.8718705, "lon": 2.343317, "tags": {"addr:city": "Paris", "addr:housenumber": "6", "addr:postcode": "75009", "addr:street": "Rue du Faubourg Montmartre", "brand": "Naturalia", "brand:wikidata": "Q3337081", "brand:wikipedia": "fr:Naturalia", "name": "Naturalia", "opening_hours": "Su-Fr 09:00-20:45; Sa 09:00-12:45", "phone": "+33 1 48 78 50 16", "shop": "supermarket", "source": "survey", "website": "https://magasins.naturalia.fr/naturalia/fr/store/france/ile-de-france/paris/paris/grands-boulevards/4002"}}, {"type": "node", "id": 2139158103, "lat": 48.8674114, "lon": 2.3465068, "tags": {"addr:city": "Paris", "addr:postcode": "75002", "brand": "Naturalia", "brand:wikidata": "Q3337081", "brand:wikipedia": "fr:Naturalia", "check_date": "2024-05-16", "name": "Naturalia", "opening_hours": "Mo-Sa 09:00-20:45", "operator": "Groupe Casino", "organic": "only", "phone": "+33 1 40 26 68 82", "shop": "supermarket", "source": "survey", "website": "https://naturalia.fr/", "wheelchair": "yes"}}, {"type": "node", "id": 2478201176, "lat": 48.8661542, "lon": 2.3443915, "tags": {"addr:city": "Paris", "addr:floor": ";0", "addr:housenumber": "59", "addr:postcode": "75002", "addr:street": "Rue Montmartre", "check_date": "2025-08-04", "level": "0;0", "name": "CASINO Shop", "opening_hours": "Mo-Sa 08:00-22:30; Su 09:00-22:30", "payment:cash": "yes", "payment:credit_cards": "yes", "payment:debit_cards": "yes", "payment:visa": "yes", "shop": "supermarket", "wheelchair": "yes"}}, {"type": "node", "id": 2515581329, "lat": 48.8688115, "lon": 2.3351558, "tags": {"brand": "Bio C' Bon", "brand:wikidata": "Q54312551", "brand:wikipedia": "fr:Bio c'bon", "bulk_purchase": "yes", "contact:city": "Paris", "contact:facebook": "https://www.facebook.com/biocbonfrance/", "contact:housenumber": "29", "contact:postcode": "75002", "contact:street": "Rue Saint-Augustin", "contact:website": "https://bio-c-bon.eu/fr/nos_magasins/bio-c-bon-paris-saint-augustin", "name": "Bio C' Bon", "opening_hours": "Mo-Sa 09:30-20:00; Su 09:30-13:00", "organic": "only", "shop": "supermarket", "wheelchair": "yes"}}, {"type": "node", "id": 2528337528, "lat": 48.8468492, "lon": 2.3063014, "tags": {"brand": "G20", "brand:wikidata": "Q3504731", "check_date": "2025-10-05", "name": "G20", "operator": "G20", "payment:credit_cards": "yes", "payment:debit_cards": "yes", "shop": "supermarket", "wheelchair": "yes"}}, {"type": "node", "id": 2529629244, "lat": 48.8515225, "lon": 2.3438292, "tags": {"addr:housenumber": "53", "addr:postcode": "75005", "addr:street": "Rue de la Harpe", "brand": "G20", "brand:wikidata": "Q3504731", "name": "G20", "shop": "supermarket", "wheelchair": "yes"}}, {"type": "node", "id": 2556489542, "lat": 48.8504014, "lon": 2.2929658, "tags": {"brand": "E. Leclerc Drive", "check_date:opening_hours": "2025-07-27", "drive_through": "only", "name": "E. Leclerc Relais", "opening_hours": "Mo-Sa 10:00-21:00", "operator": "E. Leclerc", "shop": "supermarket"}}, {"type": "node", "id": 2634120982, "lat": 48.8599348, "lon": 2.3449563, "tags": {"addr:city": "Paris", "brand": "G20", "brand:wikidata": "Q3504731", "brand:wikipedia": "fr:Supermarch\u00e9s G20", "name": "G20", "opening_hours": "Mo-Sa 08:30-20:50; Su 09:30-19:50", "operator": "G20", "payment:cash": "yes", "payment:credit_cards": "yes", "ref:FR:SIRET": "43818125700017", "shop": "supermarket", "survey:date": "2023-07-23", "wheelchair": "yes"}}, {"type": "node", "id": 2745637275, "lat": 48.856729, "lon": 2.3065898, "tags": {"addr:housenumber": "43", "addr:street": "Rue Cler", "brand": "Aldi", "brand:wikidata": "Q41171373", "check_date": "2025-07-11", "name": "Aldi", "opening_hours": "Mo-Sa 08:30-21:30; Su 08:30-12:30", "operator": "ALDI", "phone": "+33 9 77 40 40 44", "ref:FR:SIRET": "41459903502093", "shop": "supermarket", "website": "https://www.aldi.fr/magasins-et-horaires-d-ouverture.html/l/paris/43-rue-cler/3436166"}}, {"type": "node", "id": 2902918485, "lat": 48.8519468, "lon": 2.2983523, "tags": {"addr:city": "Paris", "addr:housenumber": "4", "addr:postcode": "75015", "addr:street": "Rue Dupleix", "branch": "Paris Dupleix", "brand": "Auchan Supermarch\u00e9", "brand:wikidata": "Q105857776", "name": "Auchan Supermarch\u00e9", "opening_hours": "Mo-Sa 08:00-20:00; Su 08:30-20:00", "shop": "supermarket", "website": "https://www.auchan.fr/magasins/supermarche-paris-dupleix/sl-4082"}}, {"type": "node", "id": 2955472256, "lat": 48.8606251, "lon": 2.3073994, "tags": {"brand": "G20", "brand:wikidata": "Q3504731", "brand:wikipedia": "fr:Supermarch\u00e9s G20", "name": "G20", "shop": "supermarket"}}, {"type": "node", "id": 2996094395, "lat": 48.8415661, "lon": 2.3230257, "tags": {"addr:housenumber": "29", "entrance": "home", "source": "survey"}}, {"type": "node", "id": 2996095255, "lat": 48.8412582, "lon": 2.3220015, "tags": {"addr:housenumber": "33;35", "entrance": "yes", "source": "survey"}}, {"type": "node", "id": 3059539671, "lat": 48.8622793, "lon": 2.3416985, "tags": {"brand": "G20", "brand:wikidata": "Q3504731", "brand:wikipedia": "fr:Supermarch\u00e9s G20", "check_date:opening_hours": "2022-03-22", "contact:city": "Paris", "contact:housenumber": "38", "contact:postcode": "75001", "contact:street": "Rue du Louvre", "name": "G20", "opening_hours": "Mo-Sa 08:00-22:00; Su 09:00-12:00", "shop": "supermarket", "wheelchair": "limited"}}, {"type": "node", "id": 3207012647, "lat": 48.8710982, "lon": 2.3067582, "tags": {"entrance": "main", "source": "knowledge"}}, {"type": "node", "id": 3207012648, "lat": 48.8711784, "lon": 2.3068857, "tags": {"entrance": "exit", "source": "knowledge"}}, {"type": "node", "id": 3230178654, "lat": 48.8568933, "lon": 2.3276355, "tags": {"brand": "Monoprix", "brand:wikidata": "Q3321241", "brand:wikipedia": "fr:Monoprix (France)", "name": "Monoprix", "opening_hours": "Mo-Sa 08:00-22:00, Su 09:00-21:00", "operator": "Groupe Casino", "phone": "+33 1 42 86 44 30", "shop": "supermarket", "source": "survey", "website": "https://www.monoprix.fr/1428.html"}}, {"type": "node", "id": 3282727004, "lat": 48.8474634, "lon": 2.2978722, "tags": {"brand": "La Vie Claire", "brand:wikidata": "Q3213589", "brand:wikipedia": "fr:La Vie Claire", "bulk_purchase": "yes", "check_date:opening_hours": "2023-08-29", "name": "La Vie Claire", "opening_hours": "Mo-Sa 10:00-20:00; Su 09:30-12:30", "organic": "only", "phone": "+33 1 43 18 39 99", "shop": "supermarket", "website": "https://www.lavieclaire.com/magasin-bio/paris-fremicourt.html"}}, {"type": "node", "id": 3363289394, "lat": 48.8442596, "lon": 2.2943345, "tags": {"brand": "Naturalia", "brand:wikidata": "Q3337081", "brand:wikipedia": "fr:Naturalia", "contact:city": "Paris", "contact:housenumber": "8", "contact:postcode": "75015", "contact:street": "Rue Lakanal", "contact:website": "https://naturalia.fr/", "name": "Naturalia", "opening_hours": "Mo-Sa 09:00-20:45; Su 09:00-12:45", "operator": "Groupe Casino", "phone": "+33 1 45 31 08 28", "shop": "supermarket", "source": "survey", "surface": "asphalt"}}, {"type": "node", "id": 3403997929, "lat": 48.8759745, "lon": 2.3241512}, {"type": "node", "id": 3403997940, "lat": 48.8760581, "lon": 2.3241283, "tags": {"door": "yes", "entrance": "main", "level": "1"}}, {"type": "node", "id": 3403997941, "lat": 48.8760493, "lon": 2.3238433}, {"type": "node", "id": 3403997946, "lat": 48.8760834, "lon": 2.3241213}, {"type": "node", "id": 3404121287, "lat": 48.8759658, "lon": 2.3240793}, {"type": "node", "id": 3406107263, "lat": 48.8760087, "lon": 2.3238643}, {"type": "node", "id": 3406107266, "lat": 48.8760628, "lon": 2.323954}, {"type": "node", "id": 3406107268, "lat": 48.8760755, "lon": 2.3240581}, {"type": "node", "id": 3761763094, "lat": 48.848074, "lon": 2.3053881, "tags": {"brand": "monop'", "brand:wikidata": "Q3321241", "brand:wikipedia": "fr:Monoprix (France)", "name": "monop'", "opening_hours": "Mo-Sa 08:00-23:00+", "operator": "Monoprix", "phone": "+33 1 40 65 07 60", "shop": "supermarket", "website": "https://www.monoprix.fr/1614.html", "wheelchair": "yes"}}, {"type": "node", "id": 3811355159, "lat": 48.8675028, "lon": 2.2978598, "tags": {"brand": "G20", "brand:wikidata": "Q3504731", "brand:wikipedia": "fr:Supermarch\u00e9s G20", "name": "G20", "opening_hours": "Mo-Sa 08:00-21:00; Su 09:00-13:00", "shop": "supermarket"}}, {"type": "node", "id": 3980826490, "lat": 48.8614413, "lon": 2.3430512, "tags": {"brand": "La Vie Claire", "brand:wikidata": "Q3213589", "brand:wikipedia": "fr:La Vie claire", "bulk_purchase": "yes", "contact:city": "Paris", "contact:housenumber": "76-80", "contact:phone": "+33 1 42 21 42 34", "contact:postcode": "75001", "contact:street": "Rue Saint-Honor\u00e9", "contact:website": "https://www.lavieclaire.com/magasin-bio/paris-saint-honore.html", "name": "La Vie Claire", "opening_hours": "Mo-Sa 09:30-20:00", "organic": "only", "payment:cash": "yes", "ref:FR:SIRET": "63200001400829", "shop": "supermarket", "wheelchair": "yes"}}, {"type": "node", "id": 4047530695, "lat": 48.8760832, "lon": 2.3241194}, {"type": "node", "id": 4047893103, "lat": 48.8760612, "lon": 2.3239408}, {"type": "node", "id": 4420329991, "lat": 48.8757193, "lon": 2.3220634, "tags": {"brand": "G20", "brand:wikidata": "Q3504731", "brand:wikipedia": "fr:Supermarch\u00e9s G20", "contact:phone": "+33 1 42 94 02 61", "level": "0", "name": "G20", "opening_hours": "Mo-Sa 08:00-22:00; Su 08:00-13:00+", "shop": "supermarket", "wheelchair": "yes"}}, {"type": "node", "id": 4443345289, "lat": 48.8736881, "lon": 2.3351015, "tags": {"brand": "Monoprix", "brand:wikidata": "Q3321241", "brand:wikipedia": "fr:Monoprix (France)", "name": "Monoprix", "opening_hours": "Mo-Sa 08:30-23:59; Su 09:00-13:00", "shop": "supermarket", "website": "https://www.monoprix.fr/2004.html", "wheelchair": "yes"}}, {"type": "node", "id": 4523734591, "lat": 48.8704407, "lon": 2.2967585, "tags": {"brand": "monop'", "brand:wikidata": "Q3321241", "brand:wikipedia": "fr:Monoprix (France)", "name": "monop'", "opening_hours": "Mo-Sa 07:30-23:00; Su 09:00-22:00", "shop": "supermarket", "source": "survey", "website": "https://www.monoprix.fr/1858.html"}}, {"type": "node", "id": 4694179392, "lat": 48.8519245, "lon": 2.3354275, "tags": {"check_date:opening_hours": "2024-07-18", "contact:instagram": "@epicparis", "name": "Ep!c", "old_name": "Marks & Spencer Food", "opening_hours": "Mo-Sa 08:30-22:00; Su 09:00-20:00", "phone": "+33 9 70 72 79 14", "shop": "supermarket", "source": "survey 2022;knowledge", "wheelchair": "yes"}}, {"type": "node", "id": 4852647281, "lat": 48.8432024, "lon": 2.3296123, "tags": {"brand": "Bio C' Bon", "brand:wikidata": "Q54312551", "brand:wikipedia": "fr:Bio c'bon", "bulk_purchase": "yes", "check_date": "2025-07-07", "contact:facebook": "https://www.facebook.com/biocbonfrance/", "name": "Bio C' Bon", "opening_hours": "Mo-Sa 09:30-20:00; Su 09:30-13:00", "organic": "only", "shop": "supermarket", "website": "https://bio-c-bon.eu/fr/nos_magasins/bio-c-bon-paris-vavin", "wheelchair": "yes"}}, {"type": "node", "id": 4986720701, "lat": 48.8535987, "lon": 2.3392427, "tags": {"brand": "Bio C' Bon", "brand:wikidata": "Q54312551", "brand:wikipedia": "fr:Bio c'bon", "bulk_purchase": "yes", "contact:facebook": "https://www.facebook.com/biocbonfrance/", "name": "Bio C' Bon", "opening_hours": "Mo-Sa 09:30-20:00; Su 09:30-13:00", "organic": "only", "shop": "supermarket", "website": "https://bio-c-bon.eu/fr/nos_magasins/bio-c-bon-paris-saint-andre-des-arts"}}, {"type": "node", "id": 5645480394, "lat": 48.8411557, "lon": 2.3231027}, {"type": "node", "id": 5645480395, "lat": 48.8411441, "lon": 2.3233322}, {"type": "node", "id": 5645480396, "lat": 48.8414557, "lon": 2.3233337}, {"type": "node", "id": 5645480397, "lat": 48.8414585, "lon": 2.3231063}, {"type": "node", "id": 5842216363, "lat": 48.8545693, "lon": 2.3381552, "tags": {"brand": "La Vie Claire", "brand:wikidata": "Q3213589", "brand:wikipedia": "fr:La Vie claire", "bulk_purchase": "yes", "name": "La Vie Claire", "opening_hours": "Mo-Sa 09:30-20:00", "organic": "only", "phone": "+33 1 40 46 02 09", "shop": "supermarket", "website": "https://www.lavieclaire.com/magasin-bio/paris-mazarine.html", "wheelchair": "yes"}}, {"type": "node", "id": 5842216364, "lat": 48.8743551, "lon": 2.3213129, "tags": {"brand": "La Vie Claire", "brand:wikidata": "Q3213589", "brand:wikipedia": "fr:La Vie Claire", "bulk_purchase": "yes", "name": "La Vie Claire", "opening_hours": "Mo-Sa 09:30-20:00", "organic": "only", "phone": "+33 1 47 42 77 11", "shop": "supermarket", "website": "https://www.lavieclaire.com/magasin-bio/paris-haussmann.html"}}, {"type": "node", "id": 5963983103, "lat": 48.8553736, "lon": 2.3251377, "tags": {"addr:street": "Rue du Bac", "brand": "Naturalia", "brand:wikidata": "Q3337081", "brand:wikipedia": "fr:Naturalia", "level": "0", "name": "Naturalia", "opening_hours": "Mo-Sa 09:00-20:45; Su 09:00-20:00", "phone": "+33 1 45 48 97 40", "ref:FR:SIRET": "30247464801183", "shop": "supermarket", "toilets": "no", "website": "https://magasins.naturalia.fr/naturalia/fr/store/france/ile-de-france/paris/paris/grenelle/3904", "wheelchair": "yes"}}, {"type": "node", "id": 6070722871, "lat": 48.8568958, "lon": 2.3173777, "tags": {"addr:housenumber": "43", "addr:postcode": "75007", "addr:street": "Rue de Bourgogne", "brand": "Bio C' Bon", "brand:wikidata": "Q54312551", "brand:wikipedia": "fr:Bio c'bon", "bulk_purchase": "yes", "contact:facebook": "https://www.facebook.com/biocbonfrance/", "name": "Bio C' Bon", "opening_hours": "Mo-Sa 09:30-20:00; Su 09:30-13:00", "organic": "only", "shop": "supermarket", "website": "https://bio-c-bon.eu/fr/nos_magasins/bio-c-bon-paris-bourgogne"}}, {"type": "node", "id": 6246354034, "lat": 48.8517199, "lon": 2.2937587, "tags": {"brand": "G20", "brand:wikidata": "Q3504731", "brand:wikipedia": "fr:Supermarch\u00e9s G20", "name": "G20", "opening_hours": "Mo-Sa 09:00-20:30; Su 10:00-13:00", "shop": "supermarket"}}, {"type": "node", "id": 6822905336, "lat": 48.8760261, "lon": 2.3241371, "tags": {"door": "yes", "level": "1"}}, {"type": "node", "id": 8312054919, "lat": 48.8426012, "lon": 2.3030456, "tags": {"addr:city": "Paris", "addr:housenumber": "105", "addr:postcode": "75015", "addr:street": "Rue Lecourbe", "branch": "Cambrone II", "brand": "Naturalia", "brand:wikidata": "Q3337081", "brand:wikipedia": "fr:Naturalia", "bulk_purchase": "yes", "check_date": "2024-07-22", "name": "Naturalia", "organic": "only", "shop": "supermarket", "website": "https://magasins.naturalia.fr/naturalia/fr/boutique/france/ile-de-france/paris/paris/cambronne-ii/4077"}}, {"type": "node", "id": 8459561474, "lat": 48.8614391, "lon": 2.342902, "tags": {"contact:city": "Paris", "contact:housenumber": "82", "contact:phone": "+33 1 40 41 02 88", "contact:postcode": "75001", "contact:street": "Rue Saint-Honor\u00e9", "name": "Panier Sympa", "ref:FR:SIRET": "48144566600011", "shop": "supermarket", "wheelchair": "limited"}}, {"type": "node", "id": 9630481864, "lat": 48.8626266, "lon": 2.3467094, "tags": {"addr:city": "Paris", "addr:postcode": "75001", "brand": "Monoprix", "brand:wikidata": "Q3321241", "brand:wikipedia": "fr:Monoprix (France)", "check_date": "2025-07-07", "level": "0", "name": "Monoprix", "opening_hours": "Mo-Sa 08:00-22:00; Su 09:00-20:00", "payment:cash": "yes", "payment:credit_cards": "yes", "payment:debit_cards": "yes", "payment:visa": "yes", "shop": "supermarket", "wheelchair": "yes"}}, {"type": "node", "id": 10011383775, "lat": 48.8508398, "lon": 2.342577, "tags": {"addr:housenumber": "24", "addr:postcode": "75006", "addr:street": "Boulevard Saint-Michel", "brand": "Monoprix", "brand:wikidata": "Q3321241", "brand:wikipedia": "en:Monoprix", "check_date": "2025-09-03", "name": "Monoprix", "opening_hours": "Mo-Sa 08:00-21:45, Su 09:00-21:45", "operator": "Groupe Casino", "panoramax": "bdaec3e3-68cc-429c-9379-3208e8a93bf6", "phone": "+33 1 44 32 05 00", "shop": "supermarket", "website": "https://www.monoprix.fr/1272.html", "wheelchair": "yes"}}, {"type": "node", "id": 10198369073, "lat": 48.8436291, "lon": 2.3288346, "tags": {"brand": "Monop'", "brand:wikidata": "Q89913683", "name": "Monop'", "opening_hours": "Mo-Sa 07:30-23:00, Su 09:00-23:00", "shop": "supermarket", "website": "https://www.monoprix.fr/2515.html"}}, {"type": "node", "id": 10548781915, "lat": 48.8572982, "lon": 2.3175148, "tags": {"brand": "Coccinelle Express", "brand:wikidata": "Q90020479", "name": "Coccinelle Express", "operator": "Coccinelle", "shop": "supermarket"}}, {"type": "node", "id": 10554497865, "lat": 48.8552526, "lon": 2.3065914, "tags": {"brand": "Monoprix", "brand:wikidata": "Q3321241", "name": "Monoprix", "opening_hours": "Mo-Sa 08:00-21:00", "phone": "+33 1 53 86 86 41", "shop": "supermarket", "website": "https://www.monoprix.fr/2585.html"}}, {"type": "node", "id": 11537062967, "lat": 48.8738255, "lon": 2.3330425, "tags": {"cuisine": "asian", "disused:shop": "convenience", "name": "Chen Market", "old_name": "Marks & Spencer Food", "opening_hours": "Mo-Su 09:00-21:00", "phone": "+33 1 48 74 52 26", "shop": "supermarket"}}, {"type": "node", "id": 11630107367, "lat": 48.8723232, "lon": 2.3420427, "tags": {"check_date": "2024-02-16", "name": "Casino #toupr\u00e8s", "shop": "supermarket"}}, {"type": "node", "id": 11679129621, "lat": 48.8517474, "lon": 2.2981612, "tags": {"addr:city": "Paris", "addr:housenumber": "9", "addr:postcode": "75015", "addr:street": "Rue Dupleix", "brand": "Naturalia", "brand:wikidata": "Q3337081", "name": "Naturalia", "opening_hours": "Mo-Sa 09:00-20:00; Su 09:00-13:00", "organic": "only", "payment:cash": "yes", "payment:credit_cards": "yes", "phone": "+33172346571", "shop": "supermarket", "website": "https://magasins.naturalia.fr/naturalia/fr/store/france/ile-de-france/paris/paris/dupleix/4946?utm_source=GMB&utm_campaign=Multidiffusion&utm_medium=local&utm_content=4946"}}, {"type": "node", "id": 11773202796, "lat": 48.8590756, "lon": 2.3041134, "tags": {"name": "monop'", "shop": "supermarket", "wheelchair": "yes"}}, {"type": "node", "id": 11950573749, "lat": 48.8484363, "lon": 2.3209285, "tags": {"addr:city": "Paris", "addr:housenumber": "99-100", "addr:postcode": "75006", "addr:street": "Rue de S\u00e8vres", "contact:phone": "+33 1 58 67 10 10", "name": "So.bio Paris S\u00e8vres", "opening_hours": "Mo-Sa 09:30-20:30, Su 09:30-13:00", "operator": "So.bio", "organic": "only", "shop": "supermarket", "website": "https://www.sobio.fr/magasin/so-bio-paris-sevres"}}, {"type": "node", "id": 12122406984, "lat": 48.8535631, "lon": 2.2946309, "tags": {"brand": "U Express", "brand:wikidata": "Q2529029", "name": "U Express", "opening_hours": "Mo-Sa 08:00-21:00; Su 08:00-20:00", "phone": "+33 1 44 59 35 28", "shop": "supermarket", "website": "https://www.magasins-u.com/magasin/uexpress-parisfederation"}}, {"type": "node", "id": 12720458306, "lat": 48.8413436, "lon": 2.3221064, "tags": {"entrance": "service"}}, {"type": "node", "id": 12720458307, "lat": 48.8412313, "lon": 2.3219689, "tags": {"entrance": "garage", "maxheight": "1.85"}}, {"type": "node", "id": 13340745319, "lat": 48.8753608, "lon": 2.3126229, "tags": {"name": "Franprix", "shop": "supermarket"}}, {"type": "way", "id": 69103161, "nodes": [829051718, 829051450, 829051704, 829051650, 829051505, 829051736, 829051904, 829051438, 829051696, 3207012648, 840927416, 829051758, 3207012647, 829051718], "tags": {"air_conditioning": "yes", "branch": "Alimentation", "brand": "Monoprix", "brand:wikidata": "Q3321241", "brand:wikipedia": "en:Monoprix", "building": "retail", "check_date": "2023-10-17", "currency:EUR": "yes", "level": "0", "name": "Monoprix", "old_name": "IGN", "opening_hours": "Mo-Sa 08:00-23:00; Su 09:00-21:00", "operator": "Monoprix", "shop": "supermarket", "start_date:Monoprix": "mars 2013", "stroller": "yes", "toilets": "no", "website": "https://www.monoprix.fr/1603.html", "wheelchair": "yes"}}, {"type": "way", "id": 79621362, "nodes": [929144084, 929144420, 929139722, 929143547, 929140858, 929146345, 929142724, 929144740, 929142710, 929144433, 1795309754, 12720458306, 2996095255, 12720458307, 929140885, 929140604, 929146399, 929142222, 929141951, 929143753, 929144076, 929144115, 929145141, 929145600, 929139418, 929143628, 929141428, 929141140, 5645480394, 5645480395, 929144509, 929144129, 1795299679, 929145586, 5645480396, 929146824, 929143209, 5645480397, 929141541, 929138936, 929142403, 929145904, 929144958, 929140697, 2996094395, 929144084], "tags": {"addr:street": "Rue du D\u00e9part", "brand": "Monoprix", "brand:wikidata": "Q3321241", "brand:wikipedia": "en:Monoprix", "building": "apartments", "building:levels": "13", "name": "Monoprix", "old_name": "INNO", "opening_hours": "Mo-Su 08:00-23:40", "operator": "Groupe Casino", "roof:levels": "1", "roof:shape": "flat", "shop": "supermarket", "website": "https://www.monoprix.fr/285.html", "wheelchair": "limited"}}, {"type": "way", "id": 333276715, "nodes": [3403997941, 4047893103, 3406107266, 3406107268, 4047530695, 3403997946, 3403997940, 6822905336, 3403997929, 3404121287, 790027756, 790027831, 1549569260, 1549569240, 202822347, 3406107263, 3403997941], "tags": {"brand": "Monoprix", "brand:wikidata": "Q3321241", "brand:wikipedia": "fr:Monoprix (France)", "check_date": "2024-03-21", "fax": "+33158221696", "indoor": "room", "level": "1", "name": "Monoprix", "opening_hours": "Mo-Sa 07:30-22:00; Su 07:00-13:00", "operator": "Groupe Casino", "phone": "+33158221690", "shop": "supermarket", "source": "survey", "website": "https://www.monoprix.fr/1574.html", "wheelchair": "yes"}}]}