{"version": 0.6, "generator": "Overpass API 0.7.62.8 e802775f", "osm3s": {"timestamp_osm_base": "2025-12-03T20:31:44Z", "copyright": "The data included in this document is from www.openstreetmap.org. The data is made available under ODbL."}, "elements": [{"type": "node", "id": 508913080, "lat": 45.7594379, "lon": 4.8425928, "tags": {"name": "La Boulangerie Rouge", "opening_hours": "Mo-Fr 08:00-15:00", "shop": "bakery", "survey:date": "2020-07-01", "wheelchair": "yes"}}, {"type": "node", "id": 508913095, "lat": 45.7594508, "lon": 4.842192, "tags": {"name": "Boulangerie de la Libert\u00e9", "opening_hours": "Mo-Sa 07:00-19:30; Su 07:30-13:00", "ref:FR:SIRET": "51030758000017", "shop": "bakery", "survey:date": "2023-09-01"}}, {"type": "node", "id": 508913099, "lat": 45.7598056, "lon": 4.8478969, "tags": {"check_date": "2024-06-28", "name": "P\u00e9trin et Partage", "opening_hours": "Mo-Fr 06:30-19:30", "phone": "+33 9 80 63 54 84", "ref:FR:SIRET": "53337239700026", "shop": "bakery"}}, {"type": "node", "id": 508913109, "lat": 45.7620689, "lon": 4.834741, "tags": {"brand": "Maison Pozzoli", "contact:facebook": "https://www.facebook.com/pages/category/Bakery/Maison-Pozzoli-363368267012429/", "name": "Maison Pozzoli Presqu\u2019\u00eele", "opening_hours": "Mo-Fr 07:00-20:00, Sa 07:00-19:00", "opening_hours:url": "https://www.boulangerie-pozzoli.fr/boutiques/maison-pozzoli-presquile/", "organic": "yes", "phone": "+33 4 78 42 66 27", "ref:FR:SIRET": "38228515300013", "shop": "bakery", "website": "https://www.boulangerie-pozzoli.fr/"}}, {"type": "node", "id": 508913169, "lat": 45.7596072, "lon": 4.8491831, "tags": {"addr:housenumber": "223", "addr:postcode": "69003", "addr:street": "Rue Duguesclin", "contact:facebook": "https://www.facebook.com/Biscotte.BonPainetCie.Lyon/", "contact:instagram": "augustin.l.art.du.pain", "name": "Augustin", "opening_hours": "Mo-Fr 06:30-20:00; Sa 06:30-14:00; Su 06:30-13:00", "ref:FR:SIRET": "75295989000019", "shop": "bakery", "website": "https://www.les-pains-augustin.com"}}, {"type": "node", "id": 518972497, "lat": 45.7684751, "lon": 4.8362267, "tags": {"alt_name": "Boulangerie Eric Kayser Le Fournil de l'Op\u00e9ra", "brand": "Maison Kayser", "contact:facebook": "https://www.facebook.com/pages/category/Bakery/Maison-Eric-Kayser-Lyon-430866860578755/", "contact:website": "http://www.maison-kayser.com", "level": "0", "name": "Le Fournil de l'Op\u00e9ra", "opening_hours": "Mo-Sa 06:00-20:00", "opening_hours:url": "https://www.maison-kayser.com/fr/boulangeries/100003001-le-fournil-de-l-opera.html", "phone": "+33 4 78 29 96 99", "ref:FR:SIRET": "39353467200018", "shop": "bakery", "wheelchair": "limited"}}, {"type": "node", "id": 541464215, "lat": 45.7567009, "lon": 4.8477256, "tags": {"addr:postcode": "69003", "name": "Boulangerie l'\u00c9dison", "opening_hours": "Tu-Th, Sa-Su 07:00-19:00; Fr 07:00-11:30, 12:30-19:00", "outdoor_seating": "no", "shop": "bakery", "wheelchair": "no"}}, {"type": "node", "id": 541464475, "lat": 45.7569536, "lon": 4.8494195, "tags": {"addr:street": "Place Voltaire", "name": "Le Pain Ta Gone", "opening_hours": "Mo-Fr 07:30-14:30, 16:00-19:30; Sa 08:00-14:00", "shop": "bakery", "wheelchair": "yes"}}, {"type": "node", "id": 546921313, "lat": 45.7566025, "lon": 4.8449011, "tags": {"name": "Boulangerie P\u00e2tisserie de la Place", "ref:FR:SIRET": "84142893100015", "shop": "bakery", "survey:date": "2020-11-24"}}, {"type": "node", "id": 665326479, "lat": 45.7642568, "lon": 4.8333657, "tags": {"brand": "Paul", "brand:wikidata": "Q3370417", "brand:wikipedia": "en:Paul (bakery)", "name": "Paul", "phone": "+33 4 78 37 52 08", "ref:FR:SIRET": "75359400100020", "shop": "bakery"}}, {"type": "node", "id": 831557164, "lat": 45.7470426, "lon": 4.8248313, "tags": {"indoor_seating": "yes", "name": "Boulangerie M. et Mme. Torres", "outdoor_seating": "yes", "ref:FR:SIRET": "87769180800019", "shop": "bakery", "source": "cadastre-dgi-fr source : Direction G\u00e9n\u00e9rale des Imp\u00f4ts - Cadastre. Mise \u00e0 jour : 2010"}}, {"type": "node", "id": 832463267, "lat": 45.7579644, "lon": 4.812109, "tags": {"contact:facebook": "https://www.facebook.com/pg/boulangeriehenrigay", "name": "Maison Henri Gay", "opening_hours": "Mo-Sa 06:00-19:30; Su 06:00-18:30", "phone": "+33 4 78 25 43 79", "shop": "bakery", "website": "https://boulangeriehenrigay.fr"}}, {"type": "node", "id": 956973267, "lat": 45.7421873, "lon": 4.8213063}, {"type": "node", "id": 956973754, "lat": 45.7422552, "lon": 4.8211425}, {"type": "node", "id": 956975431, "lat": 45.7422348, "lon": 4.821348}, {"type": "node", "id": 956975546, "lat": 45.7422884, "lon": 4.8213927}, {"type": "node", "id": 956975891, "lat": 45.7423566, "lon": 4.821229}, {"type": "node", "id": 988267770, "lat": 45.7745954, "lon": 4.8269676, "tags": {"check_date:opening_hours": "2024-07-21", "harassment_prevention": "ask_angela", "name": "Le Banquet", "opening_hours": "Mo-Sa 06:30-19:30", "organic": "yes", "payment:cards": "yes", "payment:cash": "yes", "payment:contactless": "yes", "ref:FR:SIRET": "43247144900012", "shop": "bakery", "source": "cadastre-dgi-fr source : Direction G\u00e9n\u00e9rale des Imp\u00f4ts - Cadastre. Mise \u00e0 jour : 2010", "wheelchair": "yes"}}, {"type": "node", "id": 1215756091, "lat": 45.7434706, "lon": 4.8217805, "tags": {"check_date:opening_hours": "2023-01-01", "name": "Le Saint-Honor\u00e9", "ref:FR:SIRET": "45139479500020", "shop": "bakery"}}, {"type": "node", "id": 1250951840, "lat": 45.7484393, "lon": 4.8396913, "tags": {"description": "organic flour Etc , leaven (often >18h)also,", "name": "Antoinette Pain & Brioche", "opening_hours": "Tu-Sa 08:00-19:30", "phone": "+33 4 72 72 99 69", "shop": "bakery", "website": "https://antoinettepainetbrioche.fr/", "wheelchair": "limited"}}, {"type": "node", "id": 1275893089, "lat": 45.7596622, "lon": 4.8273778, "tags": {"brand": "Eric Kayser", "brand:wikidata": "Q99231745", "contact:facebook": "https://www.facebook.com/MaisonKayser/", "contact:housenumber": "1", "contact:instagram": "https://www.instagram.com/maisonkayser/?hl=fr", "contact:pinterest": "https://www.pinterest.com.au/maisonkayser/", "contact:street": "Avenue Adolphe Max", "contact:twitter": "https://twitter.com/maison_ek", "contact:youtube": "https://www.youtube.com/channel/UC1rO5ROMrEzqoVunKUo_8cA", "name": "Eric Kayser", "opening_hours": "Mo-Sa 06:30-20:00", "opening_hours:url": "https://www.maison-kayser.com/fr/boulangeries/100003003-lyon-l-epiason.html", "operator": "Eric Kayser", "pastry": "yes", "ref:FR:SIRET": "50449507800017", "shop": "bakery", "website": "https://www.maison-kayser.com"}}, {"type": "node", "id": 1297291898, "lat": 45.7747341, "lon": 4.8292948, "tags": {"check_date:opening_hours": "2025-08-18", "contact:facebook": "https://www.facebook.com/lauretteetmarinette/", "name": "Laurette & Marinette", "old_name": "Le boulanger de la Croix-Rousse by Victor", "opening_hours": "Mo-Sa 07:30-19:30", "organic": "yes;used", "phone": "+33 4 78 30 48 55", "ref:FR:SIRET": "80386090700028", "shop": "bakery", "wheelchair": "yes"}}, {"type": "node", "id": 1297291899, "lat": 45.7508524, "lon": 4.8454677, "tags": {"check_date": "2024-02-29", "diet:vegetarian": "yes", "indoor_seating": "no", "name": "La Fabrique de Justine", "opening_hours": "Mo-Fr 06:30-19:30; Sa 07:30-14:00", "outdoor_seating": "yes", "payment:credit_cards": "yes", "payment:debit_cards": "yes", "ref:FR:SIRET": "98307626600011", "shop": "bakery", "wheelchair": "yes"}}, {"type": "node", "id": 1337251379, "lat": 45.7483906, "lon": 4.8552419, "tags": {"indoor_seating": "yes", "name": "Bake house", "opening_hours": "Mo-Fr 06:00-19:45; Su 06:00-13:30", "outdoor_seating": "yes", "ref:FR:SIRET": "33764501400024", "shop": "bakery"}}, {"type": "node", "id": 1395844950, "lat": 45.7659972, "lon": 4.8547266, "tags": {"indoor_seating": "no", "name": "Chez Thomas", "opening_hours": "Mo-Fr 07:00-19:00; Sa,PH 07:00-13:00", "outdoor_seating": "no", "ref:FR:SIRET": "84899530400013", "shop": "bakery", "takeaway": "only"}}, {"type": "node", "id": 1395956925, "lat": 45.7664694, "lon": 4.8566959, "tags": {"branch": "Jolie", "check_date:opening_hours": "2025-07-05", "email": "brotteaux@boulangeriechezjules.fr", "indoor_seating": "yes", "name": "Chez Jules", "opening_hours": "Mo-Sa 06:30-20:00; Su 07:00-19:00", "operator": "Chez Jules", "outdoor_seating": "yes", "pastry": "yes", "payment:cash": "yes", "payment:credit_cards": "yes", "payment:mastercard": "yes", "payment:mastercard_contactless": "yes", "payment:meal_voucher": "yes", "payment:visa": "yes", "payment:visa_contactless": "yes", "phone": "+33 4 78 24 35 92", "ref:FR:SIRET": "53838335700026", "shop": "bakery", "toilets": "no", "website": "https://www.boulangeriechezjules.fr/", "wheelchair": "yes"}}, {"type": "node", "id": 1425742644, "lat": 45.7544731, "lon": 4.8325116, "tags": {"addr:housenumber": "7", "addr:street": "Rue de la Charit\u00e9", "check_date": "2025-04-25", "check_date:opening_hours": "2025-04-25", "name": "Maison Antoine", "opening_hours": "Tu-Fr 07:30-19:00; Sa 08:00-19:00; Mo 12:00-18:00", "phone": "+33 4 78 05 27 70", "ref:FR:SIRET": "89081797600024", "shop": "bakery", "website": "https://lamaisonantoine.fr"}}, {"type": "node", "id": 1430849753, "lat": 45.7528727, "lon": 4.8408563, "tags": {"name": "Saveurs & Gourmandises", "opening_hours": "Mo-Su 06:00-20:00", "shop": "bakery", "wheelchair": "yes"}}, {"type": "node", "id": 1430960376, "lat": 45.7507145, "lon": 4.8533822, "tags": {"contact:housenumber": "304", "contact:postcode": "69007", "contact:street": "Rue Garibaldi", "name": "La Mie du Pain", "opening_hours": "PH,Mo-Sa 06:30-20:00", "shop": "bakery"}}, {"type": "node", "id": 1455348653, "lat": 45.775602, "lon": 4.8346402, "tags": {"air_conditioning": "yes", "check_date:opening_hours": "2025-09-29", "level": "1", "name": "Les Co'pains D'antan", "opening_hours": "Mo-Fr 06:30-19:30; Sa 07:00-19:00", "phone": "+33 4 78 27 44 97", "ref:FR:SIRET": "88166190400014", "shop": "bakery", "stroller": "yes", "website": "https://www.lescopainsdantan.fr/", "wheelchair": "yes"}}, {"type": "node", "id": 1683865724, "lat": 45.7423632, "lon": 4.8503698, "tags": {"name": "Ondo-Vernin", "shop": "bakery"}}, {"type": "node", "id": 1694707160, "lat": 45.771246, "lon": 4.8487175, "tags": {"name": "Boulangerie Bost", "opening_hours": "Mo-Sa 06:30-19:30", "shop": "bakery"}}, {"type": "node", "id": 1789268549, "lat": 45.7553568, "lon": 4.8421685, "tags": {"name": "Maison Meda", "shop": "bakery", "survey:date": "2023-08-19", "wheelchair": "yes"}}, {"type": "node", "id": 1790677737, "lat": 45.7548774, "lon": 4.8297205, "tags": {"name": "Maison Terrasson", "opening_hours": "Mo-Fr 07:00-20:00 ; Sa 07:00-13:00", "ref:FR:SIRET": "81827977000015", "shop": "bakery", "website": "https://la-boulangerie-de-saint-marc-40.webself.net/"}}, {"type": "node", "id": 1868899996, "lat": 45.7638674, "lon": 4.8328525, "tags": {"indoor_seating": "yes", "name": "Banneton", "opening_hours": "Tu-Sa 07:00-19:00", "outdoor_seating": "no", "shop": "bakery", "wheelchair": "limited"}}, {"type": "node", "id": 1975395645, "lat": 45.7692514, "lon": 4.8292264, "tags": {"contact:facebook": "https://www.facebook.com/pages/Boulangerie-Alain-Prost/609843305735699", "indoor_seating": "yes", "name": "Boulangerie du Grand Lyon", "opening_hours": "Mo-Sa 05:30-20:00; Su 05:00-20:00", "outdoor_seating": "no", "ref:FR:SIREN": "847875341", "ref:FR:SIRET": "84787534100020", "ref:vatin": "FR79847875341", "shop": "bakery"}}, {"type": "node", "id": 1975398174, "lat": 45.7680197, "lon": 4.828151, "tags": {"diet:gluten_free": "yes", "name": "Boulangerie Saint-Vincent", "opening_hours": "Tu-Sa 06:30-19:30; Su 07:00-13:00", "phone": "+33 4 72 00 94 19", "ref:FR:SIRET": "81856334800015", "shop": "bakery"}}, {"type": "node", "id": 1975464869, "lat": 45.7658956, "lon": 4.8277214, "tags": {"brand": "Boulangerie Chez Jules", "brand:website": "https://boulangeriechezjules.fr/", "email": "saintpaul@boulangeriechezjules.fr", "name": "Boulangerie Chez Jules", "opening_hours": "Mo-Sa 06:30-20:00; Su,PH 07:00-19:00", "opening_hours:url": "https://boulangeriechezjules.fr/nos-boulangeries/", "phone": "+33 4 78 28 67 85", "ref:FR:SIRET": "53367683900012", "shop": "bakery", "website": "https://boulangeriechezjules.fr/"}}, {"type": "node", "id": 1975470943, "lat": 45.7678446, "lon": 4.8308103, "tags": {"check_date": "2025-03-07", "check_date:opening_hours": "2025-03-06", "contact:facebook": "https://www.facebook.com/AntoinettePainetBrioche/", "name": "Antoinette Pain & Brioche", "opening_hours": "Tu-Sa 08:00-19:30", "phone": "+33 4 72 72 99 69", "ref:FR:SIRET": "83107807600013", "shop": "bakery", "website": "https://antoinettepainetbrioche.fr/"}}, {"type": "node", "id": 1975476533, "lat": 45.7680991, "lon": 4.8309621, "tags": {"name": "Boulangerie de La Martini\u00e8re", "opening_hours": "Mo-Fr 06:00-20:00", "ref:FR:SIRET": "41411636800047", "shop": "bakery"}}, {"type": "node", "id": 2009071998, "lat": 45.7669922, "lon": 4.8557598, "tags": {"check_date:opening_hours": "2024-04-16", "name": "Boulangerie Marcel", "opening_hours": "Tu-Sa 07:00-19:00; Su 07:00-13:00", "phone": "+33 4 87638381", "ref:FR:SIRET": "85041995300029", "shop": "bakery"}}, {"type": "node", "id": 2074329349, "lat": 45.7740036, "lon": 4.8301515, "tags": {"name": "Romane", "opening_hours": "We-Fr 06:30-13:30,15:30-19:30; Sa 06:30-19:30; Su 06:30-14:00", "shop": "bakery", "wheelchair": "no"}}, {"type": "node", "id": 2074351822, "lat": 45.7753731, "lon": 4.8313051, "tags": {"check_date": "2025-03-06", "check_date:opening_hours": "2025-03-06", "name": "L'Atelier des D\u00e9lices", "opening_hours": "Su 06:30-13:00; Tu-Sa 06:30-19:00", "organic": "only", "ref:FR:SIRET": "88188599000013", "shop": "bakery"}}, {"type": "node", "id": 2077185043, "lat": 45.751893, "lon": 4.8404508, "tags": {"check_date:opening_hours": "2024-05-04", "indoor_seating": "no", "name": "Boulangerie du 29", "opening_hours:signed": "no", "outdoor_seating": "no", "ref:FR:SIRET": "80373647900012", "shop": "bakery", "takeaway": "only", "wheelchair": "yes"}}, {"type": "node", "id": 2092840975, "lat": 45.7547381, "lon": 4.8470185, "tags": {"check_date": "2025-04-12", "contact:phone": "+33 4 78 62 35 55", "name": "La Miche Au Vieux Four", "opening_hours": "Mo-Fr 06:00-20:00, Sa 06:00-14:00,15:00-20:00", "ref:FR:SIRET": "52363676900011", "shop": "bakery"}}, {"type": "node", "id": 2100692054, "lat": 45.7547652, "lon": 4.8421815, "tags": {"name": "Croq'Pain", "ref:FR:SIRET": "51124267900013", "shop": "bakery"}}, {"type": "node", "id": 2159556321, "lat": 45.7524417, "lon": 4.8286798, "tags": {"brand": "Les Fournils de France", "brand:website": "https://lefournildeparis.com/", "brand:wikidata": "Q104649900", "check_date": "2024-10-13", "check_date:opening_hours": "2024-10-13", "contact:phone": "+33 4 78 84 67 22", "name": "Les Fournils de France", "opening_hours": "Mo-Sa 07:00-19:30", "ref:FR:SIRET": "87928386900029", "shop": "bakery"}}, {"type": "node", "id": 2183110507, "lat": 45.7476689, "lon": 4.8375092, "tags": {"name": "Farine & Cannelle", "opening_hours": "Mo-Fr 07:00-19:00", "ref:FR:SIREN": "413593187", "ref:FR:SIRET": "41359318700011", "shop": "bakery"}}, {"type": "node", "id": 2183115071, "lat": 45.7465712, "lon": 4.8371967, "tags": {"name": "Millet", "ref:FR:SIRET": "98020746800011", "shop": "bakery"}}, {"type": "node", "id": 2188469218, "lat": 45.7668965, "lon": 4.8547634, "tags": {"name": "Antoinette Pain & Brioche", "opening_hours": "Tu-Sa 08:00-19:30", "phone": "+33478240520", "ref:FR:SIRET": "79427883800022", "shop": "bakery", "website": "https://www.antoinettepainetbrioche.fr/"}}, {"type": "node", "id": 2212084405, "lat": 45.7580594, "lon": 4.8463575, "tags": {"name": "Le Moncey", "ref:FR:SIRET": "81832238000028", "shop": "bakery"}}, {"type": "node", "id": 2267861185, "lat": 45.7649244, "lon": 4.8324594, "tags": {"contact:housenumber": "11", "indoor_seating": "no", "name": "Boulangerie d'Albon", "opening_hours": "Mo-Sa 06:00-19:30", "outdoor_seating": "no", "ref:FR:SIRET": "83044237200017", "shop": "bakery", "takeaway": "only", "wheelchair": "yes"}}, {"type": "node", "id": 2284382540, "lat": 45.7555151, "lon": 4.8439542, "tags": {"name": "El Ghoul", "ref:FR:SIRET": "32874884300021", "shop": "bakery", "survey:date": "2020-11-21"}}, {"type": "node", "id": 2322615645, "lat": 45.7544662, "lon": 4.8450632, "tags": {"name": "Boulangerie Gambetta", "ref:FR:SIRET": "81322554700013", "shop": "bakery", "wheelchair": "yes"}}, {"type": "node", "id": 2322616680, "lat": 45.7543981, "lon": 4.8459774, "tags": {"name": "La Rose de Tunis", "ref:FR:SIRET": "53242012200014", "shop": "bakery", "survey:date": "2020-11-29", "wheelchair": "yes"}}, {"type": "node", "id": 2322617254, "lat": 45.7538499, "lon": 4.8477585, "tags": {"contact:housenumber": "49", "contact:street": "Cours Gambetta", "name": "Boulangerie De Capucine", "ref:FR:SIRET": "93006352400019", "shop": "bakery", "wheelchair": "yes"}}, {"type": "node", "id": 2322625645, "lat": 45.752158, "lon": 4.8524738, "tags": {"addr:housenumber": "71", "addr:street": "Cours Gambetta", "contact:facebook": "https://www.facebook.com/lagaribaldinelyon/", "contact:instagram": "lagaribaldine", "name": "La Garibaldine", "opening_hours": "Tu-Sa 07:00-19:30; Su 07:15-13:00", "phone": "+33478951734", "ref:FR:SIRET": "84096225200010", "shop": "bakery", "wheelchair": "yes"}}, {"type": "node", "id": 2433758816, "lat": 45.7597987, "lon": 4.8268966, "tags": {"name": "Perroudon", "opening_hours": "Fr-Su 08:15-19:00", "phone": "+33 4 78 37 30 75", "ref:FR:SIREN": "417713013", "ref:FR:SIRET": "41771301300015", "ref:vatin": "FR0690602", "shop": "bakery"}}, {"type": "node", "id": 2443973824, "lat": 45.754096, "lon": 4.8395511, "tags": {"check_date": "2025-07-08", "check_date:opening_hours": "2025-07-08", "contact:facebook": "Masa-madre-boulangerie-269699593194541", "name": "Boulangerie Masa Madre", "opening_hours": "Tu-Fr 07:00-19:30; Sa 07:00-15:00", "ref:FR:SIRET": "84916168200018", "shop": "bakery", "wheelchair": "limited"}}, {"type": "node", "id": 2450596760, "lat": 45.7680736, "lon": 4.8509113, "tags": {"name": "Mimi Bakery", "phone": "+33 4 72 15 88 62", "ref:FR:SIRET": "88449933600029", "shop": "bakery"}}, {"type": "node", "id": 2476288483, "lat": 45.762472, "lon": 4.8276961, "tags": {"contact:facebook": "https://www.facebook.com/BoulangerieDuPalais/", "indoor_seating": "no", "name": "Boulangerie du Palais", "opening_hours": "Mo-Su,PH 07:00-19:00", "outdoor_seating": "no", "phone": "+33 4 78 37 09 43", "ref:FR:SIRET": "82026605400015", "shop": "bakery", "takeaway": "only", "wheelchair": "yes"}}, {"type": "node", "id": 2476993845, "lat": 45.7539055, "lon": 4.8260266, "tags": {"check_date:opening_hours": "2024-03-12", "contact:facebook": "https://www.facebook.com/pages/Boulangerie-Dainay/839732259504680", "name": "La Boulangerie d'Ainay", "opening_hours": "Mo 14:30-19:30; Tu-Fr 09:30-12:30, 14:30-19:30; Sa 09:30-12:30", "opening_hours:signed": "no", "phone": "+33 9 67 43 09 65", "shop": "bakery"}}, {"type": "node", "id": 2476993856, "lat": 45.7525433, "lon": 4.8314862, "tags": {"check_date": "2025-09-16", "check_date:opening_hours": "2025-09-16", "name": "Tartine & Ficelle", "opening_hours": "Mo-Sa 07:00-20:00; Su 07:00-13:00", "phone": "+33472744053", "ref:FR:SIRET": "81780257200013", "shop": "bakery", "website": "http://www.lesdelicesdecharlie.fr/"}}, {"type": "node", "id": 2483668689, "lat": 45.7618323, "lon": 4.8502807, "tags": {"indoor_seating": "yes", "name": "Chez Julie & Flo", "opening_hours": "Mo-Fr 06:00-19:45", "outdoor_seating": "yes", "phone": "+33967519947", "ref:FR:SIRET": "80988791200024", "shop": "bakery"}}, {"type": "node", "id": 2503341161, "lat": 45.766612, "lon": 4.8361683, "tags": {"amenity": "fast_food", "brand": "Paul", "brand:wikidata": "Q3370417", "brand:wikipedia": "en:Paul (bakery)", "check_date": "2025-10-29", "check_date:opening_hours": "2025-03-13", "cuisine": "sandwich", "diet:vegan": "yes", "diet:vegetarian": "yes", "name": "Paul", "opening_hours": "Mo-Su 06:30-21:00", "outdoor_seating": "yes", "payment:cash": "yes", "payment:credit_cards": "yes", "payment:debit_cards": "yes", "phone": "+33 4 28 00 01 69", "ref:FR:SIRET": "75086264100024", "shop": "bakery", "takeaway": "yes", "wheelchair": "yes"}}, {"type": "node", "id": 2587463824, "lat": 45.7528989, "lon": 4.8521851, "tags": {"addr:housenumber": "33", "addr:street": "Avenue F\u00e9lix Faure", "check_date:opening_hours": "2025-08-22", "contact:facebook": "https://www.facebook.com/p/Boulangerie-Reymond-100052745487051/", "contact:instagram": "boulangerie_reymond", "name": "Reymond", "opening_hours": "Mo-Fr 07:00-19:30", "phone": "+33478627329", "ref:FR:SIRET": "85175821900014", "shop": "bakery", "wheelchair": "yes"}}, {"type": "node", "id": 2600872705, "lat": 45.7425669, "lon": 4.8507556, "tags": {"check_date": "2024-08-07", "name": "Maison Balbali", "opening_hours": "Mo-Sa 06:00-20:00; Su 06:00-13:00", "ref:FR:SIRET": "81846940500018", "shop": "bakery"}}, {"type": "node", "id": 2607502497, "lat": 45.7547301, "lon": 4.8442209, "tags": {"check_date:opening_hours": "2025-03-09", "contact:facebook": "maisonpepin", "name": "P\u00e2tisserie P\u00e9pin", "opening_hours": "Mo 15:00-19:00; Tu-Su 08:00-19:00", "phone": "+33 4 78 72 46 21", "ref:FR:SIRET": "49912550800022", "shop": "bakery", "website": "https://www.boutique-pepin.fr/", "wheelchair": "limited"}}, {"type": "node", "id": 2628204913, "lat": 45.7534344, "lon": 4.8498929, "tags": {"indoor_seating": "yes", "name": "Boulangerie Patisserie", "outdoor_seating": "no", "payment:credit_cards": "yes", "payment:debit_cards": "yes", "shop": "bakery", "smoking": "no", "wheelchair": "limited"}}, {"type": "node", "id": 2789756632, "lat": 45.7740825, "lon": 4.8069345, "tags": {"check_date": "2024-10-20", "name": "Naan Boulangerie Patisserie", "opening_hours": "Mo-Su 06:00-19:30", "ref:FR:SIRET": "79085902900023", "shop": "bakery", "website": "https://naan.fr/"}}, {"type": "node", "id": 2953970337, "lat": 45.7499574, "lon": 4.8457106, "tags": {"name": "Philippe Prudent", "opening_hours": "Tu-Sa 07:30-20:00; Su 07:00-13:00", "shop": "bakery", "wheelchair": "yes"}}, {"type": "node", "id": 2953970338, "lat": 45.7493211, "lon": 4.8477193, "tags": {"check_date:opening_hours": "2025-11-13", "name": "Maison H\u00e9non", "opening_hours": "Mo-Su 06:00-20:00", "ref:FR:SIRET": "80085590000018", "shop": "bakery", "wheelchair": "yes"}}, {"type": "node", "id": 3066189912, "lat": 45.7559493, "lon": 4.8463519, "tags": {"name": "Un Moment Gourmand", "ref:FR:SIRET": "75291068700017", "shop": "bakery"}}, {"type": "node", "id": 3110695914, "lat": 45.7620952, "lon": 4.8365344, "tags": {"check_date": "2023-11-16", "contact:facebook": "https://www.facebook.com/BoulangerieLesFrangins/", "name": "La Ferrandi\u00e8re", "opening_hours": "Mo-Sa 06:15-19:00", "phone": "+33 4 78 42 28 45", "ref:FR:SIRET": "81038809000013", "shop": "bakery"}}, {"type": "node", "id": 3139885739, "lat": 45.7691468, "lon": 4.8561282, "tags": {"name": "Malatier", "opening_hours": "Tu-Sa 06:15-20:00; Su 06:15-13:00", "ref:FR:SIRET": "50856542100015", "shop": "bakery", "wheelchair": "no"}}, {"type": "node", "id": 3139885747, "lat": 45.76538, "lon": 4.8569213, "tags": {"check_date:opening_hours": "2025-04-11", "name": "Le Fournil des Brotteaux", "opening_hours:signed": "no", "ref:FR:SIRET": "94810229800015", "shop": "bakery"}}, {"type": "node", "id": 3203280844, "lat": 45.746927, "lon": 4.8434425, "tags": {"name": "Maison Margotin", "opening_hours": "Mo-Sa 06:30-19:30", "shop": "bakery"}}, {"type": "node", "id": 3304014209, "lat": 45.7484381, "lon": 4.8440002, "tags": {"check_date:opening_hours": "2024-11-30", "name": "Le Framboisier", "opening_hours": "Tu-Sa 06:00-19:30; Su 06:00-12:00", "ref:FR:SIRET": "79823529700016", "shop": "bakery"}}, {"type": "node", "id": 3354661145, "lat": 45.7559567, "lon": 4.84552, "tags": {"check_date": "2024-12-07", "name": "O' D\u00e9lices Orientaux", "shop": "bakery"}}, {"type": "node", "id": 3593848277, "lat": 45.7479177, "lon": 4.8413131, "tags": {"name": "BR\u00d6D", "opening_hours": "Mo-Su 06:30-19:30", "payment:american_express": "yes", "payment:cash": "yes", "payment:coins": "yes", "payment:contactless": "yes", "payment:credit_cards": "yes", "payment:maestro": "yes", "payment:mastercard": "yes", "payment:meal_voucher": "yes", "payment:visa": "yes", "phone": "+33 4 72 94 45 62", "ref:FR:SIRET": "87909214600015", "shop": "bakery", "website": "https://boulangerie-brod-lyon.eatbu.com/"}}, {"type": "node", "id": 3627385134, "lat": 45.7667544, "lon": 4.8318841, "tags": {"name": "Au pain des traboules", "opening_hours": "Mo-Sa 08:00-20:00; Su 08:00-19:00", "phone": "+33 4 78 28 36 69", "ref:FR:SIRET": "83082490000013", "shop": "bakery"}}, {"type": "node", "id": 3661373385, "lat": 45.7744611, "lon": 4.8239507, "tags": {"name": "Boulangerie Patisserie des Canuts", "opening_hours": "Tu-Sa 06:30-19:30; Su 06:30-13:00", "phone": "+33 4 78 91 02 39", "ref:FR:SIRET": "51040344700012", "shop": "bakery", "wheelchair": "no"}}, {"type": "node", "id": 3729785856, "lat": 45.7725246, "lon": 4.8216831, "tags": {"name": "Les Gourmandises du Clos Jouve", "ref:FR:SIRET": "40031147800012", "shop": "bakery"}}, {"type": "node", "id": 3965288106, "lat": 45.7733844, "lon": 4.845093, "tags": {"contact:facebook": "https://facebook.com/people/Boulangerie-du-Parc/61554827483039", "contact:instagram": "boulangerie.du.parc", "name": "Boulangerie du Parc", "opening_hours": "Tu-Sa 06:30-20:00; Su 07:00-13:30", "phone": "+33 4 78 93 33 81", "ref:FR:SIRET": "75252409000012", "shop": "bakery"}}, {"type": "node", "id": 3965288109, "lat": 45.769682, "lon": 4.8552631, "tags": {"brand": "\u00c9ric Kayzer", "check_date:opening_hours": "2024-12-18", "indoor_seating": "yes", "name": "Le Fournil de l'Op\u00e9ra - Eric Kayzer", "opening_hours": "Mo-Sa 07:00-20:00", "outdoor_seating": "no", "phone": "+33 4 72 37 00 32", "ref:FR:SIRET": "39353467200034", "shop": "bakery", "website": "https://www.maison-kayser.com/", "wheelchair": "limited"}}, {"type": "node", "id": 4226401593, "lat": 45.7689349, "lon": 4.8322704, "tags": {"description": "Pains et patisseries \u00e0 partir de farine bio", "name": "Maison Jacquard", "opening_hours": "Tu-Sa 07:00-20:30; Su 07:00-15:30", "ref:FR:SIRET": "80980297800019", "shop": "bakery", "website": "http://www.maison-jacquard.fr/"}}, {"type": "node", "id": 4346112055, "lat": 45.7553268, "lon": 4.8575176, "tags": {"check_date:opening_hours": "2025-07-29", "contact:facebook": "https://www.facebook.com/pages/category/Bakery/Boulangerie-lartisan-650233991742860/", "name": "L'Artisan", "opening_hours": "Mo-Fr 06:00-19:00, Sa 06:30-13:00", "phone": "+33 4 78 60 67 28", "ref:FR:SIRET": "53364971100017", "shop": "bakery", "wheelchair": "no"}}, {"type": "node", "id": 4386255451, "lat": 45.7560411, "lon": 4.8192993, "tags": {"name": "Le Boulanger de Saint-Just", "opening_hours": "Mo-Fr 07:00-19:00; Sa 07:00-14:00; Su 07:00-13:00", "phone": "+33 4 78 20 05 05", "shop": "bakery", "website": "https://www.leboulanger-de-saintjust.fr/", "wheelchair": "yes"}}, {"type": "node", "id": 4426165593, "lat": 45.762591, "lon": 4.8449661, "tags": {"check_date:opening_hours": "2025-06-16", "name": "Daniel Boinon", "opening_hours": "Mo-Fr 06:30-20:00; Sa 06:30-19:00", "ref:FR:SIRET": "38776551400022", "shop": "bakery"}}, {"type": "node", "id": 4426303194, "lat": 45.7637821, "lon": 4.856902, "tags": {"check_date:opening_hours": "2024-04-17", "name": "Boulangerie artisanale L'atelier", "opening_hours": "Mo-Su 06:00-20:00", "opening_hours:signed": "no", "shop": "bakery", "survey:date": "2023-06-12"}}, {"type": "node", "id": 4427633389, "lat": 45.7731566, "lon": 4.8321681, "tags": {"addr:postcode": "69001", "name": "Bonomia", "opening_hours": "Tu-Sa 08:00-19:30", "phone": "+33 9 77 63 83 20", "shop": "bakery", "stroller": "yes", "website": "http://www.bonomia-boulangerie.com/index.html"}}, {"type": "node", "id": 4444507844, "lat": 45.7698698, "lon": 4.8360627, "tags": {"contact:facebook": "https://www.facebook.com/o-t%C3%A3o-bom-boulangerie-de-la-croix-paquet-1733244103559243/", "contact:street": "Place Croix-Paquet", "contact:website": "https://otaobom.com", "name": "o t\u00e3o bom", "opening_hours": "Mo-Sa 07:30-14:00,16:00-19:00; Su 07:30-13:00", "phone": "+33 9 83 38 68 49", "shop": "bakery", "website": "https://otaobom.com"}}, {"type": "node", "id": 4455161358, "lat": 45.7536431, "lon": 4.8296616, "tags": {"brand": "Eric Kayser", "brand:wikidata": "Q99231745", "check_date": "2025-10-18", "email": "fournilopera@gmail.com", "name": "Eric Kayser", "opening_hours": "07:00-20:00", "pastry": "yes", "ref:FR:SIRET": "50449507800033", "shop": "bakery", "website": "https://maison-kayser.com/boulangerie/victor-hugo/"}}, {"type": "node", "id": 4867513438, "lat": 45.7457553, "lon": 4.8362157, "tags": {"diet:vegetarian": "yes", "name": "Boulang' P\u00e2tiss'", "opening_hours": "Mo-Sa 07:00-18:00", "opening_hours:signed": "no", "ref:FR:SIRET": "81172643900029", "shop": "bakery", "survey:date": "2020-12-25"}}, {"type": "node", "id": 4879521921, "lat": 45.7581663, "lon": 4.834574, "tags": {"brand": "Brioche Dor\u00e9e", "brand:website": "https://www.briochedoree.fr", "brand:wikidata": "Q2925606", "brand:wikipedia": "fr:Brioche Dor\u00e9e", "indoor_seating": "yes", "name": "Brioche Dor\u00e9e", "opening_hours": "Mo-Sa 07:30-19:30", "outdoor_seating": "yes", "phone": "+33 4 78 37 74 51", "ref:FR:SIRET": "31890659100900", "shop": "bakery", "survey:date": "2025-04-04", "website": "https://www.briochedoree.fr/restaurants/95-lyon-republique", "wheelchair": "yes"}}, {"type": "node", "id": 4929491010, "lat": 45.7531239, "lon": 4.854077, "tags": {"name": "Maison Amiar", "opening_hours": "Mo-Fr 06:30-20:00; Sa 06:30-13:30", "phone": "+33 9 87 10 26 50", "ref:FR:SIRET": "83046746000010", "shop": "bakery", "wheelchair": "no"}}, {"type": "node", "id": 5140590188, "lat": 45.7598092, "lon": 4.8411722, "tags": {"check_date": "2023-05-15", "name": "Au Pain Naturel", "opening_hours": "We-Fr 07:00-14:00,16:00-20:00; Sa,Su 07:00-14:00", "organic": "yes", "ref:FR:SIRET": "80862352400028", "shop": "bakery"}}, {"type": "node", "id": 5183426526, "lat": 45.744383, "lon": 4.8225282, "tags": {"name": "Serve", "opening_hours": "Mo-Sa 06:30-19:30", "ref:FR:SIRET": "49373589800014", "shop": "bakery"}}, {"type": "node", "id": 5206577820, "lat": 45.7549712, "lon": 4.8122739, "tags": {"check_date:opening_hours": "2024-10-07", "name": "Fetishi et Gourru", "opening_hours": "Mo-Fr 07:00-19:30; Su 07:30-13:00", "shop": "bakery", "website": "https://fr.restaurantguru.com/Fetishi-et-Gourru-Lyon"}}, {"type": "node", "id": 5527552960, "lat": 45.7662075, "lon": 4.8276506, "tags": {"name": "Boulangerie Saint-Paul", "opening_hours": "Mo-Fr 07:00-19:00; Sa,Su 08:00-13:00", "phone": "+33 4 78 23 84 21", "shop": "bakery", "website": "https://maisonfarine.com"}}, {"type": "node", "id": 5598980721, "lat": 45.7520363, "lon": 4.8302818, "tags": {"email": "auvieuxpetrinlyon@outlook.fr", "name": "Au Vieux P\u00e9trin", "opening_hours": "Tu-Sa 05:00-19:30; Su 05:00-14:00; PH 05:00-14:00", "phone": "+33 4 78 37 85 19", "ref:FR:SIRET": "81835920000016", "shop": "bakery", "website": "https://au-vieux-petrin-lyon.eatbu.com/"}}, {"type": "node", "id": 5720917822, "lat": 45.7695777, "lon": 4.8524554, "tags": {"brand": "Maison Tixier", "name": "Chez Jules", "opening_hours": "Mo-Fr 06:00-19:30; Sa 06:00-19:00", "phone": "+33 4 78 89 55 64", "ref:FR:SIRET": "40055122200013", "shop": "bakery", "toilets:wheelchair": "no", "website": "http://www.patisserie-tixier.com/", "wheelchair": "yes"}}, {"type": "node", "id": 5838505650, "lat": 45.7689627, "lon": 4.8443353, "tags": {"contact:facebook": "https://www.facebook.com/pages/Boulangerie-Lacorne-Patrick/215973755555790", "name": "La Corne", "phone": "+33 4 78 89 45 59", "ref:FR:SIRET": "39851548600023", "shop": "bakery"}}, {"type": "node", "id": 6065970594, "lat": 45.7575767, "lon": 4.8350638, "tags": {"branch": "Lyon Bellecour", "check_date": "2025-10-13", "contact:facebook": "Maison-Eric-Kayser-Lyon-430866860578755", "indoor_seating": "yes", "name": "Eric Kayser", "not:brand:wikidata": "Q99231745", "opening_hours": "Mo-Sa 07:00-20:00", "operator": "Eric Kayser", "outdoor_seating": "yes", "phone": "+33 4 78 62 98 02", "ref:FR:SIRET": "50449507800025", "shop": "bakery", "website": "https://maison-kayser.com/boulangerie/bellecour/"}}, {"type": "node", "id": 6123282693, "lat": 45.7457494, "lon": 4.8203857, "tags": {"name": "Les 3V", "opening_hours": "Mo-Sa 06:30-19:30; Su 07:00-14:00", "payment:cash": "yes", "payment:credit_cards": "yes", "ref:FR:SIRET": "84143756900012", "shop": "bakery"}}, {"type": "node", "id": 6227668047, "lat": 45.7625319, "lon": 4.8505545}, {"type": "node", "id": 6227668048, "lat": 45.7625269, "lon": 4.8505063}, {"type": "node", "id": 6227668049, "lat": 45.7624942, "lon": 4.8505626}, {"type": "node", "id": 6227668050, "lat": 45.7624891, "lon": 4.8505144}, {"type": "node", "id": 6230118518, "lat": 45.7630627, "lon": 4.8508405}, {"type": "node", "id": 6230118519, "lat": 45.7630025, "lon": 4.8508532}, {"type": "node", "id": 6230118520, "lat": 45.7629865, "lon": 4.8506974}, {"type": "node", "id": 6230118521, "lat": 45.7630467, "lon": 4.8506847}, {"type": "node", "id": 6274725655, "lat": 45.7631843, "lon": 4.8503975}, {"type": "node", "id": 6274725656, "lat": 45.7631819, "lon": 4.8503724}, {"type": "node", "id": 6274725657, "lat": 45.7631256, "lon": 4.8503833}, {"type": "node", "id": 6274725658, "lat": 45.7631279, "lon": 4.8504083}, {"type": "node", "id": 6280521001, "lat": 45.7688864, "lon": 4.8552106, "tags": {"name": "Maison Deschamps", "opening_hours": "Mo-Sa 07:00-19:00; Su 07:00-13:00", "payment:cash": "yes", "payment:mastercard": "yes", "payment:visa": "yes", "phone": "+33 4 37 72 92 66", "ref:FR:SIRET": "80163202700026", "shop": "bakery", "website": "https://maison-deschamps.com", "wheelchair": "no", "wikimedia_commons": "File:L'\u00e9picerie Les D\u00e9lices d'ailleurs (Lyon), rue de S\u00e8ze.jpg"}}, {"type": "node", "id": 6383801199, "lat": 45.7635069, "lon": 4.84719, "tags": {"contact:phone": "+33472749192", "name": "Boulangerie Malatier", "opening_hours": "Tu-Sa 06:15-19:30; Su 06:15-13:00", "ref:FR:SIRET": "50856542100023", "shop": "bakery", "website": "https://boulangeriemalatier.fr"}}, {"type": "node", "id": 6383816366, "lat": 45.7634655, "lon": 4.8444563, "tags": {"check_date": "2025-09-04", "check_date:opening_hours": "2025-09-04", "name": "Boulangerie Lafayette", "opening_hours": "Mo-Sa 07:00-19:30", "ref:FR:SIRET": "50060437600011", "shop": "bakery"}}, {"type": "node", "id": 6400337279, "lat": 45.7576351, "lon": 4.8523802, "tags": {"check_date": "2025-05-18", "name": "R\u00e9gal et Tradition", "ref:FR:SIRET": "94092654600026", "shop": "bakery"}}, {"type": "node", "id": 6412930607, "lat": 45.7745948, "lon": 4.8311663, "tags": {"check_date:opening_hours": "2025-04-20", "email": "fournilopera@gmail.com", "indoor_seating": "no", "name": "Boulangerie Kayser", "opening_hours": "07:00-20:00", "operator": "Eric Kayser", "outdoor_seating": "no", "payment:cash": "yes", "payment:coins": "yes", "payment:contactless": "yes", "payment:credit_cards": "yes", "phone": "+33 4 78 98 74 65", "shop": "bakery", "stroller": "yes", "takeaway": "only", "website": "https://www.maison-kayser.com/bourse/fr/boulangeries/100003005-croix-rousse.html", "wheelchair": "yes"}}, {"type": "node", "id": 6423443514, "lat": 45.7488512, "lon": 4.8389425, "tags": {"check_date": "2025-07-30", "contact:instagram": "https://www.instagram.com/boulangerie.lesartistes/", "contact:website": "https://www.boulangerie-les-artistes.fr/fr-fr/", "description:en": "leaven, organic flours, etc", "name": "Les Artistes", "opening_hours": "Mo-Fr 07:00-19:00", "ref:FR:SIRET": "95355923400018", "shop": "bakery"}}, {"type": "node", "id": 6435722716, "lat": 45.7577227, "lon": 4.8565651, "tags": {"brand": "Campaillette", "brand:wikidata": "Q88085399", "check_date:opening_hours": "2023-01-14", "name": "Campaillette", "opening_hours:signed": "no", "shop": "bakery", "wheelchair": "yes"}}, {"type": "node", "id": 6437085617, "lat": 45.76599, "lon": 4.8432744, "tags": {"addr:housenumber": "17", "addr:postcode": "69006", "addr:street": "Rue Bugeaud", "contact:phone": "+33 4 78 24 96 70", "name": "ALMA par Marvin Brandao", "opening_hours": "Mo-Fr 07:30-19:00; Sa 08:00-13:00", "ref:FR:SIRET": "91901227800017", "shop": "bakery", "website": "https://alma-lyon6.com/"}}, {"type": "node", "id": 6480654887, "lat": 45.7513261, "lon": 4.8457057, "tags": {"check_date:opening_hours": "2025-10-02", "email": "hynd1205@live.fr", "name": "Boulangerie des 5 sens", "opening_hours": "Mo-Fr 05:30-20:00; Sa,Su 05:30-14:00", "payment:coins": "yes", "payment:contactless": "yes", "payment:mastercard": "yes", "payment:notes": "yes", "payment:visa": "yes", "phone": "+33 9 73 23 13 13", "shop": "bakery"}}, {"type": "node", "id": 6487305977, "lat": 45.7473706, "lon": 4.826249}, {"type": "node", "id": 6764190407, "lat": 45.7450265, "lon": 4.8225242, "tags": {"name": "Patisserie P\u00e9pin", "phone": "+33 4 72 41 35 75", "ref:FR:SIRET": "49912550800022", "shop": "bakery", "wheelchair": "yes"}}, {"type": "node", "id": 6818303043, "lat": 45.774769, "lon": 4.8063303, "tags": {"contact:facebook": "https://www.facebook.com/pages/category/Bakery/Boulangerie-le-9eme-Pain-885951894858897/", "indoor_seating": "no", "name": "Le 9e Pain", "opening_hours": "Tu-Fr 06:30-19:00, Sa 06:30-14:00, Su 07:00-13:00", "organic": "yes", "outdoor_seating": "no", "payment:cash": "yes", "payment:coins": "yes", "payment:credit_cards": "yes", "phone": "+33 9 53 24 56 53", "ref:FR:SIRET": "83356682100017", "shop": "bakery", "takeaway": "only"}}, {"type": "node", "id": 6912890133, "lat": 45.7712266, "lon": 4.8467577, "tags": {"check_date": "2024-09-18", "name": "Barioz Artisan Boulanger", "opening_hours": "Mo-Fr 06:30-19:30; Su 07:00-13:00", "ref:FR:SIRET": "43452681000032", "shop": "bakery"}}, {"type": "node", "id": 6955855572, "lat": 45.7694374, "lon": 4.8442838, "tags": {"name": "Au Fournil du 6\u00e8me", "opening_hours": "Mo-Fr 07:00-19:00; Sa 07:30-13:00", "ref:FR:SIRET": "81436515100012", "shop": "bakery"}}, {"type": "node", "id": 6974650371, "lat": 45.753063, "lon": 4.8293085, "tags": {"brand": "Paul", "brand:wikidata": "Q3370417", "brand:wikipedia": "en:Paul (bakery)", "check_date": "2025-10-18", "check_date:opening_hours": "2024-03-07", "name": "Paul", "opening_hours:signed": "no", "organic": "no", "pastry_shop": "yes", "ref:FR:SIRET": "81534436100010", "shop": "bakery", "wheelchair": "yes"}}, {"type": "node", "id": 6978214470, "lat": 45.7555265, "lon": 4.8308606, "tags": {"brand": "Brioche Dor\u00e9e", "brand:website": "https://www.briochedoree.fr", "brand:wikidata": "Q2925606", "brand:wikipedia": "fr:Brioche Dor\u00e9e", "check_date": "2025-10-10", "name": "Brioche Dor\u00e9e", "opening_hours": "Mo-Sa 07:30-19:00", "phone": "+33 4 78 42 36 40", "ref:FR:SIRET": "31890659100991", "shop": "bakery", "website": "https://www.briochedoree.fr/restaurants/97-lyon-victor-hugo"}}, {"type": "node", "id": 6985376430, "lat": 45.7602214, "lon": 4.8308573, "tags": {"check_date": "2025-03-03", "check_date:opening_hours": "2025-03-03", "name": "Pain des C\u00e9lestins", "opening_hours:signed": "no", "ref:FR:SIRET": "49823961500012", "shop": "bakery"}}, {"type": "node", "id": 6990579245, "lat": 45.7511183, "lon": 4.8305286, "tags": {"name": "Boulangerie S. Chollet", "opening_hours": "Mo-Sa 06:30-19:15", "shop": "bakery", "survey:date": "2023-08-19", "wheelchair": "yes"}}, {"type": "node", "id": 7002809198, "lat": 45.7518263, "lon": 4.8278952, "tags": {"check_date:opening_hours": "2024-02-27", "contact:facebook": "https://www.facebook.com/maisonpochat", "email": "contact@maison-pochat.fr", "indoor_seating": "yes", "name": "Maison Pochat", "opening_hours": "Mo-Sa 07:30-19:30; Su 07:30-13:00", "outdoor_seating": "no", "phone": "+33 4 72 61 52 41", "ref:FR:SIRET": "80988151900023", "shop": "bakery", "website": "https://maison-pochat.fr", "wheelchair": "yes"}}, {"type": "node", "id": 7048683478, "lat": 45.7570784, "lon": 4.8283968, "tags": {"contact:facebook": "https://www.facebook.com/pages/category/Bakery/Tendance-Boulange-1552029028443589/", "name": "Tendance Boulange", "opening_hours": "Mo-Fr 07:30-14:00,16:00-19:00", "phone": "+33 6 18 61 26 69", "ref:FR:SIRET": "80524163500012", "shop": "bakery", "wheelchair": "limited"}}, {"type": "node", "id": 7068969834, "lat": 45.7551116, "lon": 4.8268634, "tags": {"indoor_seating": "yes", "name": "L'artisan Boulanger de Vaubecour", "opening_hours": "Mo-Sa 07:00-20:00; Su 07:00-19:00", "outdoor_seating": "yes", "payment:credit_cards": "yes", "payment:debit_cards": "yes", "phone": "+33 4 72 77 97 02", "ref:FR:SIRET": "79284545500015", "shop": "bakery", "wheelchair": "yes"}}, {"type": "node", "id": 7072563776, "lat": 45.7525726, "lon": 4.8282561, "tags": {"contact:facebook": "https://www.facebook.com/PSboulangeriepatisserie/", "name": "Pauline et Steve", "opening_hours": "Mo-Fr 06:00-20:00; Sa 06:00-19:00", "payment:credit_cards": "yes", "payment:debit_cards": "yes", "phone": "+33478376946", "ref:FR:SIRET": "85106807200012", "shop": "bakery", "website": "https://boulangeriepaulineetsteve.fr"}}, {"type": "node", "id": 7088655885, "lat": 45.7693985, "lon": 4.843995, "tags": {"name": "L&G", "opening_hours": "Mo-Sa 06:30-19:00; Su 07:00-19:00", "shop": "bakery"}}, {"type": "node", "id": 7101669334, "lat": 45.7695965, "lon": 4.8576835, "tags": {"check_date:opening_hours": "2025-07-07", "contact:facebook": "dornerfreres", "contact:instagram": "dornerfreres", "email": "contact@dornerfreres.com", "internet_access": "no", "name": "Dorner Fr\u00e8res", "opening_hours": "Tu-Sa 09:00-19:00", "pastry": "yes", "payment:cash": "yes", "payment:mastercard": "yes", "payment:visa": "yes", "phone": "+33 4 72 83 96 28", "ref:FR:SIRET": "87803364600018", "shop": "bakery", "website": "https://www.dorner-freres.fr/", "wheelchair": "no"}}, {"type": "node", "id": 7129084645, "lat": 45.767281, "lon": 4.8348362, "tags": {"check_date:opening_hours": "2024-07-07", "contact:housenumber": "4", "contact:phone": "+33 9 67 13 82 52", "contact:street": "Rue Joseph Serlin", "description:fr": "cette boulangerie n'a pas de nom sp\u00e9cial", "name": "Augustin", "opening_hours": "Mo-Su 07:00-20:00", "ref:FR:SIRET": "75295989000076", "shop": "bakery", "wheelchair": "limited"}}, {"type": "node", "id": 7258529796, "lat": 45.7610944, "lon": 4.8324021, "tags": {"check_date": "2025-04-12", "check_date:opening_hours": "2025-04-12", "contact:facebook": "https://www.facebook.com/Le-Pain-des-Jacobins-102291124628143", "name": "Le pain des jacobins", "opening_hours": "Tu-Sa 07:30-19:30; Su 08:00-13:00", "phone": "+33 4 78 42 02 86", "shop": "bakery"}}, {"type": "node", "id": 7260992386, "lat": 45.7661227, "lon": 4.8334984, "tags": {"name": "MHAYA", "ref:FR:SIRET": "85223869000022", "shop": "bakery"}}, {"type": "node", "id": 7353784827, "lat": 45.7673723, "lon": 4.8464875, "tags": {"brand": "Banette", "brand:wikidata": "Q2882405", "brand:wikipedia": "fr:Banette (entreprise)", "name": "Maison B", "opening_hours": "Mo-Fr 07:00-19:00", "ref:FR:SIRET": "83333270300010", "shop": "bakery"}}, {"type": "node", "id": 7362137468, "lat": 45.7702557, "lon": 4.8541844, "tags": {"name": "Les bl\u00e9s dor\u00e9s", "opening_hours": "Mo-Fr 06:45-19:30; Su 07:00-12:00", "phone": "+33 4 78 89 05 17", "ref:FR:SIRET": "88537148400019", "shop": "bakery"}}, {"type": "node", "id": 7362230939, "lat": 45.7419193, "lon": 4.8205482, "tags": {"check_date:opening_hours": "2025-06-08", "contact:facebook": "https://www.facebook.com/HenriBConfluence/", "contact:phone": "+33 4 72 64 00 21", "contact:website": "https://www.henrib.fr/boulangerie/boulangerie-patisserie-restauration-rapide-lyon-confluence-2.php", "name": "Boulangerie Henri B.", "opening_hours": "Mo-Fr 06:30-19:30; Sa 07:00-19:30", "opening_hours:signed": "no", "ref:FR:SIRET": "83919496600025", "shop": "bakery"}}, {"type": "node", "id": 7366898004, "lat": 45.7697532, "lon": 4.847508, "tags": {"name": "La Galerie des Pains", "ref:FR:SIRET": "79032166500016", "shop": "bakery", "source": "Mapillary"}}, {"type": "node", "id": 7367713001, "lat": 45.7551105, "lon": 4.8271374, "tags": {"brand": "Maison Tixier", "contact:facebook": "https://www.facebook.com/Maison-Tixier-2190161374530959/", "name": "La Maison Tixier", "opening_hours": "Mo-Sa 06:00-19:30", "phone": "+33 4 78 42 44 03", "shop": "bakery", "survey:date": "2020-05-26"}}, {"type": "node", "id": 7367751390, "lat": 45.7581338, "lon": 4.8254965, "tags": {"name": "P\u00e2tisserie Corret", "opening_hours": "Mo-Fr 07:00-19:00", "shop": "bakery"}}, {"type": "node", "id": 7372423923, "lat": 45.7664963, "lon": 4.8452146, "tags": {"contact:facebook": "https://www.facebook.com/grainesoucampagne", "name": "Graines ou Campagne", "opening_hours": "10:00-19:00", "operational_status": "operational", "ref:FR:SIRET": "81775955800056", "shop": "bakery"}}, {"type": "node", "id": 7460855241, "lat": 45.745883, "lon": 4.826623, "tags": {"name": "Bar \u00e0 Pains", "opening_hours": "Mo-Sa 07:00-20:00; Su 07:00-13:00", "ref:FR:SIRET": "83075449500018", "shop": "bakery", "source": "INSEE - 04/2020", "wheelchair": "yes"}}, {"type": "node", "id": 7460916877, "lat": 45.7426111, "lon": 4.8172763, "tags": {"check_date:opening_hours": "2025-09-01", "name": "Estelle et Christophe Basset", "opening_hours": "Mo-Fr 06:30-19:00", "ref:FR:SIRET": "48938231700035", "shop": "bakery", "source": "INSEE - 04/2020", "wheelchair": "yes"}}, {"type": "node", "id": 7529635965, "lat": 45.7631305, "lon": 4.8321716, "tags": {"name": "Pralus La Boulangerie", "opening_hours": "Mo-Sa 08:00-19:00; Su 08:00-15:00", "shop": "bakery"}}, {"type": "node", "id": 7552254910, "lat": 45.7533277, "lon": 4.8576625, "tags": {"indoor_seating": "yes", "name": "La maison des Pains", "opening_hours": "Mo-Su 06:30-19:30", "outdoor_seating": "sidewalk", "payment:credit_cards": "yes", "payment:debit_cards": "yes", "ref:FR:SIRET": "80199927700016", "shop": "bakery", "smoking": "outside", "wheelchair": "yes"}}, {"type": "node", "id": 7558417094, "lat": 45.7640505, "lon": 4.8483451, "tags": {"check_date:opening_hours": "2025-04-11", "contact:email": "commande.pain.tisserie@gmail.com", "contact:phone": "+33437249699", "name": "Pain-tisserie", "opening_hours": "Mo-Fr 07:30-19:30; Sa 07:30-13:00", "ref:FR:SIRET": "90185968600015", "shop": "bakery"}}, {"type": "node", "id": 7689120875, "lat": 45.7448767, "lon": 4.8490578, "tags": {"name": "L'art et la baguette", "opening_hours": "Mo-Su 06:00-20:00", "payment:cash": "yes", "payment:credit_cards": "yes", "payment:debit_cards": "yes", "ref:FR:SIRET": "87957122200014", "shop": "bakery"}}, {"type": "node", "id": 7787192473, "lat": 45.7529149, "lon": 4.8450821, "tags": {"check_date:opening_hours": "2024-10-10", "name": "L'Atelier des Traditions", "opening_hours": "Mo-Fr 06:00-19:00", "ref:FR:SIRET": "81098881600015", "shop": "bakery"}}, {"type": "node", "id": 7869415773, "lat": 45.7636651, "lon": 4.8425883, "tags": {"name": "Boulangerie M. David", "opening_hours": "Mo-Su 07:00-20:00", "ref:FR:SIRET": "85275227800014", "shop": "bakery"}}, {"type": "node", "id": 7890718517, "lat": 45.7696817, "lon": 4.853046, "tags": {"name": "Les fournils de france", "opening_hours": "Mo-Su 07:00-19:30", "ref:FR:SIRET": "87928386900045", "shop": "bakery"}}, {"type": "node", "id": 7934052821, "lat": 45.7474863, "lon": 4.8260032}, {"type": "node", "id": 7934052822, "lat": 45.7474235, "lon": 4.8259503}, {"type": "node", "id": 8024622588, "lat": 45.7693515, "lon": 4.8495016, "tags": {"contact:housenumber": "47", "name": "Les Co'pains D'antan", "ref:FR:SIRET": "97872888900012", "shop": "bakery"}}, {"type": "node", "id": 8114316345, "lat": 45.7666736, "lon": 4.8206864, "tags": {"check_date:opening_hours": "2025-03-21", "name": "Maison Pochat", "opening_hours": "Mo-Sa 07:00-19:30; Su 07:00-13:00", "payment:cards": "yes", "payment:cash": "yes", "payment:coins": "yes", "payment:contactless": "yes", "payment:credit_cards": "yes", "payment:debit_cards": "yes", "payment:mastercard": "yes", "payment:visa": "yes", "payment:visa_electron": "yes", "phone": "+33 4 78 58 62 65", "ref:vatin": "FR15809881519", "shop": "bakery", "stroller": "yes", "website": "https://maison-pochat.fr/", "wheelchair": "yes"}}, {"type": "node", "id": 8148865819, "lat": 45.7558742, "lon": 4.8447659, "tags": {"name": "Le Basha", "pastry": "yes", "shop": "bakery"}}, {"type": "node", "id": 8342546217, "lat": 45.7605472, "lon": 4.845803, "tags": {"check_date": "2025-05-08", "check_date:opening_hours": "2025-05-08", "name": "Gourmandise et Tradition", "opening_hours": "Mo-Fr 06:30-19:30; PH 07:00-13:30", "ref:FR:SIRET": "85065663800010", "shop": "bakery"}}, {"type": "node", "id": 8401696117, "lat": 45.7459364, "lon": 4.8415868, "tags": {"check_date:opening_hours": "2024-09-29", "name": "L'Art du Pain", "opening_hours:signed": "no", "shop": "bakery"}}, {"type": "node", "id": 8653047530, "lat": 45.7753548, "lon": 4.8319318, "tags": {"brand": "Augustin", "brand:wikidata": "Q130232585", "name": "Augustin", "opening_hours": "07:00-20:00", "ref:FR:SIRET": "75295989000050", "shop": "bakery"}}, {"type": "node", "id": 8769438825, "lat": 45.7569663, "lon": 4.8157604, "tags": {"check_date:opening_hours": "2024-04-02", "contact:email": "grainsdesucres@gmail.com", "contact:facebook": "https://www.facebook.com/grainsdesucres/", "contact:housenumber": "45", "contact:instagram": "https://www.instagram.com/grainsdesucres/", "contact:phone": "+33 4 81 91 31 87", "contact:street": "Rue de Trion", "contact:website": "https://grainsdesucres.com/", "fixme": "opening_hours \u00e0 confirmer", "name": "Grains de sucres", "opening_hours": "Tu-Fr 07:00-19:30; Sa 07:00-18:30; Su 08:00-13:00", "pastry": "yes", "shop": "bakery"}}, {"type": "node", "id": 8895151928, "lat": 45.7675485, "lon": 4.8326674, "tags": {"brand": "La Mie C\u00e2line", "brand:wikidata": "Q3210704", "contact:housenumber": "10", "contact:street": "Place des Terreaux", "name": "La Mie C\u00e2line", "opening_hours": "Mo-Su 07:30-20:30", "shop": "bakery", "website": "https://www.lamiecaline.com/boutiques/lyon-terreaux"}}, {"type": "node", "id": 9210982618, "lat": 45.763527, "lon": 4.8523399, "tags": {"check_date": "2025-05-29", "check_date:opening_hours": "2025-05-29", "image": "https://storage13.openstreetcam.org/files/photo/2020/7/6/lth/2733314_564ff_5f033ff0034b1.jpg", "name": "Boulangerie des 5 sens", "opening_hours": "Mo-Fr 07:00-19:30", "shop": "bakery"}}, {"type": "node", "id": 9540480522, "lat": 45.7525095, "lon": 4.843084, "tags": {"contact:instagram": "https://www.instagram.com/jeanmicheboulangerie/", "name": "Jean-Miche", "opening_hours": "Mo-Fr 07:00-19:00; Sa 07:00-14:00", "shop": "bakery"}}, {"type": "node", "id": 9590234656, "lat": 45.7501707, "lon": 4.8453321, "tags": {"addr:housenumber": "26", "addr:street": "Rue de la Thibaudi\u00e8re", "contact:email": "boulangeriemado@gmail.com", "contact:facebook": "https://www.facebook.com/BoulangerieMado", "contact:instagram": "https://www.instagram.com/boulangeriemado", "food": "hawaiian", "name": "Boulangerie Mado", "opening_hours": "Tu-Fr 08:00-19:30; Sa 08:00-13:30", "ref:FR:SIRET": "91463956200018", "shop": "bakery", "website": "https://www.boulangeriemado.fr/"}}, {"type": "node", "id": 9790785617, "lat": 45.7461754, "lon": 4.8235316, "tags": {"addr:city": "Lyon", "addr:housenumber": "34", "addr:postcode": "69002", "addr:street": "Cours Charlemagne", "bakehouse": "yes", "chocolate": "no", "craft": "bakery", "name": "Pan\u00e9terra", "opening_hours": "Mo-Fr 07:30-19:00; Sa 08:00-19:00", "organic": "yes", "pastry": "yes", "payment:cash": "yes", "payment:contactless": "yes", "payment:credit_cards": "yes", "payment:debit_cards": "yes", "payment:mastercard": "yes", "payment:meal_voucher": "yes", "payment:visa": "yes", "phone": "+33672915092", "produced_on_site": "yes", "ref:FR:SIRET": "88153984500019", "shop": "bakery", "website": "https://www.paneterra-69.fr/", "wheelchair": "yes"}}, {"type": "node", "id": 9836442345, "lat": 45.761806, "lon": 4.8564308}, {"type": "node", "id": 9836442346, "lat": 45.7618184, "lon": 4.8565719}, {"type": "node", "id": 9836442347, "lat": 45.7616563, "lon": 4.856601}, {"type": "node", "id": 9836442348, "lat": 45.761841, "lon": 4.8563379}, {"type": "node", "id": 9836442349, "lat": 45.7617677, "lon": 4.8563511}, {"type": "node", "id": 9836442350, "lat": 45.7617658, "lon": 4.8563296}, {"type": "node", "id": 9836442351, "lat": 45.7616346, "lon": 4.8563532}, {"type": "node", "id": 9836442365, "lat": 45.7618486, "lon": 4.8564231}, {"type": "node", "id": 9981108197, "lat": 45.7578728, "lon": 4.8337335, "tags": {"brand": "La Mie C\u00e2line", "brand:wikidata": "Q3210704", "level": "-1", "name": "La Mie C\u00e2line", "opening_hours": "Mo-Fr 07:00-19:30; Sa 10:00-19:30", "phone": "+33 4 78 59 66 30", "shop": "bakery", "website": "https://www.lamiecaline.com/boutiques/lyon-metro-bellecour/"}}, {"type": "node", "id": 10016347437, "lat": 45.7569563, "lon": 4.8508261, "tags": {"addr:postcode": "69003", "name": "Canaille & P\u00e9trin", "nobrand": "yes", "opening_hours": "Tu-Fr 10:00-19:00; Sa 09:00-13:00", "organic": "only", "outdoor_seating": "no", "ref:FR:SIRET": "90979046100026", "shop": "bakery"}}, {"type": "node", "id": 10132986687, "lat": 45.7407851, "lon": 4.8187129, "tags": {"brand": "Paul", "brand:wikidata": "Q3370417", "level": "0", "name": "Paul", "opening_hours": "Mo-Fr 07:00-20:00; Sa 07:30-20:00; Su 07:30-19:30", "ref:FR:SIRET": "53315387000027", "shop": "bakery", "website": "https://www.paul.fr/stores/lyon_confluence"}}, {"type": "node", "id": 10845958254, "lat": 45.74814, "lon": 4.8256145}, {"type": "node", "id": 10845958255, "lat": 45.7482383, "lon": 4.8256053, "tags": {"entrance": "yes", "level": "1"}}, {"type": "node", "id": 10845958256, "lat": 45.7481228, "lon": 4.8256551}, {"type": "node", "id": 10845958257, "lat": 45.7480918, "lon": 4.8256286}, {"type": "node", "id": 10845958258, "lat": 45.748069, "lon": 4.8256834}, {"type": "node", "id": 10845958259, "lat": 45.7482423, "lon": 4.8257005}, {"type": "node", "id": 10845958260, "lat": 45.7482254, "lon": 4.8256862}, {"type": "node", "id": 10845958261, "lat": 45.7482536, "lon": 4.8256179}, {"type": "node", "id": 10845958262, "lat": 45.7481683, "lon": 4.8255473}, {"type": "node", "id": 10845962706, "lat": 45.7482033, "lon": 4.8257937}, {"type": "node", "id": 10978857164, "lat": 45.7651701, "lon": 4.8444148, "tags": {"contact:email": "commande.pain-tisserie@gmail.com", "contact:phone": "+33437728353", "name": "Pain-tisserie", "opening_hours": "Mo-Fr 08:00-19:00; Sa 08:00-13:00", "shop": "bakery"}}, {"type": "node", "id": 11146172684, "lat": 45.7543888, "lon": 4.840503, "tags": {"amenity": "cafe", "diet:vegetarian": "yes", "name": "Piece of Cake!", "ref:FR:SIRET": "80231020100024", "shop": "bakery", "toilets": "yes"}}, {"type": "node", "id": 11766074495, "lat": 45.7514014, "lon": 4.8477899, "tags": {"name": "F comme Sandwich", "opening_hours": "Mo-Fr 10:00-17:30", "shop": "bakery", "survey:date": "2024-03-27"}}, {"type": "node", "id": 12075988617, "lat": 45.7462775, "lon": 4.8379789, "tags": {"brand": "Chez Jules", "brand:website": "https://www.boulangeriechezjules.fr/", "name": "Chez Jules", "opening_hours": "Mo-Sa 06:30-19:45; Su,PH 07:00-19:00", "phone": "+33 4 72 76 29 41", "ref:FR:SIRET": "43311263800013", "shop": "bakery", "website": "https://www.boulangeriechezjules.fr/", "wheelchair": "yes"}}, {"type": "node", "id": 12176693037, "lat": 45.7417622, "lon": 4.8400472, "tags": {"name": "Le Petit Lutin", "opening_hours": "Mo-Fr 05:30-14:00", "ref:FR:SIRET": "40078177900022", "shop": "bakery"}}, {"type": "node", "id": 12339502223, "lat": 45.7473153, "lon": 4.8262052}, {"type": "node", "id": 12465525053, "lat": 45.7473821, "lon": 4.8262587}, {"type": "node", "id": 12534222406, "lat": 45.7688018, "lon": 4.831537, "tags": {"addr:housenumber": "42", "addr:street": "Rue Sergent Blandan", "name": "My Little Babka", "ref:FR:SIRET": "97986215800016", "shop": "bakery"}}, {"type": "node", "id": 12959257532, "lat": 45.7677996, "lon": 4.8434824, "tags": {"name": "Miette", "ref:FR:SIRET": "89140229900012", "shop": "bakery"}}, {"type": "way", "id": 82189808, "nodes": [956975891, 956973754, 956973267, 956975431, 956975546, 956975891], "tags": {"building": "retail", "building:levels": "4", "contact:facebook": "https://www.facebook.com/pages/category/Bakery/Max-Poil%C3%A2ne-553412004865061/", "name": "Poilane", "opening_hours": "Mo-Fr 07:00-19:00; Sa 07:30-19:00; PH,Su 07:30-13:30", "organic": "yes", "ref:FR:SIRET": "48800060500029", "shop": "bakery", "source": "cadastre-dgi-fr source : Direction G\u00e9n\u00e9rale des Imp\u00f4ts - Cadastre. Mise \u00e0 jour : 2010", "website": "http://max-poilane.fr/"}}, {"type": "way", "id": 665362159, "nodes": [6227668048, 6227668050, 6227668049, 6227668047, 6227668048], "tags": {"indoor": "room", "level": "0", "name": "Maison Victoire", "ref": "23", "room": "shop", "shop": "bakery"}}, {"type": "way", "id": 665610636, "nodes": [6230118521, 6230118520, 6230118519, 6230118518, 6230118521], "tags": {"indoor": "room", "level": "0", "name": "Le pain du Gone", "opening_hours": "Tu-Sa 07:30-19:30;Su 07:40-14:00", "ref": "55", "room": "shop", "shop": "bakery"}}, {"type": "way", "id": 670013966, "nodes": [6274725658, 6274725657, 6274725656, 6274725655, 6274725658], "tags": {"indoor": "room", "level": "0", "name": "Le Boulanger de l'\u00cele Barbe", "ref": "17", "ref:FR:SIRET": "38938924800029", "room": "shop", "shop": "bakery"}}, {"type": "way", "id": 1071998611, "nodes": [9836442365, 9836442348, 9836442349, 9836442350, 9836442351, 9836442347, 9836442346, 9836442345, 9836442365], "tags": {"brand": "Brioche Dor\u00e9e", "brand:wikidata": "Q2925606", "brand:wikipedia": "fr:Brioche Dor\u00e9e", "contact:city": "Lyon 3eme Arrondissement", "contact:housenumber": "17", "contact:phone": "+33 4 72 84 00 55", "contact:postcode": "69003", "contact:street": "Rue du Dr Bouchut", "indoor": "room", "level": "2", "name": "Brioche Dor\u00e9e", "official_name": "Brioche Dor\u00e9e Lyon - C.cial Part Dieu Niveau 0", "opening_hours": "Mo-Fr 07:00-20:00; Sa 07:30-20:00", "phone": "+33 4 78 62 36 30", "ref:FR:SIRET": "31890659100942", "shop": "bakery", "website": "https://www.briochedoree.fr/restaurants/94-lyon-c.cial-part-dieu-niveau-0"}}, {"type": "way", "id": 1166098329, "nodes": [10845958262, 10845958255, 10845958261, 10845958260, 10845958259, 10845962706, 10845958258, 10845958257, 10845958256, 10845958254, 10845958262], "tags": {"amenity": "fast_food", "brand": "Paul", "brand:wikidata": "Q3370417", "cuisine": "sandwich", "indoor": "room", "level": "1", "name": "Paul", "shop": "bakery"}}, {"type": "way", "id": 1192101692, "nodes": [12465525053, 6487305977, 12339502223, 7934052822, 7934052821, 12465525053], "tags": {"indoor": "room", "level": "-1", "name": "Boulangerie Maison Deschamps", "shop": "bakery"}}]}